{"type": "FeatureCollection", "name": "bridges", "features": [{"type": "Feature", "id": 1, "geometry": {"type": "Point", "coordinates": [72.83460277806644, 18.942188888702468]}, "properties": {"OBJECTID": 1, "TYPE": "FOB", "NAME": "Times FOB DN road", "WARD": "A", "INVENCOLL": "Y", "FIELDSUR": "Y", "REPORT": "Y", "CONDSUR": "Y", "CLASS": "GOOD", "RETROFITEST": " ", "REMARKS": " ", "DRAWINGS": " ", "ENGNAME": "NDD", "PROFORMAST": "1", "REFDWG": "E73-E77", "LATITUDEDD": 18.942189, "LONGITUDED": 72.834603}}, {"type": "Feature", "id": 2, "geometry": {"type": "Point", "coordinates": [72.83820000027536, 18.949036111218]}, "properties": {"OBJECTID": 2, "TYPE": "ROB", "NAME": "Curnac ROB", "WARD": "A", "INVENCOLL": null, "FIELDSUR": " ", "REPORT": " ", "CONDSUR": " ", "CLASS": " ", "RETROFITEST": " ", "REMARKS": "SCRAPPED", "DRAWINGS": "RLY", "ENGNAME": " ", "PROFORMAST": "0", "REFDWG": " ", "LATITUDEDD": 18.949036, "LONGITUDED": 72.8382}}, {"type": "Feature", "id": 3, "geometry": {"type": "Point", "coordinates": [72.83465555557929, 18.94004444410645]}, "properties": {"OBJECTID": 3, "TYPE": "PS", "NAME": "CST subway", "WARD": "A", "INVENCOLL": "Y", "FIELDSUR": "y", "REPORT": "Y", "CONDSUR": " ", "CLASS": "GOOD", "RETROFITEST": " ", "REMARKS": " ", "DRAWINGS": "RLY", "ENGNAME": "DGG", "PROFORMAST": "1", "REFDWG": "A235-A237 & F363-F402", "LATITUDEDD": 18.940044, "LONGITUDED": 72.834656}}, {"type": "Feature", "id": 4, "geometry": {"type": "Point", "coordinates": [72.82776111070663, 18.93303055570832]}, "properties": {"OBJECTID": 4, "TYPE": "PS", "NAME": "Churchgate subway S", "WARD": "A", "INVENCOLL": "Y", "FIELDSUR": "Y", "REPORT": "Y", "CONDSUR": " ", "CLASS": "GOOD", "RETROFITEST": " ", "REMARKS": " ", "DRAWINGS": "RLY", "ENGNAME": "DGG", "PROFORMAST": "1", "REFDWG": "F302-F312", "LATITUDEDD": 18.933031, "LONGITUDED": 72.827761}}, {"type": "Feature", "id": 5, "geometry": {"type": "Point", "coordinates": [72.82735833379209, 18.93651111114043]}, "properties": {"OBJECTID": 5, "TYPE": "PS", "NAME": "Churchgate subway N", "WARD": "A", "INVENCOLL": "Y", "FIELDSUR": "Y", "REPORT": "Y", "CONDSUR": " ", "CLASS": "GOOD", "RETROFITEST": " ", "REMARKS": " ", "DRAWINGS": "RLY", "ENGNAME": "DGG", "PROFORMAST": "1", "REFDWG": " ", "LATITUDEDD": 18.936511, "LONGITUDED": 72.82735799999999}}, {"type": "Feature", "id": 6, "geometry": {"type": "Point", "coordinates": [72.82917500006576, 18.943372222590515]}, "properties": {"OBJECTID": 6, "TYPE": "PS", "NAME": "Metro subway", "WARD": "A", "INVENCOLL": "Y", "FIELDSUR": "Y", "REPORT": "y", "CONDSUR": " ", "CLASS": "GOOD", "RETROFITEST": " ", "REMARKS": " ", "DRAWINGS": " ", "ENGNAME": "DGG", "PROFORMAST": "1", "REFDWG": " ", "LATITUDEDD": 18.943372, "LONGITUDED": 72.82917499999999}}, {"type": "Feature", "id": 7, "geometry": {"type": "Point", "coordinates": [72.82614166649932, 18.94221944471122]}, "properties": {"OBJECTID": 7, "TYPE": "FOB", "NAME": "DN road MK road jn FOB", "WARD": "A", "INVENCOLL": "Y", "FIELDSUR": "Y", "REPORT": "Y", "CONDSUR": "Y", "CLASS": "WORST", "RETROFITEST": "Y", "REMARKS": " ", "DRAWINGS": " ", "ENGNAME": "NDD", "PROFORMAST": "1", "REFDWG": " ", "LATITUDEDD": 18.942218999999998, "LONGITUDED": 72.82614199999999}}, {"type": "Feature", "id": 8, "geometry": {"type": "Point", "coordinates": [72.8419277782269, 18.95431666670743]}, "properties": {"OBJECTID": 8, "TYPE": "FOB", "NAME": "PD Mellow Rd Wadi bunder FOB", "WARD": "A", "INVENCOLL": "Y", "FIELDSUR": "Y", "REPORT": "Y", "CONDSUR": "Y", "CLASS": "GOOD", "RETROFITEST": " ", "REMARKS": " ", "DRAWINGS": " ", "ENGNAME": "NDD", "PROFORMAST": "1", "REFDWG": " ", "LATITUDEDD": 18.954317, "LONGITUDED": 72.841928}}, {"type": "Feature", "id": 9, "geometry": {"type": "Point", "coordinates": [72.84122777806907, 18.94898611069832]}, "properties": {"OBJECTID": 9, "TYPE": "FOB", "NAME": "Yellow gate FOB", "WARD": "B", "INVENCOLL": "Y", "FIELDSUR": "Y", "REPORT": "Y", "CONDSUR": " ", "CLASS": "WORST", "RETROFITEST": "TO BE RECONSTRUCTED", "REMARKS": " ", "DRAWINGS": " ", "ENGNAME": "NDD", "PROFORMAST": "1", "REFDWG": " ", "LATITUDEDD": 18.948985999999998, "LONGITUDED": 72.841228}}, {"type": "Feature", "id": 10, "geometry": {"type": "Point", "coordinates": [72.82456111142484, 18.944463888560225]}, "properties": {"OBJECTID": 10, "TYPE": "ROB", "NAME": "Princess street flyover", "WARD": "C", "INVENCOLL": "Y", "FIELDSUR": "Y", "REPORT": "Y", "CONDSUR": " ", "CLASS": "WORST", "RETROFITEST": "Y", "REMARKS": " ", "DRAWINGS": "DRG REQD FROM STUP", "ENGNAME": "DGG", "PROFORMAST": "1", "REFDWG": "A206-A208", "LATITUDEDD": 18.944464, "LONGITUDED": 72.824561}}, {"type": "Feature", "id": 11, "geometry": {"type": "Point", "coordinates": [72.82417222265327, 18.945636111204188]}, "properties": {"OBJECTID": 11, "TYPE": "FOB", "NAME": "MK Rd chandawadi S FOB", "WARD": "C", "INVENCOLL": "Y", "FIELDSUR": "Y", "REPORT": "Y", "CONDSUR": "Y", "CLASS": "WORST", "RETROFITEST": "Y", "REMARKS": " ", "DRAWINGS": " ", "ENGNAME": "NDD", "PROFORMAST": "1", "REFDWG": " ", "LATITUDEDD": 18.945636, "LONGITUDED": 72.82417199999999}}, {"type": "Feature", "id": 12, "geometry": {"type": "Point", "coordinates": [72.82443333354092, 18.94459166672656]}, "properties": {"OBJECTID": 12, "TYPE": "FOBRL", "NAME": "Princess Street FOB Marinelines", "WARD": "C", "INVENCOLL": "Y", "FIELDSUR": "Y", "REPORT": "Y", "CONDSUR": " ", "CLASS": "BAD", "RETROFITEST": " ", "REMARKS": " ", "DRAWINGS": "DRG REQD FROM STUP", "ENGNAME": "DGG", "PROFORMAST": "1", "REFDWG": " ", "LATITUDEDD": 18.944592, "LONGITUDED": 72.824433}}, {"type": "Feature", "id": 13, "geometry": {"type": "Point", "coordinates": [72.81171666638205, 18.978391666758082]}, "properties": {"OBJECTID": 13, "TYPE": "PS", "NAME": "Haji Ali S", "WARD": "D", "INVENCOLL": "Y", "FIELDSUR": "Y", "REPORT": "Y", "CONDSUR": " ", "CLASS": "GOOD", "RETROFITEST": " ", "REMARKS": " ", "DRAWINGS": " ", "ENGNAME": "DGG", "PROFORMAST": "1", "REFDWG": " ", "LATITUDEDD": 18.978392, "LONGITUDED": 72.811717}}, {"type": "Feature", "id": 14, "geometry": {"type": "Point", "coordinates": [72.8076111110882, 18.964083333369363]}, "properties": {"OBJECTID": 14, "TYPE": "FLYO", "NAME": "Kemps corner", "WARD": "D", "INVENCOLL": "Y", "FIELDSUR": "Y", "REPORT": "Y", "CONDSUR": "Y", "CLASS": "WORST", "RETROFITEST": "Y", "REMARKS": " ", "DRAWINGS": "SPA", "ENGNAME": "DGG", "PROFORMAST": "1", "REFDWG": "A279-A281", "LATITUDEDD": 18.964083, "LONGITUDED": 72.807611}}, {"type": "Feature", "id": 15, "geometry": {"type": "Point", "coordinates": [72.80088888870554, 18.95948888911543]}, "properties": {"OBJECTID": 15, "TYPE": "BRIDGE", "NAME": "Priyadarshani bridge", "WARD": "D", "INVENCOLL": "Y", "FIELDSUR": "Y", "REPORT": "Y", "CONDSUR": " ", "CLASS": "GOOD", "RETROFITEST": " ", "REMARKS": " ", "DRAWINGS": "RLY", "ENGNAME": "DGG", "PROFORMAST": "1", "REFDWG": " ", "LATITUDEDD": 18.959488999999998, "LONGITUDED": 72.800889}}, {"type": "Feature", "id": 16, "geometry": {"type": "Point", "coordinates": [72.81456944488859, 18.957069444360137]}, "properties": {"OBJECTID": 16, "TYPE": "ROB", "NAME": "French bridge", "WARD": "D", "INVENCOLL": "Y", "FIELDSUR": "Y", "REPORT": "Y", "CONDSUR": "Y", "CLASS": "BAD", "RETROFITEST": " ", "REMARKS": " ", "DRAWINGS": "RLY", "ENGNAME": "DGG", "PROFORMAST": "1", "REFDWG": "A213-A218", "LATITUDEDD": 18.957069, "LONGITUDED": 72.81456899999999}}, {"type": "Feature", "id": 17, "geometry": {"type": "Point", "coordinates": [72.81545277770525, 18.961980555849433]}, "properties": {"OBJECTID": 17, "TYPE": "ROB", "NAME": "Grant Road bridge", "WARD": "D", "INVENCOLL": "Y", "FIELDSUR": "Y", "REPORT": "Y", "CONDSUR": " ", "CLASS": "BAD", "RETROFITEST": " ", "REMARKS": " ", "DRAWINGS": "RLY", "ENGNAME": "DGG", "PROFORMAST": "1", "REFDWG": " ", "LATITUDEDD": 18.961980999999998, "LONGITUDED": 72.81545299999999}}, {"type": "Feature", "id": 18, "geometry": {"type": "Point", "coordinates": [72.81468333304103, 18.95650000006411]}, "properties": {"OBJECTID": 18, "TYPE": "ROB", "NAME": "Opera House bridge", "WARD": "D", "INVENCOLL": "Y", "FIELDSUR": "Y", "REPORT": " ", "CONDSUR": " ", "CLASS": "BAD", "RETROFITEST": " ", "REMARKS": " ", "DRAWINGS": "AV MCGM", "ENGNAME": "DGG", "PROFORMAST": "1", "REFDWG": " ", "LATITUDEDD": 18.956500000000002, "LONGITUDED": 72.814683}}, {"type": "Feature", "id": 19, "geometry": {"type": "Point", "coordinates": [72.81456388901958, 18.959213888980983]}, "properties": {"OBJECTID": 19, "TYPE": "ROB", "NAME": "Kennedy bridge", "WARD": "D", "INVENCOLL": "Y", "FIELDSUR": "Y", "REPORT": "Y", "CONDSUR": "Y", "CLASS": "WORST", "RETROFITEST": "Y", "REMARKS": " ", "DRAWINGS": "AV MCGM", "ENGNAME": "DGG", "PROFORMAST": "1", "REFDWG": "A232-A233", "LATITUDEDD": 18.959214, "LONGITUDED": 72.81456399999999}}, {"type": "Feature", "id": 20, "geometry": {"type": "Point", "coordinates": [72.81555277809302, 18.953694444526306]}, "properties": {"OBJECTID": 20, "TYPE": "FOB", "NAME": "Patel bridge", "WARD": "D", "INVENCOLL": "Y", "FIELDSUR": "Y", "REPORT": "Y", "CONDSUR": " ", "CLASS": "GOOD", "RETROFITEST": " ", "REMARKS": " ", "DRAWINGS": "AV MCGM", "ENGNAME": "DGG", "PROFORMAST": "1", "REFDWG": " ", "LATITUDEDD": 18.953694, "LONGITUDED": 72.815553}}, {"type": "Feature", "id": 21, "geometry": {"type": "Point", "coordinates": [72.8201249999241, 18.95065833313968]}, "properties": {"OBJECTID": 21, "TYPE": "FOB", "NAME": "MK RD jn BJ Road", "WARD": "D", "INVENCOLL": "Y", "FIELDSUR": "Y", "REPORT": "Y", "CONDSUR": " ", "CLASS": "BAD", "RETROFITEST": " ", "REMARKS": " ", "DRAWINGS": " ", "ENGNAME": "OK", "PROFORMAST": "1", "REFDWG": " ", "LATITUDEDD": 18.950658, "LONGITUDED": 72.82012499999999}}, {"type": "Feature", "id": 22, "geometry": {"type": "Point", "coordinates": [72.81944166669044, 18.95126111148829]}, "properties": {"OBJECTID": 22, "TYPE": "FOB", "NAME": "MK Rd Charni Rd E M SahityaSangh", "WARD": "D", "INVENCOLL": "Y", "FIELDSUR": "Y", "REPORT": "Y", "CONDSUR": "Y", "CLASS": "WORST", "RETROFITEST": "Y", "REMARKS": " ", "DRAWINGS": " ", "ENGNAME": "NDD", "PROFORMAST": "1", "REFDWG": " ", "LATITUDEDD": 18.951261, "LONGITUDED": 72.819442}}, {"type": "Feature", "id": 23, "geometry": {"type": "Point", "coordinates": [72.81871111084831, 18.951830555580454]}, "properties": {"OBJECTID": 23, "TYPE": "FOB", "NAME": "MK Rd jn Charni Rd E N Saifee", "WARD": "D", "INVENCOLL": "Y", "FIELDSUR": "Y", "REPORT": "Y", "CONDSUR": " ", "CLASS": "BAD", "RETROFITEST": " ", "REMARKS": " ", "DRAWINGS": " ", "ENGNAME": "NDD", "PROFORMAST": "1", "REFDWG": "D161-172", "LATITUDEDD": 18.951831, "LONGITUDED": 72.818711}}, {"type": "Feature", "id": 24, "geometry": {"type": "Point", "coordinates": [72.81809722258187, 18.952024999929336]}, "properties": {"OBJECTID": 24, "TYPE": "FOB", "NAME": "Across Charni Rd Station S", "WARD": "D", "INVENCOLL": "Y", "FIELDSUR": "Y", "REPORT": "Y", "CONDSUR": "Y", "CLASS": "WORST", "RETROFITEST": "Y", "REMARKS": " ", "DRAWINGS": " ", "ENGNAME": "NDD", "PROFORMAST": "1", "REFDWG": " ", "LATITUDEDD": 18.952025, "LONGITUDED": 72.818097}}, {"type": "Feature", "id": 25, "geometry": {"type": "Point", "coordinates": [72.81576388844893, 18.953944444748018]}, "properties": {"OBJECTID": 25, "TYPE": "FOBRL", "NAME": "Across Charni Rd Station N", "WARD": "D", "INVENCOLL": "Y", "FIELDSUR": "Y", "REPORT": "y", "CONDSUR": " ", "CLASS": "WORST", "RETROFITEST": "Y", "REMARKS": " ", "DRAWINGS": " ", "ENGNAME": "OK", "PROFORMAST": "1", "REFDWG": " ", "LATITUDEDD": 18.953944, "LONGITUDED": 72.815764}}, {"type": "Feature", "id": 26, "geometry": {"type": "Point", "coordinates": [72.81855277815153, 18.969025000393604]}, "properties": {"OBJECTID": 26, "TYPE": "ROB", "NAME": "Bellasis Mumbai central", "WARD": "D", "INVENCOLL": "Y", "FIELDSUR": "y", "REPORT": "Y", "CONDSUR": " ", "CLASS": "WORST", "RETROFITEST": "Y", "REMARKS": " ", "DRAWINGS": "AV MCGM", "ENGNAME": "DGG", "PROFORMAST": "1", "REFDWG": " ", "LATITUDEDD": 18.969025, "LONGITUDED": 72.818553}}, {"type": "Feature", "id": 27, "geometry": {"type": "Point", "coordinates": [72.83374722259114, 18.975163889077358]}, "properties": {"OBJECTID": 27, "TYPE": "FLYO", "NAME": "Gloria chruch byculla", "WARD": "E", "INVENCOLL": "Y", "FIELDSUR": "Y", "REPORT": "Y", "CONDSUR": " ", "CLASS": "BAD", "RETROFITEST": " ", "REMARKS": " ", "DRAWINGS": "AV MCGM", "ENGNAME": "PTR", "PROFORMAST": "1", "REFDWG": " ", "LATITUDEDD": 18.975164, "LONGITUDED": 72.833747}}, {"type": "Feature", "id": 28, "geometry": {"type": "Point", "coordinates": [72.8324722222243, 18.97116111099764]}, "properties": {"OBJECTID": 28, "TYPE": "FLYO", "NAME": "Sitaram Selam Y bridge", "WARD": "E", "INVENCOLL": "Y", "FIELDSUR": "Y", "REPORT": "Y", "CONDSUR": " ", "CLASS": "BAD", "RETROFITEST": " ", "REMARKS": " ", "DRAWINGS": "MCGM", "ENGNAME": "PTR", "PROFORMAST": "1", "REFDWG": " ", "LATITUDEDD": 18.971161, "LONGITUDED": 72.832472}}, {"type": "Feature", "id": 29, "geometry": {"type": "Point", "coordinates": [72.8337194441827, 18.969658333587482]}, "properties": {"OBJECTID": 29, "TYPE": "ROB", "NAME": "Olivant Br near siant merry", "WARD": "E", "INVENCOLL": "Y", "FIELDSUR": "Y", "REPORT": "Y", "CONDSUR": " ", "CLASS": "BAD", "RETROFITEST": " ", "REMARKS": " ", "DRAWINGS": "RLY", "ENGNAME": "PTR", "PROFORMAST": "1", "REFDWG": " ", "LATITUDEDD": 18.969658, "LONGITUDED": 72.833719}}, {"type": "Feature", "id": 30, "geometry": {"type": "Point", "coordinates": [72.84455833359371, 18.97614722260797]}, "properties": {"OBJECTID": 30, "TYPE": "ROB", "NAME": "Reay RD station", "WARD": "E", "INVENCOLL": "Y", "FIELDSUR": "Y", "REPORT": "y", "CONDSUR": " ", "CLASS": "WORST", "RETROFITEST": "Y", "REMARKS": " ", "DRAWINGS": "RLY", "ENGNAME": "DGG", "PROFORMAST": "1", "REFDWG": " ", "LATITUDEDD": 18.976146999999997, "LONGITUDED": 72.84455799999999}}, {"type": "Feature", "id": 31, "geometry": {"type": "Point", "coordinates": [72.83286111072495, 18.979583333237308]}, "properties": {"OBJECTID": 31, "TYPE": "ROB", "NAME": "S bridge Byculla", "WARD": "E", "INVENCOLL": "Y", "FIELDSUR": "Y", "REPORT": "Y", "CONDSUR": " ", "CLASS": "GOOD", "RETROFITEST": " ", "REMARKS": " ", "DRAWINGS": "MCGM", "ENGNAME": "PTR", "PROFORMAST": "1", "REFDWG": " ", "LATITUDEDD": 18.979582999999998, "LONGITUDED": 72.832861}}, {"type": "Feature", "id": 32, "geometry": {"type": "Point", "coordinates": [72.84410555580209, 18.96543333375563]}, "properties": {"OBJECTID": 32, "TYPE": "FOB", "NAME": "Dockyard Station", "WARD": "E", "INVENCOLL": "Y", "FIELDSUR": "Y", "REPORT": "Y", "CONDSUR": " ", "CLASS": "GOOD", "RETROFITEST": " ", "REMARKS": " ", "DRAWINGS": "AV MCGM", "ENGNAME": "PTR", "PROFORMAST": "1", "REFDWG": " ", "LATITUDEDD": 18.965433, "LONGITUDED": 72.844106}}, {"type": "Feature", "id": 33, "geometry": {"type": "Point", "coordinates": [72.83772222261099, 18.964249999955594]}, "properties": {"OBJECTID": 33, "TYPE": "FOB RL", "NAME": "Bhandari police station", "WARD": "E", "INVENCOLL": "Y", "FIELDSUR": "Y", "REPORT": "Y", "CONDSUR": " ", "CLASS": "BAD", "RETROFITEST": " ", "REMARKS": " ", "DRAWINGS": " ", "ENGNAME": "DGG", "PROFORMAST": "1", "REFDWG": " ", "LATITUDEDD": 18.96425, "LONGITUDED": 72.837722}}, {"type": "Feature", "id": 34, "geometry": {"type": "Point", "coordinates": [72.83861111092553, 18.952472222532677]}, "properties": {"OBJECTID": 34, "TYPE": "FOB RL", "NAME": "Masjid east west FOB RL", "WARD": "E", "INVENCOLL": "Y", "FIELDSUR": "Y", "REPORT": "Y", "CONDSUR": " ", "CLASS": "BAD", "RETROFITEST": " ", "REMARKS": " ", "DRAWINGS": " ", "ENGNAME": "DGG", "PROFORMAST": "1", "REFDWG": " ", "LATITUDEDD": 18.952472, "LONGITUDED": 72.838611}}, {"type": "Feature", "id": 35, "geometry": {"type": "Point", "coordinates": [72.83788888859073, 18.955888888560683]}, "properties": {"OBJECTID": 35, "TYPE": "FOB RL", "NAME": "Chinch bunder FOB RL", "WARD": "E", "INVENCOLL": "Y", "FIELDSUR": "Y", "REPORT": "Y", "CONDSUR": " ", "CLASS": "BAD", "RETROFITEST": " ", "REMARKS": " ", "DRAWINGS": " ", "ENGNAME": "DGG", "PROFORMAST": "1", "REFDWG": " ", "LATITUDEDD": 18.955889, "LONGITUDED": 72.83788899999999}}, {"type": "Feature", "id": 36, "geometry": {"type": "Point", "coordinates": [72.83289444416889, 18.98835833368232]}, "properties": {"OBJECTID": 36, "TYPE": "ROB", "NAME": "Arthur Road chinchpokli", "WARD": "F/S", "INVENCOLL": "Y", "FIELDSUR": "Y", "REPORT": "y", "CONDSUR": " ", "CLASS": "BAD", "RETROFITEST": " ", "REMARKS": " ", "DRAWINGS": "RLY", "ENGNAME": "DGG", "PROFORMAST": "1", "REFDWG": " ", "LATITUDEDD": 18.988357999999998, "LONGITUDED": 72.832894}}, {"type": "Feature", "id": 37, "geometry": {"type": "Point", "coordinates": [72.84671944406792, 19.01638333340847]}, "properties": {"OBJECTID": 37, "TYPE": "FLYO", "NAME": "JSS flyover Dadar E", "WARD": "F/N,F/S", "INVENCOLL": "Y", "FIELDSUR": "Y", "REPORT": "Y", "CONDSUR": " ", "CLASS": "BAD", "RETROFITEST": " ", "REMARKS": " ", "DRAWINGS": "AV MCGM", "ENGNAME": " ", "PROFORMAST": "0", "REFDWG": " ", "LATITUDEDD": 19.016382999999998, "LONGITUDED": 72.846719}}, {"type": "Feature", "id": 38, "geometry": {"type": "Point", "coordinates": [72.86386388912246, 19.037458333503558]}, "properties": {"OBJECTID": 38, "TYPE": "ROB", "NAME": "GTB Nagar Sion Koliwada", "WARD": "F/N", "INVENCOLL": "Y", "FIELDSUR": "Y", "REPORT": "Y", "CONDSUR": " ", "CLASS": "BAD", "RETROFITEST": " ", "REMARKS": " ", "DRAWINGS": "RLY", "ENGNAME": "PTR", "PROFORMAST": "1", "REFDWG": " ", "LATITUDEDD": 19.037458, "LONGITUDED": 72.86386399999999}}, {"type": "Feature", "id": 39, "geometry": {"type": "Point", "coordinates": [72.85647777819521, 19.036663888596184]}, "properties": {"OBJECTID": 39, "TYPE": "ROB", "NAME": "Sion Hospital Dharavi", "WARD": "F/N", "INVENCOLL": "Y", "FIELDSUR": "Y", "REPORT": "Y", "CONDSUR": " ", "CLASS": "WORST", "RETROFITEST": "Y", "REMARKS": " ", "DRAWINGS": "RLY", "ENGNAME": "PTR", "PROFORMAST": "1", "REFDWG": " ", "LATITUDEDD": 19.036664, "LONGITUDED": 72.856478}}, {"type": "Feature", "id": 40, "geometry": {"type": "Point", "coordinates": [72.86055555578737, 19.018724999568047]}, "properties": {"OBJECTID": 40, "TYPE": "ROB", "NAME": "Wadal Nana Fadanvis", "WARD": "F/N", "INVENCOLL": "y", "FIELDSUR": "y", "REPORT": "y", "CONDSUR": " ", "CLASS": "BAD", "RETROFITEST": " ", "REMARKS": " ", "DRAWINGS": "AV MCGM", "ENGNAME": " ", "PROFORMAST": "0", "REFDWG": " ", "LATITUDEDD": 19.018725, "LONGITUDED": 72.860556}}, {"type": "Feature", "id": 41, "geometry": {"type": "Point", "coordinates": [72.8576305552751, 19.029708332953362]}, "properties": {"OBJECTID": 41, "TYPE": "FLYO", "NAME": "Tulpule flyover King circle Aurora", "WARD": "F/N", "INVENCOLL": "Y", "FIELDSUR": " ", "REPORT": " ", "CONDSUR": " ", "CLASS": "BAD", "RETROFITEST": " ", "REMARKS": " ", "DRAWINGS": "MCGM", "ENGNAME": " ", "PROFORMAST": "0", "REFDWG": "as built drawing 201", "LATITUDEDD": 19.029708, "LONGITUDED": 72.857631}}, {"type": "Feature", "id": 42, "geometry": {"type": "Point", "coordinates": [72.8587333333352, 19.032169444754004]}, "properties": {"OBJECTID": 42, "TYPE": "FLYO", "NAME": "Sion Hospital Flyover", "WARD": "F/N", "INVENCOLL": "Y", "FIELDSUR": "Y", "REPORT": "Y", "CONDSUR": " ", "CLASS": "BAD", "RETROFITEST": " ", "REMARKS": " ", "DRAWINGS": "MCGM", "ENGNAME": " ", "PROFORMAST": "0", "REFDWG": "as built drawing 101", "LATITUDEDD": 19.032169, "LONGITUDED": 72.858733}}, {"type": "Feature", "id": 43, "geometry": {"type": "Point", "coordinates": [72.85825555513932, 19.031219444589357]}, "properties": {"OBJECTID": 43, "TYPE": "FOB", "NAME": "King Circle S on BA Road", "WARD": "F/N", "INVENCOLL": "Y", "FIELDSUR": "Y", "REPORT": "Y", "CONDSUR": " ", "CLASS": "BAD", "RETROFITEST": " ", "REMARKS": " ", "DRAWINGS": " ", "ENGNAME": "PTR", "PROFORMAST": "1", "REFDWG": " ", "LATITUDEDD": 19.031219, "LONGITUDED": 72.858256}}, {"type": "Feature", "id": 44, "geometry": {"type": "Point", "coordinates": [72.85836388927291, 19.03143333322417]}, "properties": {"OBJECTID": 44, "TYPE": "FOB", "NAME": "King Circle N o BA Road", "WARD": "F/N", "INVENCOLL": "Y", "FIELDSUR": "Y", "REPORT": "Y", "CONDSUR": " ", "CLASS": "BAD", "RETROFITEST": " ", "REMARKS": " ", "DRAWINGS": " ", "ENGNAME": "PTR", "PROFORMAST": "1", "REFDWG": " ", "LATITUDEDD": 19.031433, "LONGITUDED": 72.858364}}, {"type": "Feature", "id": 45, "geometry": {"type": "Point", "coordinates": [72.85433333353161, 19.033425000114157]}, "properties": {"OBJECTID": 45, "TYPE": "FOBRL", "NAME": "Bhau Daji road Matunga", "WARD": "F/N", "INVENCOLL": "Y", "FIELDSUR": "Y", "REPORT": "Y", "CONDSUR": " ", "CLASS": "BAD", "RETROFITEST": " ", "REMARKS": " ", "DRAWINGS": " ", "ENGNAME": "DGG", "PROFORMAST": "1", "REFDWG": "D186", "LATITUDEDD": 19.033424999999998, "LONGITUDED": 72.854333}}, {"type": "Feature", "id": 46, "geometry": {"type": "Point", "coordinates": [72.86310277808997, 19.04636944439931]}, "properties": {"OBJECTID": 46, "TYPE": "ROB", "NAME": "Sion station bridge", "WARD": "F/N", "INVENCOLL": "Y", "FIELDSUR": "Y", "REPORT": "Y", "CONDSUR": " ", "CLASS": "WORST", "RETROFITEST": "Y", "REMARKS": " ", "DRAWINGS": "RLY", "ENGNAME": "DGG", "PROFORMAST": "1", "REFDWG": " ", "LATITUDEDD": 19.046369, "LONGITUDED": 72.863103}}, {"type": "Feature", "id": 47, "geometry": {"type": "Point", "coordinates": [72.84240000020776, 19.017219444461013]}, "properties": {"OBJECTID": 47, "TYPE": "FOBRL", "NAME": "Dadar S near Phool market", "WARD": "F/S, G/N", "INVENCOLL": "Y", "FIELDSUR": "Y", "REPORT": "Y", "CONDSUR": " ", "CLASS": "WORST", "RETROFITEST": " ", "REMARKS": " ", "DRAWINGS": " ", "ENGNAME": " ", "PROFORMAST": "1", "REFDWG": " ", "LATITUDEDD": 19.017219, "LONGITUDED": 72.8424}}, {"type": "Feature", "id": 48, "geometry": {"type": "Point", "coordinates": [72.84256666663876, 19.01050555530575]}, "properties": {"OBJECTID": 48, "TYPE": "FLYO", "NAME": "Parel TT near F/S ward", "WARD": "F/S", "INVENCOLL": "y", "FIELDSUR": "y", "REPORT": "y", "CONDSUR": " ", "CLASS": "GOOD", "RETROFITEST": " ", "REMARKS": " ", "DRAWINGS": "AV MCGM", "ENGNAME": " ", "PROFORMAST": "1", "REFDWG": " ", "LATITUDEDD": 19.010506, "LONGITUDED": 72.842567}}, {"type": "Feature", "id": 49, "geometry": {"type": "Point", "coordinates": [72.8330388891001, 18.995063889086744]}, "properties": {"OBJECTID": 49, "TYPE": "ROB", "NAME": "Curry Road station", "WARD": "F/S", "INVENCOLL": "Y", "FIELDSUR": "Y", "REPORT": "Y", "CONDSUR": " ", "CLASS": "BAD", "RETROFITEST": " ", "REMARKS": " ", "DRAWINGS": "CRLY", "ENGNAME": "DGG", "PROFORMAST": "1", "REFDWG": " ", "LATITUDEDD": 18.995064, "LONGITUDED": 72.833039}}, {"type": "Feature", "id": 50, "geometry": {"type": "Point", "coordinates": [72.84379166681052, 18.987308333478243]}, "properties": {"OBJECTID": 50, "TYPE": "SKW", "NAME": "Cotton green station", "WARD": "F/S", "INVENCOLL": "Y", "FIELDSUR": "Y", "REPORT": "Y", "CONDSUR": " ", "CLASS": "BAD", "RETROFITEST": " ", "REMARKS": " ", "DRAWINGS": "AV MCGM", "ENGNAME": "PTR", "PROFORMAST": "1", "REFDWG": "E60-E69", "LATITUDEDD": 18.987308, "LONGITUDED": 72.843792}}, {"type": "Feature", "id": 51, "geometry": {"type": "Point", "coordinates": [72.83571111146532, 18.990955555382197]}, "properties": {"OBJECTID": 51, "TYPE": "FLYO", "NAME": "Sant Dynaeshwar Lalbaug flyover", "WARD": "F/S", "INVENCOLL": "Y", "FIELDSUR": "Y", "REPORT": "Y", "CONDSUR": "Y", "CLASS": "WORST", "RETROFITEST": " ", "REMARKS": " ", "DRAWINGS": "AVAILABLE", "ENGNAME": "NDD", "PROFORMAST": "1", "REFDWG": " ", "LATITUDEDD": 18.990956, "LONGITUDED": 72.835711}}, {"type": "Feature", "id": 52, "geometry": {"type": "Point", "coordinates": [72.84420277804936, 19.02018888845029]}, "properties": {"OBJECTID": 52, "TYPE": "ROB", "NAME": "Tilak bridge Dadar", "WARD": "G/N", "INVENCOLL": "Y", "FIELDSUR": "Y", "REPORT": "Y", "CONDSUR": " ", "CLASS": "WORST", "RETROFITEST": "Y", "REMARKS": " ", "DRAWINGS": "MCGM", "ENGNAME": "DGG", "PROFORMAST": "1", "REFDWG": " ", "LATITUDEDD": 19.020189, "LONGITUDED": 72.844203}}, {"type": "Feature", "id": 53, "geometry": {"type": "Point", "coordinates": [72.84223055536337, 19.01862777788058]}, "properties": {"OBJECTID": 53, "TYPE": "FLYO", "NAME": "Keshavsut Dadar W", "WARD": "G/N", "INVENCOLL": "Y", "FIELDSUR": "Y", "REPORT": "Y", "CONDSUR": " ", "CLASS": "BAD", "RETROFITEST": " ", "REMARKS": " ", "DRAWINGS": "AV MCGM", "ENGNAME": " ", "PROFORMAST": "0", "REFDWG": " ", "LATITUDEDD": 19.018628, "LONGITUDED": 72.842231}}, {"type": "Feature", "id": 54, "geometry": {"type": "Point", "coordinates": [72.84747777758602, 19.030363889196053]}, "properties": {"OBJECTID": 54, "TYPE": "ROB", "NAME": "TH Kataria Matunga station Rd", "WARD": "G/N", "INVENCOLL": "Y", "FIELDSUR": "Y", "REPORT": "Y", "CONDSUR": " ", "CLASS": "BAD", "RETROFITEST": " ", "REMARKS": " ", "DRAWINGS": "AV MCGM", "ENGNAME": " ", "PROFORMAST": "0", "REFDWG": " ", "LATITUDEDD": 19.030364, "LONGITUDED": 72.847478}}, {"type": "Feature", "id": 55, "geometry": {"type": "Point", "coordinates": [72.84779722205842, 19.034880555330837]}, "properties": {"OBJECTID": 55, "TYPE": "FOBRL", "NAME": "Saraswati school br Mahim", "WARD": "G/N", "INVENCOLL": "Y", "FIELDSUR": "Y", "REPORT": "Y", "CONDSUR": " ", "CLASS": "BAD", "RETROFITEST": " ", "REMARKS": " ", "DRAWINGS": "RLY", "ENGNAME": "NDD", "PROFORMAST": "1", "REFDWG": "C150", "LATITUDEDD": 19.034881, "LONGITUDED": 72.847797}}, {"type": "Feature", "id": 56, "geometry": {"type": "Point", "coordinates": [72.84764444481127, 19.03899444455079]}, "properties": {"OBJECTID": 56, "TYPE": "FOBRL", "NAME": "Shahu Nagar /mahim", "WARD": "G/N", "INVENCOLL": "Y", "FIELDSUR": "Y", "REPORT": "Y", "CONDSUR": " ", "CLASS": "BAD", "RETROFITEST": " ", "REMARKS": " ", "DRAWINGS": "AV MCGM", "ENGNAME": "NDD", "PROFORMAST": "1", "REFDWG": " ", "LATITUDEDD": 19.038994, "LONGITUDED": 72.847644}}, {"type": "Feature", "id": 57, "geometry": {"type": "Point", "coordinates": [72.84721111073434, 19.0300666666875]}, "properties": {"OBJECTID": 57, "TYPE": "FOB", "NAME": "TH Kataria along Senapati Bapat marg", "WARD": "G/N", "INVENCOLL": "Y", "FIELDSUR": "Y", "REPORT": "Y", "CONDSUR": " ", "CLASS": "GOOD", "RETROFITEST": " ", "REMARKS": " ", "DRAWINGS": " ", "ENGNAME": "DGG", "PROFORMAST": "1", "REFDWG": " ", "LATITUDEDD": 19.030067, "LONGITUDED": 72.847211}}, {"type": "Feature", "id": 58, "geometry": {"type": "Point", "coordinates": [72.84908055585052, 19.030374999956177]}, "properties": {"OBJECTID": 58, "TYPE": "FOB", "NAME": "Walkway along TH Kataria Bridge towards Railway workshop", "WARD": "G/N", "INVENCOLL": "Y", "FIELDSUR": "Y", "REPORT": "Y", "CONDSUR": " ", "CLASS": "BAD", "RETROFITEST": " ", "REMARKS": " ", "DRAWINGS": " ", "ENGNAME": " ", "PROFORMAST": "0", "REFDWG": " ", "LATITUDEDD": 19.030375, "LONGITUDED": 72.849081}}, {"type": "Feature", "id": 59, "geometry": {"type": "Point", "coordinates": [72.82380277766501, 18.98188333322273]}, "properties": {"OBJECTID": 59, "TYPE": "ROB", "NAME": "Mahalakshmi Bridge", "WARD": "G/S", "INVENCOLL": "Y", "FIELDSUR": "Y", "REPORT": "Y", "CONDSUR": "Y", "CLASS": "WORST", "RETROFITEST": "Y", "REMARKS": " ", "DRAWINGS": "AV MCGM", "ENGNAME": "NDD", "PROFORMAST": "1", "REFDWG": "E52-E59", "LATITUDEDD": 18.981883, "LONGITUDED": 72.823803}}, {"type": "Feature", "id": 60, "geometry": {"type": "Point", "coordinates": [72.83601666699288, 19.007591667030297]}, "properties": {"OBJECTID": 60, "TYPE": "ROB", "NAME": "Carol Elphinstone", "WARD": "G/S", "INVENCOLL": "Y", "FIELDSUR": "Y", "REPORT": "Y", "CONDSUR": " ", "CLASS": "BAD", "RETROFITEST": " ", "REMARKS": " ", "DRAWINGS": "WRLY", "ENGNAME": "DGG", "PROFORMAST": "1", "REFDWG": " ", "LATITUDEDD": 19.007592, "LONGITUDED": 72.836017}}, {"type": "Feature", "id": 61, "geometry": {"type": "Point", "coordinates": [72.83126666646649, 18.998000000122225]}, "properties": {"OBJECTID": 61, "TYPE": "ROB", "NAME": "Lower Parel Station", "WARD": "G/S", "INVENCOLL": "Y", "FIELDSUR": "Y", "REPORT": "Y", "CONDSUR": " ", "CLASS": "WORST", "RETROFITEST": "Y", "REMARKS": " ", "DRAWINGS": "WRLY", "ENGNAME": "DGG", "PROFORMAST": "1", "REFDWG": " ", "LATITUDEDD": 18.998, "LONGITUDED": 72.831267}}, {"type": "Feature", "id": 62, "geometry": {"type": "Point", "coordinates": [72.83971111122247, 19.00533888913292]}, "properties": {"OBJECTID": 62, "TYPE": "FLYO", "NAME": "Hindmata Bridge", "WARD": "F/S", "INVENCOLL": "y", "FIELDSUR": "Y", "REPORT": "Y", "CONDSUR": " ", "CLASS": "BAD", "RETROFITEST": " ", "REMARKS": " ", "DRAWINGS": "AV MCGM", "ENGNAME": " ", "PROFORMAST": "0", "REFDWG": "as built drawing  401", "LATITUDEDD": 19.005339, "LONGITUDED": 72.839711}}, {"type": "Feature", "id": 63, "geometry": {"type": "Point", "coordinates": [72.82609722229387, 19.01284722259329]}, "properties": {"OBJECTID": 63, "TYPE": "FOB", "NAME": "FOB Appasaheb Maratha Marg", "WARD": "G/S", "INVENCOLL": "Y", "FIELDSUR": "Y", "REPORT": "Y", "CONDSUR": " ", "CLASS": "BAD", "RETROFITEST": " ", "REMARKS": " ", "DRAWINGS": "AV MCMG", "ENGNAME": "PTR", "PROFORMAST": "1", "REFDWG": " ", "LATITUDEDD": 19.012847, "LONGITUDED": 72.82609699999999}}, {"type": "Feature", "id": 64, "geometry": {"type": "Point", "coordinates": [72.81549722193722, 18.99069166667111]}, "properties": {"OBJECTID": 64, "TYPE": "CUL", "NAME": "Culvert at Love grove pumping", "WARD": "G/S", "INVENCOLL": "Y", "FIELDSUR": "Y", "REPORT": "Y", "CONDSUR": " ", "CLASS": "BAD", "RETROFITEST": " ", "REMARKS": " ", "DRAWINGS": "AV MCGM", "ENGNAME": " ", "PROFORMAST": "1", "REFDWG": " ", "LATITUDEDD": 18.990692, "LONGITUDED": 72.815497}}, {"type": "Feature", "id": 65, "geometry": {"type": "Point", "coordinates": [72.84486388877046, 19.04494722242986]}, "properties": {"OBJECTID": 65, "TYPE": "ROB", "NAME": "MAHIM ROB", "WARD": "G/S", "INVENCOLL": "Y", "FIELDSUR": "Y", "REPORT": "Y", "CONDSUR": " ", "CLASS": "BAD", "RETROFITEST": " ", "REMARKS": " ", "DRAWINGS": "AV MCGM", "ENGNAME": "DGG", "PROFORMAST": "1", "REFDWG": " ", "LATITUDEDD": 19.044947, "LONGITUDED": 72.844864}}, {"type": "Feature", "id": 66, "geometry": {"type": "Point", "coordinates": [72.87065200017577, 19.03323099980742]}, "properties": {"OBJECTID": 66, "TYPE": "FOB", "NAME": "JK Chemicals", "WARD": "G/N", "INVENCOLL": "Y", "FIELDSUR": "Y", "REPORT": "Y", "CONDSUR": " ", "CLASS": "BAD", "RETROFITEST": " ", "REMARKS": " ", "DRAWINGS": " ", "ENGNAME": "OWS", "PROFORMAST": "1", "REFDWG": " ", "LATITUDEDD": 19.033231, "LONGITUDED": 72.87065199999999}}, {"type": "Feature", "id": 67, "geometry": {"type": "Point", "coordinates": [72.8459444441693, 19.043527777520588]}, "properties": {"OBJECTID": 67, "TYPE": "FOB", "NAME": "Mahim fatak FOB", "WARD": "G/N", "INVENCOLL": "Y", "FIELDSUR": "Y", "REPORT": "Y", "CONDSUR": " ", "CLASS": "WORST", "RETROFITEST": " ", "REMARKS": " ", "DRAWINGS": " ", "ENGNAME": "OWS", "PROFORMAST": "1", "REFDWG": " ", "LATITUDEDD": 19.043528, "LONGITUDED": 72.845944}}, {"type": "Feature", "id": 68, "geometry": {"type": "Point", "coordinates": [72.86139138846835, 19.04111111147295]}, "properties": {"OBJECTID": 68, "TYPE": "FOB", "NAME": "Dadar Dharavi", "WARD": "G/N", "INVENCOLL": "Y", "FIELDSUR": "Y", "REPORT": "Y", "CONDSUR": " ", "CLASS": "WORST", "RETROFITEST": " ", "REMARKS": " ", "DRAWINGS": " ", "ENGNAME": "OWS", "PROFORMAST": "1", "REFDWG": " ", "LATITUDEDD": 19.041111, "LONGITUDED": 72.861391}}]}