{"type": "FeatureCollection", "name": "fire_stations", "features": [{"type": "Feature", "id": 1, "geometry": {"type": "Point", "coordinates": [72.88582450010539, 19.084746200434736]}, "properties": {"OBJECTID": 1, "NAME": "Kurla Fire Staion", "TYPE": 1, "SUBTYPE": null, "LOCATION": "Kurla Fire Station, Lal Bahadur Shastri Marg, Near Phoenix Mall, Kurla West, Mumbai, 400070", "ELEVATOR_CONTACT_LIST": null, "ELEVATOR_INTERCOM": null, "WORKING_HRS": null, "EMPLOYEE_QTY": null, "EMPLOYEE_MALE": null, "EMPLOYEE_FEMALE": null, "EMPLOYEE_DIF_ABLE": null, "WORKING_HRS_STR": null, "WORKING_HRS_STP": null}}, {"type": "Feature", "id": 2, "geometry": {"type": "Point", "coordinates": [72.84030200004273, 18.946410999799344]}, "properties": {"OBJECTID": 2, "NAME": "Carnac Bunder (Indira Dock) Fire Station", "TYPE": 1, "SUBTYPE": null, "LOCATION": "P D Mello Road, Near Hotel Sealord, Fort. Mumbai - 400001.", "ELEVATOR_CONTACT_LIST": null, "ELEVATOR_INTERCOM": null, "WORKING_HRS": null, "EMPLOYEE_QTY": null, "EMPLOYEE_MALE": null, "EMPLOYEE_FEMALE": null, "EMPLOYEE_DIF_ABLE": null, "WORKING_HRS_STR": null, "WORKING_HRS_STP": null}}, {"type": "Feature", "id": 3, "geometry": {"type": "Point", "coordinates": [72.83464799964979, 18.9349140002053]}, "properties": {"OBJECTID": 3, "NAME": "Fort Fire Station", "TYPE": 1, "SUBTYPE": null, "LOCATION": "Syed Abdullah Brelvi Marg,  Near Vidya Dairy Farm,Fort, Mumbai - 400001.", "ELEVATOR_CONTACT_LIST": null, "ELEVATOR_INTERCOM": null, "WORKING_HRS": null, "EMPLOYEE_QTY": null, "EMPLOYEE_MALE": null, "EMPLOYEE_FEMALE": null, "EMPLOYEE_DIF_ABLE": null, "WORKING_HRS_STR": null, "WORKING_HRS_STP": null}}, {"type": "Feature", "id": 4, "geometry": {"type": "Point", "coordinates": [72.82610300024368, 18.915403000245785]}, "properties": {"OBJECTID": 4, "NAME": "Colaba Fire Station", "TYPE": 1, "SUBTYPE": null, "LOCATION": "Near Sasoon Dock & Mukesh Mill, Near Sasson Dock, Narayan A Sawant Road, ColabaMumbai - 400005.", "ELEVATOR_CONTACT_LIST": null, "ELEVATOR_INTERCOM": null, "WORKING_HRS": null, "EMPLOYEE_QTY": null, "EMPLOYEE_MALE": null, "EMPLOYEE_FEMALE": null, "EMPLOYEE_DIF_ABLE": null, "WORKING_HRS_STR": null, "WORKING_HRS_STP": null}}, {"type": "Feature", "id": 5, "geometry": {"type": "Point", "coordinates": [72.82604249795989, 18.923076527938395]}, "properties": {"OBJECTID": 5, "NAME": "Nariman Point Fire Station", "TYPE": 1, "SUBTYPE": null, "LOCATION": "Gen Jagannath Bhosle Road,  Near Sarang TowerNariman Point, Mumbai - 400021.", "ELEVATOR_CONTACT_LIST": null, "ELEVATOR_INTERCOM": null, "WORKING_HRS": null, "EMPLOYEE_QTY": null, "EMPLOYEE_MALE": null, "EMPLOYEE_FEMALE": null, "EMPLOYEE_DIF_ABLE": null, "WORKING_HRS_STR": null, "WORKING_HRS_STP": null}}, {"type": "Feature", "id": 6, "geometry": {"type": "Point", "coordinates": [72.83269448260737, 18.958009760948755]}, "properties": {"OBJECTID": 6, "NAME": "Memonwada Fire Station", "TYPE": 1, "SUBTYPE": null, "LOCATION": "Opposite Bhendi Bazar,  S V P Road, Near Shalimar Hotel, Dongari,  Mumbai - 400009.", "ELEVATOR_CONTACT_LIST": null, "ELEVATOR_INTERCOM": null, "WORKING_HRS": null, "EMPLOYEE_QTY": null, "EMPLOYEE_MALE": null, "EMPLOYEE_FEMALE": null, "EMPLOYEE_DIF_ABLE": null, "WORKING_HRS_STR": null, "WORKING_HRS_STP": null}}, {"type": "Feature", "id": 7, "geometry": {"type": "Point", "coordinates": [72.84170176534347, 18.957292233724857]}, "properties": {"OBJECTID": 7, "NAME": "Mandvi Fire Station", "TYPE": 1, "SUBTYPE": null, "LOCATION": "Sardar Valla bhbhai Patel Road, Opp Wadibunder Coaching Complex, Wadibunder. Mumbai - 400003.", "ELEVATOR_CONTACT_LIST": null, "ELEVATOR_INTERCOM": null, "WORKING_HRS": null, "EMPLOYEE_QTY": null, "EMPLOYEE_MALE": null, "EMPLOYEE_FEMALE": null, "EMPLOYEE_DIF_ABLE": null, "WORKING_HRS_STR": null, "WORKING_HRS_STP": null}}, {"type": "Feature", "id": 8, "geometry": {"type": "Point", "coordinates": [72.81273161702744, 18.961637388744453]}, "properties": {"OBJECTID": 8, "NAME": "Gowalia Tank Fire Station", "TYPE": 1, "SUBTYPE": "Station", "LOCATION": "Nana Chowk, August Kranti Marg, Mumbai - 400007.", "ELEVATOR_CONTACT_LIST": null, "ELEVATOR_INTERCOM": null, "WORKING_HRS": "Yes", "EMPLOYEE_QTY": 54, "EMPLOYEE_MALE": 54, "EMPLOYEE_FEMALE": 54, "EMPLOYEE_DIF_ABLE": null, "WORKING_HRS_STR": null, "WORKING_HRS_STP": null}}, {"type": "Feature", "id": 9, "geometry": {"type": "Point", "coordinates": [72.83214494915545, 18.972029152818884]}, "properties": {"OBJECTID": 9, "NAME": "Fire Brigade Head Quarter", "TYPE": 1, "SUBTYPE": null, "LOCATION": "Opposite Y Bridge, Byculla, Sir JJ Rd, Agripada, Mumbai - 400027.", "ELEVATOR_CONTACT_LIST": null, "ELEVATOR_INTERCOM": null, "WORKING_HRS": null, "EMPLOYEE_QTY": null, "EMPLOYEE_MALE": null, "EMPLOYEE_FEMALE": null, "EMPLOYEE_DIF_ABLE": null, "WORKING_HRS_STR": null, "WORKING_HRS_STP": null}}, {"type": "Feature", "id": 10, "geometry": {"type": "Point", "coordinates": [72.86681968602751, 19.03556904659687]}, "properties": {"OBJECTID": 10, "NAME": "Raoli Camp Fire Station", "TYPE": 1, "SUBTYPE": "Station", "LOCATION": "Lailabai Kashe Marg, Guru Teg Bahadur Nagar, Sion Koliwada, Mumbai - 400022.", "ELEVATOR_CONTACT_LIST": null, "ELEVATOR_INTERCOM": null, "WORKING_HRS": null, "EMPLOYEE_QTY": null, "EMPLOYEE_MALE": null, "EMPLOYEE_FEMALE": null, "EMPLOYEE_DIF_ABLE": null, "WORKING_HRS_STR": null, "WORKING_HRS_STP": null}}, {"type": "Feature", "id": 11, "geometry": {"type": "Point", "coordinates": [72.87012695046724, 19.02503153921559]}, "properties": {"OBJECTID": 11, "NAME": "Wadala Fire Station", "TYPE": 1, "SUBTYPE": null, "LOCATION": "14, Shaikh Mistry Road, Sangam Nagar, Wadala (East), Mumbai - 400037.", "ELEVATOR_CONTACT_LIST": null, "ELEVATOR_INTERCOM": null, "WORKING_HRS": null, "EMPLOYEE_QTY": null, "EMPLOYEE_MALE": null, "EMPLOYEE_FEMALE": null, "EMPLOYEE_DIF_ABLE": null, "WORKING_HRS_STR": null, "WORKING_HRS_STP": null}}, {"type": "Feature", "id": 12, "geometry": {"type": "Point", "coordinates": [72.84559599984081, 19.014301000070382]}, "properties": {"OBJECTID": 12, "NAME": "Dadar Fire Station", "TYPE": 1, "SUBTYPE": null, "LOCATION": "Dr. Babasaheb Ambedkar Road, Old BDD Chawl, Dadar East, Mumbai - 400014.", "ELEVATOR_CONTACT_LIST": null, "ELEVATOR_INTERCOM": null, "WORKING_HRS": null, "EMPLOYEE_QTY": null, "EMPLOYEE_MALE": null, "EMPLOYEE_FEMALE": null, "EMPLOYEE_DIF_ABLE": null, "WORKING_HRS_STR": null, "WORKING_HRS_STP": null}}, {"type": "Feature", "id": 13, "geometry": {"type": "Point", "coordinates": [72.8432329537461, 18.985436902233825]}, "properties": {"OBJECTID": 13, "NAME": "Sewri (Cotton Green) Fire Station", "TYPE": 1, "SUBTYPE": null, "LOCATION": "Unit2, First Street, Zakaria Bunder Road, Sewri, Mumbai - 400033", "ELEVATOR_CONTACT_LIST": null, "ELEVATOR_INTERCOM": null, "WORKING_HRS": null, "EMPLOYEE_QTY": null, "EMPLOYEE_MALE": null, "EMPLOYEE_FEMALE": null, "EMPLOYEE_DIF_ABLE": null, "WORKING_HRS_STR": null, "WORKING_HRS_STP": null}}, {"type": "Feature", "id": 14, "geometry": {"type": "Point", "coordinates": [72.841077417154, 19.03307150230141]}, "properties": {"OBJECTID": 14, "NAME": "Shivaji Park Fire Station", "TYPE": 1, "SUBTYPE": null, "LOCATION": "P N Kotnis Road, Opp Gokul Niwas Society, Mahim West, Mahim, Mumbai- 400016.", "ELEVATOR_CONTACT_LIST": null, "ELEVATOR_INTERCOM": null, "WORKING_HRS": null, "EMPLOYEE_QTY": null, "EMPLOYEE_MALE": null, "EMPLOYEE_FEMALE": null, "EMPLOYEE_DIF_ABLE": null, "WORKING_HRS_STR": null, "WORKING_HRS_STP": null}}, {"type": "Feature", "id": 15, "geometry": {"type": "Point", "coordinates": [72.84997801706373, 19.039297664225415]}, "properties": {"OBJECTID": 15, "NAME": "Dharavi Fire Station", "TYPE": 1, "SUBTYPE": "Station", "LOCATION": "12/e, Jasmine Mill Road, Opp Post Office, Dharavi, Rajashree Shahu Nagar, Mumbai - 400017.", "ELEVATOR_CONTACT_LIST": null, "ELEVATOR_INTERCOM": null, "WORKING_HRS": null, "EMPLOYEE_QTY": null, "EMPLOYEE_MALE": null, "EMPLOYEE_FEMALE": null, "EMPLOYEE_DIF_ABLE": null, "WORKING_HRS_STR": null, "WORKING_HRS_STP": null}}, {"type": "Feature", "id": 16, "geometry": {"type": "Point", "coordinates": [72.82363170885868, 19.013293308037117]}, "properties": {"OBJECTID": 16, "NAME": "Worli Fire Station", "TYPE": 1, "SUBTYPE": "Station", "LOCATION": "Dr Annie Besant Road, Adarsh Nagar, Prabhadevi, Mumbai - 400030", "ELEVATOR_CONTACT_LIST": null, "ELEVATOR_INTERCOM": null, "WORKING_HRS": null, "EMPLOYEE_QTY": null, "EMPLOYEE_MALE": null, "EMPLOYEE_FEMALE": null, "EMPLOYEE_DIF_ABLE": null, "WORKING_HRS_STR": null, "WORKING_HRS_STP": null}}, {"type": "Feature", "id": 17, "geometry": {"type": "Point", "coordinates": [72.85449999958041, 19.056992000027957]}, "properties": {"OBJECTID": 17, "NAME": "BKC Fire Station", "TYPE": 1, "SUBTYPE": null, "LOCATION": "Bandra Kurla Complex, Bandra East, Mumbai - 400051.", "ELEVATOR_CONTACT_LIST": null, "ELEVATOR_INTERCOM": null, "WORKING_HRS": null, "EMPLOYEE_QTY": null, "EMPLOYEE_MALE": null, "EMPLOYEE_FEMALE": null, "EMPLOYEE_DIF_ABLE": null, "WORKING_HRS_STR": null, "WORKING_HRS_STP": null}}, {"type": "Feature", "id": 18, "geometry": {"type": "Point", "coordinates": [72.83757799980556, 19.050397999932084]}, "properties": {"OBJECTID": 18, "NAME": "Bandra Fire Station", "TYPE": 1, "SUBTYPE": "Stn", "LOCATION": "Bandra Reclamation, S V Road, Bandra (W), Mumbai - 400050.", "ELEVATOR_CONTACT_LIST": null, "ELEVATOR_INTERCOM": null, "WORKING_HRS": null, "EMPLOYEE_QTY": null, "EMPLOYEE_MALE": null, "EMPLOYEE_FEMALE": null, "EMPLOYEE_DIF_ABLE": null, "WORKING_HRS_STR": null, "WORKING_HRS_STP": null}}, {"type": "Feature", "id": 19, "geometry": {"type": "Point", "coordinates": [72.87755884610561, 19.11003173203756]}, "properties": {"OBJECTID": 19, "NAME": "Marol Fire Station", "TYPE": 1, "SUBTYPE": null, "LOCATION": "Marol Maroshi Road, Shivaji Nagar, JJC, Marol, Andheri East, Mumbai - 400047.", "ELEVATOR_CONTACT_LIST": null, "ELEVATOR_INTERCOM": null, "WORKING_HRS": null, "EMPLOYEE_QTY": null, "EMPLOYEE_MALE": null, "EMPLOYEE_FEMALE": null, "EMPLOYEE_DIF_ABLE": null, "WORKING_HRS_STR": null, "WORKING_HRS_STP": null}}, {"type": "Feature", "id": 20, "geometry": {"type": "Point", "coordinates": [72.8442092060691, 19.092703215172076]}, "properties": {"OBJECTID": 20, "NAME": "Vile Parle Fire Station", "TYPE": 1, "SUBTYPE": null, "LOCATION": "Azad Road, Akash Kiran Society, Navpada, Vile Parle East, Mumbai - 400057.", "ELEVATOR_CONTACT_LIST": null, "ELEVATOR_INTERCOM": null, "WORKING_HRS": null, "EMPLOYEE_QTY": null, "EMPLOYEE_MALE": null, "EMPLOYEE_FEMALE": null, "EMPLOYEE_DIF_ABLE": null, "WORKING_HRS_STR": null, "WORKING_HRS_STP": null}}, {"type": "Feature", "id": 21, "geometry": {"type": "Point", "coordinates": [72.92456382921006, 19.05328506209984]}, "properties": {"OBJECTID": 21, "NAME": "Deonar Fire Station", "TYPE": 1, "SUBTYPE": null, "LOCATION": "5/4 Sector, New Municipal Colony, Shivaji Nagar, Mumbai - 400043", "ELEVATOR_CONTACT_LIST": null, "ELEVATOR_INTERCOM": null, "WORKING_HRS": null, "EMPLOYEE_QTY": null, "EMPLOYEE_MALE": null, "EMPLOYEE_FEMALE": null, "EMPLOYEE_DIF_ABLE": null, "WORKING_HRS_STR": null, "WORKING_HRS_STP": null}}, {"type": "Feature", "id": 22, "geometry": {"type": "Point", "coordinates": [72.91825937106745, 19.10097391627396]}, "properties": {"OBJECTID": 22, "NAME": "Vikhroli Fire Station", "TYPE": 1, "SUBTYPE": null, "LOCATION": "Near L.B.S. Road, Vikhroli Park Site, L.B.S. Marg, Nivlekar Rd, BMC Colony, Vikhroli West, Mumbai - 400079.", "ELEVATOR_CONTACT_LIST": null, "ELEVATOR_INTERCOM": null, "WORKING_HRS": null, "EMPLOYEE_QTY": null, "EMPLOYEE_MALE": null, "EMPLOYEE_FEMALE": null, "EMPLOYEE_DIF_ABLE": null, "WORKING_HRS_STR": null, "WORKING_HRS_STP": null}}, {"type": "Feature", "id": 23, "geometry": {"type": "Point", "coordinates": [72.86095399959623, 19.174994999753306]}, "properties": {"OBJECTID": 23, "NAME": "Dindoshi Fire Station", "TYPE": 1, "SUBTYPE": null, "LOCATION": "Dindoshi, Malad East, Mumbai - 400097", "ELEVATOR_CONTACT_LIST": null, "ELEVATOR_INTERCOM": null, "WORKING_HRS": null, "EMPLOYEE_QTY": null, "EMPLOYEE_MALE": null, "EMPLOYEE_FEMALE": null, "EMPLOYEE_DIF_ABLE": null, "WORKING_HRS_STR": null, "WORKING_HRS_STP": null}}, {"type": "Feature", "id": 24, "geometry": {"type": "Point", "coordinates": [72.82295693779682, 19.196754622669427]}, "properties": {"OBJECTID": 24, "NAME": "Malad Malwani Fire Station", "TYPE": 1, "SUBTYPE": null, "LOCATION": "Asmita Jyoti Housing Society, Malad (W),  Mumbai - 400095.", "ELEVATOR_CONTACT_LIST": null, "ELEVATOR_INTERCOM": null, "WORKING_HRS": null, "EMPLOYEE_QTY": null, "EMPLOYEE_MALE": null, "EMPLOYEE_FEMALE": null, "EMPLOYEE_DIF_ABLE": null, "WORKING_HRS_STR": null, "WORKING_HRS_STP": null}}, {"type": "Feature", "id": 25, "geometry": {"type": "Point", "coordinates": [72.83659339402762, 19.177419023280017]}, "properties": {"OBJECTID": 25, "NAME": "Chincholi Fire Station", "TYPE": 1, "SUBTYPE": null, "LOCATION": "Link Rd, Malad West, Mumbai - 400064.", "ELEVATOR_CONTACT_LIST": null, "ELEVATOR_INTERCOM": null, "WORKING_HRS": null, "EMPLOYEE_QTY": null, "EMPLOYEE_MALE": null, "EMPLOYEE_FEMALE": null, "EMPLOYEE_DIF_ABLE": null, "WORKING_HRS_STR": null, "WORKING_HRS_STP": null}}, {"type": "Feature", "id": 26, "geometry": {"type": "Point", "coordinates": [72.84040602600348, 19.153548566099015]}, "properties": {"OBJECTID": 26, "NAME": "Goregaon Motilal Nagar Fire Station", "TYPE": 1, "SUBTYPE": null, "LOCATION": "Shri Gajanan Maharaj Marg, opp BEST staff colony and Imperial Height, Road Number 6, Motilal Nagar, Goregaon West, Mumbai - 400104.", "ELEVATOR_CONTACT_LIST": null, "ELEVATOR_INTERCOM": null, "WORKING_HRS": null, "EMPLOYEE_QTY": null, "EMPLOYEE_MALE": null, "EMPLOYEE_FEMALE": null, "EMPLOYEE_DIF_ABLE": null, "WORKING_HRS_STR": null, "WORKING_HRS_STP": null}}, {"type": "Feature", "id": 28, "geometry": {"type": "Point", "coordinates": [72.85062399988271, 19.206017000009762]}, "properties": {"OBJECTID": 28, "NAME": "Kandivali Fire Station", "TYPE": 1, "SUBTYPE": null, "LOCATION": "K Nehru Road, Jethava Nagar, Kandivali (W), Mumbai - 400067.", "ELEVATOR_CONTACT_LIST": null, "ELEVATOR_INTERCOM": null, "WORKING_HRS": null, "EMPLOYEE_QTY": null, "EMPLOYEE_MALE": null, "EMPLOYEE_FEMALE": null, "EMPLOYEE_DIF_ABLE": null, "WORKING_HRS_STR": null, "WORKING_HRS_STP": null}}, {"type": "Feature", "id": 29, "geometry": {"type": "Point", "coordinates": [72.96630541542825, 19.172063372781025]}, "properties": {"OBJECTID": 29, "NAME": "Gavanpada Fire Station", "TYPE": 1, "SUBTYPE": null, "LOCATION": "Near Gawanpada Road, V.S Road, Gawanpada, Mulund East, Mumbai - 400081.", "ELEVATOR_CONTACT_LIST": null, "ELEVATOR_INTERCOM": null, "WORKING_HRS": "Yes", "EMPLOYEE_QTY": null, "EMPLOYEE_MALE": null, "EMPLOYEE_FEMALE": null, "EMPLOYEE_DIF_ABLE": null, "WORKING_HRS_STR": null, "WORKING_HRS_STP": null}}, {"type": "Feature", "id": 30, "geometry": {"type": "Point", "coordinates": [72.94260737423765, 19.175385209627198]}, "properties": {"OBJECTID": 30, "NAME": "Mulund Fire Station", "TYPE": 1, "SUBTYPE": "Station", "LOCATION": "Lal Bahadur Shastri Marg, Mulund Colony, Mulund West, Mumbai - 400080.", "ELEVATOR_CONTACT_LIST": null, "ELEVATOR_INTERCOM": null, "WORKING_HRS": "Yes", "EMPLOYEE_QTY": null, "EMPLOYEE_MALE": null, "EMPLOYEE_FEMALE": null, "EMPLOYEE_DIF_ABLE": null, "WORKING_HRS_STR": null, "WORKING_HRS_STP": null}}, {"type": "Feature", "id": 31, "geometry": {"type": "Point", "coordinates": [72.931106594288, 19.056760391322882]}, "properties": {"OBJECTID": 31, "NAME": "Mankhurd Pradeshik Samadesh Kendra", "TYPE": 1, "SUBTYPE": null, "LOCATION": "Ghatkopar Mankhurd Link Road, Opp. Sathye Nagar. Mumbai 400043", "ELEVATOR_CONTACT_LIST": null, "ELEVATOR_INTERCOM": null, "WORKING_HRS": null, "EMPLOYEE_QTY": null, "EMPLOYEE_MALE": null, "EMPLOYEE_FEMALE": null, "EMPLOYEE_DIF_ABLE": null, "WORKING_HRS_STR": null, "WORKING_HRS_STP": null}}, {"type": "Feature", "id": 32, "geometry": {"type": "Point", "coordinates": [72.89354163011201, 19.054555748459215]}, "properties": {"OBJECTID": 32, "NAME": "Chembur Fire Station", "TYPE": 1, "SUBTYPE": "Stn", "LOCATION": "V N Purav Marg, Chembur, Mumbai - 400074", "ELEVATOR_CONTACT_LIST": null, "ELEVATOR_INTERCOM": null, "WORKING_HRS": null, "EMPLOYEE_QTY": null, "EMPLOYEE_MALE": null, "EMPLOYEE_FEMALE": null, "EMPLOYEE_DIF_ABLE": null, "WORKING_HRS_STR": null, "WORKING_HRS_STP": null}}, {"type": "Feature", "id": 33, "geometry": {"type": "Point", "coordinates": [72.86249540627396, 19.247481544876376]}, "properties": {"OBJECTID": 33, "NAME": "Dahisar Fire Station", "TYPE": 1, "SUBTYPE": null, "LOCATION": "Swami Vivekanand Road, Opp BMC Garden, Dahisar East, Mumbai", "ELEVATOR_CONTACT_LIST": null, "ELEVATOR_INTERCOM": null, "WORKING_HRS": null, "EMPLOYEE_QTY": null, "EMPLOYEE_MALE": null, "EMPLOYEE_FEMALE": null, "EMPLOYEE_DIF_ABLE": null, "WORKING_HRS_STR": null, "WORKING_HRS_STP": null}}, {"type": "Feature", "id": 34, "geometry": {"type": "Point", "coordinates": [72.84067985356094, 19.11225209726548]}, "properties": {"OBJECTID": 34, "NAME": "Andheri Fire Station", "TYPE": 1, "SUBTYPE": "Station", "LOCATION": "Near Bharat Petrol Pump, Irla Signal, Swami Vivekanand Rd, Irla Bridge, Andheri West, Mumbai - 400058.", "ELEVATOR_CONTACT_LIST": null, "ELEVATOR_INTERCOM": null, "WORKING_HRS": null, "EMPLOYEE_QTY": null, "EMPLOYEE_MALE": null, "EMPLOYEE_FEMALE": null, "EMPLOYEE_DIF_ABLE": null, "WORKING_HRS_STR": null, "WORKING_HRS_STP": null}}, {"type": "Feature", "id": 322, "geometry": {"type": "Point", "coordinates": [72.8702810027874, 19.024918917018624]}, "properties": {"OBJECTID": 322, "NAME": "Regional Command Centre Zone2", "TYPE": 1, "SUBTYPE": null, "LOCATION": "Regional Command Centre Zone2, SMD Road, Near Shiv Mandir, Wadala, Mumbai, 400037", "ELEVATOR_CONTACT_LIST": null, "ELEVATOR_INTERCOM": null, "WORKING_HRS": null, "EMPLOYEE_QTY": null, "EMPLOYEE_MALE": null, "EMPLOYEE_FEMALE": null, "EMPLOYEE_DIF_ABLE": null, "WORKING_HRS_STR": null, "WORKING_HRS_STP": null}}, {"type": "Feature", "id": 325, "geometry": {"type": "Point", "coordinates": [72.84069087437403, 19.22967918409715]}, "properties": {"OBJECTID": 325, "NAME": "Borivali Fire Station", "TYPE": 1, "SUBTYPE": null, "LOCATION": "Borivali Fire Station, Lokmanya Tilak Road, Near Link Road, Borivali West, Mumbai, Maharashtra, 400091", "ELEVATOR_CONTACT_LIST": null, "ELEVATOR_INTERCOM": null, "WORKING_HRS": null, "EMPLOYEE_QTY": null, "EMPLOYEE_MALE": null, "EMPLOYEE_FEMALE": null, "EMPLOYEE_DIF_ABLE": null, "WORKING_HRS_STR": null, "WORKING_HRS_STP": null}}, {"type": "Feature", "id": 642, "geometry": {"type": "Point", "coordinates": [72.87287760027134, 19.21318319992143]}, "properties": {"OBJECTID": 642, "NAME": "Thakur Village Mini Fire Station", "TYPE": 1, "SUBTYPE": null, "LOCATION": "Thakur Village Mini Fire Station, Thakur Village Road, Near Thakur Shyamnarayan High School just, Kandivali, Mumbai, 400101", "ELEVATOR_CONTACT_LIST": null, "ELEVATOR_INTERCOM": null, "WORKING_HRS": null, "EMPLOYEE_QTY": null, "EMPLOYEE_MALE": null, "EMPLOYEE_FEMALE": null, "EMPLOYEE_DIF_ABLE": null, "WORKING_HRS_STR": null, "WORKING_HRS_STP": null}}, {"type": "Feature", "id": 962, "geometry": {"type": "Point", "coordinates": [72.89975182968892, 19.005740691884235]}, "properties": {"OBJECTID": 962, "NAME": "Mumbai Port Trust Pirpau Fire Station", "TYPE": 6, "SUBTYPE": null, "LOCATION": "Kalachauki, Mahul, Chembur, Mumbai, Maharashtra 400071", "ELEVATOR_CONTACT_LIST": null, "ELEVATOR_INTERCOM": null, "WORKING_HRS": null, "EMPLOYEE_QTY": null, "EMPLOYEE_MALE": null, "EMPLOYEE_FEMALE": null, "EMPLOYEE_DIF_ABLE": null, "WORKING_HRS_STR": null, "WORKING_HRS_STP": null}}, {"type": "Feature", "id": 963, "geometry": {"type": "Point", "coordinates": [72.92299366071798, 19.035651651201242]}, "properties": {"OBJECTID": 963, "NAME": "Bhabha Automic Research Center", "TYPE": 10, "SUBTYPE": null, "LOCATION": "BARC Chembur", "ELEVATOR_CONTACT_LIST": null, "ELEVATOR_INTERCOM": null, "WORKING_HRS": null, "EMPLOYEE_QTY": null, "EMPLOYEE_MALE": null, "EMPLOYEE_FEMALE": null, "EMPLOYEE_DIF_ABLE": null, "WORKING_HRS_STR": null, "WORKING_HRS_STP": null}}, {"type": "Feature", "id": 1282, "geometry": {"type": "Point", "coordinates": [72.85445527288994, 19.258804159325383]}, "properties": {"OBJECTID": 1282, "NAME": "Kandarpada Fire Station", "TYPE": 1, "SUBTYPE": "Station", "LOCATION": "Bhimashankar Heights Kandhar Pada Fire Station, Bhimashankar Heights, Shiva Shakti Nagar, Anand Park, Dahisar West, Mumbai, 68", "ELEVATOR_CONTACT_LIST": null, "ELEVATOR_INTERCOM": null, "WORKING_HRS": "Yes", "EMPLOYEE_QTY": null, "EMPLOYEE_MALE": null, "EMPLOYEE_FEMALE": null, "EMPLOYEE_DIF_ABLE": null, "WORKING_HRS_STR": null, "WORKING_HRS_STP": null}}]}