{"type": "FeatureCollection", "name": "flow_level_sensors", "features": [{"type": "Feature", "id": 1, "geometry": {"type": "Point", "coordinates": [72.87784876068866, 19.07840351620282]}, "properties": {"OBJECTID": 1, "FEATUREID": "WS10000000301", "AWSID": "301", "WARD": "L", "NAME": "Mithi River Flow Level Sensor", "TYPE": 0, "LOCATION": "Airport authority plot, lbs road, Opposite kalpana theatre, krantinagar bridge, kurla west", "BRD_LINE_N": " ", "AWS_CONNEC": " ", "AWS_STATUS": " ", "REMARKS": " ", "EDUPDATEUS": " ", "EDUPDATETI": -2209161600000, "CREATED_US": "Ajit Deshmukh", "CREATED_DA": -2209161600000, "LAST_EDITE": " ", "LAST_EDI_1": -2209161600000, "ACTIVE": "Y"}}, {"type": "Feature", "id": 2, "geometry": {"type": "Point", "coordinates": [72.86014951688107, 19.207862288817847]}, "properties": {"OBJECTID": 2, "FEATUREID": "WS10000000303", "AWSID": "303", "WARD": "R/S", "NAME": "Poisar River Flow Level Sensor", "TYPE": 0, "LOCATION": "Thakur complex, pramod nawalkar garden, Kandivali", "BRD_LINE_N": " ", "AWS_CONNEC": " ", "AWS_STATUS": " ", "REMARKS": " ", "EDUPDATEUS": " ", "EDUPDATETI": null, "CREATED_US": "Ajit Deshmukh", "CREATED_DA": null, "LAST_EDITE": " ", "LAST_EDI_1": null, "ACTIVE": " "}}, {"type": "Feature", "id": 3, "geometry": {"type": "Point", "coordinates": [72.89342334819452, 19.130976712877725]}, "properties": {"OBJECTID": 3, "FEATUREID": "WS10000000305", "AWSID": "305", "WARD": "S", "NAME": "MCGM Mithi River Flow Level Sensor", "TYPE": 0, "LOCATION": "Krishna Nagar, Powai", "BRD_LINE_N": " ", "AWS_CONNEC": " ", "AWS_STATUS": " ", "REMARKS": " ", "EDUPDATEUS": " ", "EDUPDATETI": null, "CREATED_US": "Ajit Deshmukh", "CREATED_DA": null, "LAST_EDITE": " ", "LAST_EDI_1": null, "ACTIVE": " "}}, {"type": "Feature", "id": 4, "geometry": {"type": "Point", "coordinates": [72.86443525656846, 19.232750152840513]}, "properties": {"OBJECTID": 4, "FEATUREID": "WS10000000304", "AWSID": "304", "WARD": "R/N", "NAME": "Dahisar River Flow Level Sensor", "TYPE": 0, "LOCATION": "Near national park, shree Krishna mandir bus stop, Borivali", "BRD_LINE_N": " ", "AWS_CONNEC": " ", "AWS_STATUS": " ", "REMARKS": " ", "EDUPDATEUS": " ", "EDUPDATETI": null, "CREATED_US": "Ajit Deshmukh", "CREATED_DA": null, "LAST_EDITE": " ", "LAST_EDI_1": null, "ACTIVE": " "}}, {"type": "Feature", "id": 5, "geometry": {"type": "Point", "coordinates": [72.84087268278432, 19.150006555114356]}, "properties": {"OBJECTID": 5, "FEATUREID": "WS10000000302", "AWSID": "302", "WARD": "K/W", "NAME": "Oshiwara River Flow Level Sensor", "TYPE": 0, "LOCATION": "Hindu cemetery, Oshiwara hindu electric cemetery, Jogeshwari west", "BRD_LINE_N": " ", "AWS_CONNEC": " ", "AWS_STATUS": " ", "REMARKS": " ", "EDUPDATEUS": " ", "EDUPDATETI": null, "CREATED_US": "Ajit Deshmukh", "CREATED_DA": null, "LAST_EDITE": " ", "LAST_EDI_1": null, "ACTIVE": " "}}]}