{"type": "FeatureCollection", "name": "hydro_lines", "features": [{"type": "Feature", "id": 1, "geometry": {"type": "LineString", "coordinates": [[72.92045562938563, 19.053507082714297], [72.9195132997569, 19.054115599739745], [72.91950016202019, 19.054127801381274], [72.91949320819408, 19.05416476784269], [72.91971181922757, 19.054510933664478], [72.91970280441019, 19.054539646103024], [72.91967433771737, 19.054566079686204], [72.91819065685311, 19.055520760619036], [72.91771503746966, 19.055824105629625]]}, "properties": {"OBJECTID": 1, "ID": 65, "NAME": " ", "TYPE": "Nallah", "SHAPE.LEN": 427.114037788454}}, {"type": "Feature", "id": 2, "geometry": {"type": "LineString", "coordinates": [[72.9378357105615, 19.050484211016126], [72.93783689308698, 19.05051965255977], [72.93784146571114, 19.050542810076575], [72.93786389444196, 19.050563085996703], [72.9379121801013, 19.05058827216792], [72.93873179691128, 19.05085467741893], [72.93911252011328, 19.050982162093714], [72.94032527221789, 19.051420854152497], [72.94136070074164, 19.051789781994252], [72.94224614954666, 19.05210465918997], [72.94308323997932, 19.052400508101563], [72.94376830793296, 19.052676174042308], [72.9442308854446, 19.052866177105884], [72.94461402630687, 19.05303407284778]]}, "properties": {"OBJECTID": 2, "ID": 66, "NAME": " ", "TYPE": "Nallah", "SHAPE.LEN": 771.6037644708}}, {"type": "Feature", "id": 3, "geometry": {"type": "LineString", "coordinates": [[72.87270289397291, 19.104165330428213], [72.8733868896759, 19.10426046871494], [72.87365698136612, 19.104256117117792], [72.87384112539404, 19.104281769772452], [72.87397001900658, 19.10431317742998], [72.87410505566184, 19.104417967753086], [72.87420941315418, 19.104583674950398], [72.8742702450949, 19.104791315805105], [72.87426420988834, 19.105257081330258], [72.87428657162266, 19.10549769965241], [72.87437546273581, 19.105795729230458], [72.87442209524912, 19.1058805443203], [72.87447293622073, 19.105893165661854], [72.87451900509126, 19.105879999629853]]}, "properties": {"OBJECTID": 3, "ID": 4, "NAME": " ", "TYPE": " ", "SHAPE.LEN": 332.178171631594}}, {"type": "Feature", "id": 4, "geometry": {"type": "LineString", "coordinates": [[72.86948071137547, 19.11419451230543], [72.86941468720968, 19.114253073196952], [72.86939592500393, 19.114278318020634], [72.86938546791349, 19.114327294706474], [72.86940336515458, 19.114442425049294], [72.86941813866902, 19.11451694463161], [72.8694178483806, 19.114565990272997], [72.86940073188597, 19.114599694242898], [72.86936329082103, 19.114636629569826], [72.86933594812433, 19.114682087600123], [72.86931684186919, 19.11476649577936], [72.86931447183481, 19.114886536401865], [72.86932267495241, 19.114933945230316], [72.86935962761946, 19.114986650428538], [72.86938983838435, 19.115034229208778], [72.8694164170518, 19.115129129435616], [72.86945290480101, 19.115274834639557], [72.86947418261578, 19.115422109714462], [72.86947675944157, 19.115594587860816]]}, "properties": {"OBJECTID": 4, "ID": 14, "NAME": " ", "TYPE": " ", "SHAPE.LEN": 165.14174070431702}}, {"type": "Feature", "id": 5, "geometry": {"type": "LineString", "coordinates": [[72.87895481074169, 19.090097127639908], [72.87754314938582, 19.090070351037884], [72.87737600542503, 19.09007031273838], [72.87720515846348, 19.090013381667415], [72.87687487656221, 19.089910933354236], [72.8767723681543, 19.089891976296858], [72.8763775005239, 19.08989211925359], [72.87554314881001, 19.089877834066385], [72.87533849379011, 19.089878091111036], [72.8749898989225, 19.089840571971436], [72.87395539002023, 19.08982261898292], [72.87268567046596, 19.089805013054495], [72.87044498860485, 19.08977358162923], [72.86935693104417, 19.089755773168612], [72.86828801933208, 19.08974543579869], [72.86822737792293, 19.089749270153472], [72.86817432180746, 19.089787115293795], [72.86784466629511, 19.09008596634794], [72.86664020400521, 19.09121273897276], [72.86570887059018, 19.092066826330615], [72.86487237597757, 19.092841428446327], [72.86391866974482, 19.093721861184598]]}, "properties": {"OBJECTID": 5, "ID": 12, "NAME": " ", "TYPE": " ", "SHAPE.LEN": 1764.44284359241}}, {"type": "Feature", "id": 6, "geometry": {"type": "LineString", "coordinates": [[72.86016229092266, 19.136815873716625], [72.86019360254306, 19.13668014629437], [72.86021154564654, 19.13653678787626], [72.8602190845451, 19.136390512752577], [72.86022675638606, 19.13631208914263], [72.86024953783449, 19.136213855051803], [72.86028105712468, 19.136139502723708], [72.86034050978924, 19.13596676127176], [72.86037663074184, 19.135835836380682], [72.86042063946633, 19.135749476066046], [72.86046475690236, 19.13571552308922]]}, "properties": {"OBJECTID": 6, "ID": 13, "NAME": " ", "TYPE": " ", "SHAPE.LEN": 128.023463720374}}, {"type": "Feature", "id": 7, "geometry": {"type": "LineString", "coordinates": [[72.8478884042121, 19.089709487193673], [72.8479703377842, 19.08975874338377], [72.84805917992142, 19.089819659991505], [72.848131657687, 19.08986417826384], [72.84819243579904, 19.089922747260538], [72.84832333512755, 19.090084382133657], [72.84850805780073, 19.090297494436108], [72.84861802630502, 19.0904238889089], [72.84866718634765, 19.090473017633606], [72.84869760662274, 19.090482367573955], [72.84876545476693, 19.090482349828257], [72.84960349801351, 19.090500404621515], [72.85016365109169, 19.090508678932718], [72.85051791268671, 19.09051467256045]]}, "properties": {"OBJECTID": 7, "ID": 10, "NAME": " ", "TYPE": " ", "SHAPE.LEN": 313.76051112560503}}, {"type": "Feature", "id": 8, "geometry": {"type": "LineString", "coordinates": [[72.87894149741986, 19.099832361666095], [72.87874989131805, 19.09995040901729], [72.87632143460127, 19.100943676099288], [72.87620496329788, 19.100991344706124], [72.87510145868356, 19.100958863938594], [72.87320030031265, 19.100935949554042], [72.87301012592576, 19.100983843991788], [72.87289957843953, 19.101062706311904], [72.87275810043599, 19.101245252039448], [72.87272696918157, 19.101422228707715], [72.87270102556374, 19.101935020077104], [72.87271923497606, 19.102703480684013], [72.87270532387915, 19.10287685986871], [72.87269596134962, 19.102936922723824], [72.87264698758536, 19.103091554079228], [72.87256082552798, 19.10325752788633], [72.87253288723029, 19.103315172071802], [72.8725305373545, 19.10337297830476], [72.8725444692693, 19.103454016825914], [72.87271211611552, 19.104070485717344], [72.87270289397291, 19.104165330428213], [72.87267971204861, 19.10423695523792], [72.87262142257869, 19.104314872009688], [72.871754132675, 19.104787576595907], [72.87002558584797, 19.10572846061773], [72.86999079702412, 19.10575502498632], [72.86997456060779, 19.105801867352508], [72.86997486109281, 19.10592138082305], [72.86994769419093, 19.106263539068028], [72.86989944679343, 19.10658462404586], [72.86986528783856, 19.10693390484368], [72.86985865395303, 19.10699544422757], [72.86982744372739, 19.1071259858459], [72.86979998397683, 19.107180038199722], [72.86974627721312, 19.107248577702304], [72.86967284528181, 19.107311826073527], [72.86940516888859, 19.107473818886934], [72.86937892281301, 19.107488303283873], [72.86936192609053, 19.10752259132573], [72.86936727766667, 19.107560864050228], [72.86938580479067, 19.107612346886107], [72.86941618231243, 19.10767307903345], [72.8694438982689, 19.10772061168197], [72.86946762538703, 19.107749664342265], [72.86949130907786, 19.10776156170958], [72.86952023711108, 19.107768184202836], [72.86963718195217, 19.107761571131604], [72.86982855589734, 19.107761797268008], [72.86995319831048, 19.10776669215298], [72.87006021622794, 19.107746357148603], [72.87014370346904, 19.10770617784152], [72.8702073185717, 19.107710020347216], [72.87025520656685, 19.10774013925441], [72.87028770478798, 19.107767225748226], [72.87031143346064, 19.10779624400648], [72.87035729805648, 19.10790408704634], [72.87040693558113, 19.10794948410584], [72.87050517574265, 19.10797239312733], [72.87058688192882, 19.10806456008407], [72.87069293417889, 19.108253314744307], [72.87078035870297, 19.10845764471685], [72.87077958865811, 19.10872083802696], [72.87070774165869, 19.109076303008614], [72.87068125392848, 19.109121222982974], [72.87065113981153, 19.1091678750039], [72.87051230315649, 19.10925563298006], [72.87046270834625, 19.109311716341228], [72.8702805079073, 19.109488887750253], [72.87026838595533, 19.10957828622949], [72.87027035489135, 19.109680221593806], [72.87029209491217, 19.109872321061495], [72.87031215195479, 19.110204804417947], [72.8703147939147, 19.110272664704848], [72.87030716013653, 19.110350537983084], [72.87026914228917, 19.110441283403897], [72.87006373544618, 19.110563355048054], [72.86977005026318, 19.11073717771995], [72.86965126961931, 19.110821646130393], [72.86956053591042, 19.110898993563218], [72.86945319291856, 19.110939046185912], [72.86940420986606, 19.11096022060833], [72.86938101507351, 19.110988297365346], [72.86936018422747, 19.111018690359604], [72.86935816685053, 19.11106066514348], [72.86957838830149, 19.111725873445742], [72.86960002453463, 19.11179111195248], [72.8695832677588, 19.111839488237823], [72.8695651396855, 19.11189536199031], [72.86956339870162, 19.111953514717364], [72.8696655242921, 19.11219011287817], [72.86970312273655, 19.112381649844604], [72.86987462328379, 19.11309593635875], [72.8699390133654, 19.11340917576972], [72.86996094523636, 19.11351729740776], [72.86995024597267, 19.113586974146045], [72.86991780695375, 19.113625944770366], [72.8697771749658, 19.113669264841853], [72.86958227838488, 19.113711596090976], [72.8695577160954, 19.113815283631663], [72.8695492953444, 19.113916473570196], [72.86953752581546, 19.11405793376241], [72.86953725065446, 19.114101502195183], [72.86951516241719, 19.114154271603304], [72.86948071137547, 19.11419451230543], [72.86940916536875, 19.11419716229068], [72.8693033082033, 19.114205780207584], [72.86926271265459, 19.114224159384356], [72.86923745613701, 19.114276857734584], [72.86917131605763, 19.114388342085515], [72.86901201055069, 19.114486465696828], [72.86838272446374, 19.114603034201945]]}, "properties": {"OBJECTID": 8, "ID": 5, "NAME": " ", "TYPE": " ", "SHAPE.LEN": 2675.40975588212}}, {"type": "Feature", "id": 9, "geometry": {"type": "LineString", "coordinates": [[72.84578833656714, 19.089963874077874], [72.8460066610165, 19.090183571609124], [72.84602134446428, 19.090198506118497], [72.84608945938791, 19.090272284746323], [72.84657608886, 19.090785707920816], [72.84687565308406, 19.091156738219105], [72.8470732572519, 19.09112185579489], [72.84780877227293, 19.091135914088376], [72.8483630008544, 19.091153833022553], [72.84890982706813, 19.09119810032754], [72.84930552406144, 19.091256087618813], [72.84939744730985, 19.09129843259005], [72.84947375808993, 19.091392869351576]]}, "properties": {"OBJECTID": 9, "ID": 7, "NAME": " ", "TYPE": " ", "SHAPE.LEN": 455.70962710811403}}, {"type": "Feature", "id": 10, "geometry": {"type": "LineString", "coordinates": [[72.8454830453542, 19.11050703567276], [72.84565459918932, 19.11049620804977], [72.84574513229865, 19.110433485639785], [72.845788015244, 19.110424785314564], [72.84587415299391, 19.110425108996452], [72.84607460115774, 19.11041734702899], [72.8463032683453, 19.11038659041013], [72.84635976184639, 19.110371752664282], [72.84647454342894, 19.110352742955108], [72.84656631109067, 19.110325194579353], [72.84663163990874, 19.110317455832675], [72.84667472070738, 19.110339993002253], [72.84671479709463, 19.110360976638553], [72.84683168188714, 19.110464554629427], [72.84693429047203, 19.11053652508693], [72.8469802608252, 19.110566413255242], [72.84721371544923, 19.11078731361876], [72.84732151940665, 19.110868593983124], [72.84738521695685, 19.110939313259394], [72.84744367686383, 19.111025966059348], [72.84745092332625, 19.111086147884286], [72.84744085189382, 19.111243737198382], [72.84739200995223, 19.11140495386388], [72.84735359514242, 19.111518357741296], [72.84736610166723, 19.11157144733501], [72.84755503375507, 19.111677227190885], [72.84763632017197, 19.111742529403212], [72.84769303754527, 19.111845052707135], [72.84775850065797, 19.111926304608122], [72.84782566795292, 19.11198807518144], [72.84791403755423, 19.11206747772811], [72.84799696910628, 19.112093800174737], [72.8480639979422, 19.112106005725984], [72.84811164878339, 19.112123571258252], [72.84817177868541, 19.112192406867088], [72.84843160100678, 19.112442841820503], [72.84851462132347, 19.112504475991134], [72.84862403498711, 19.112541241430257], [72.84875103489432, 19.112553164286034], [72.84883571737508, 19.112565223702546], [72.84890634441246, 19.11260207928302], [72.84913072310209, 19.11279205160096], [72.84920672989706, 19.11288007878742], [72.84923148291298, 19.112913542840516], [72.84925618841228, 19.112918728161777], [72.84936201427116, 19.112907614020678], [72.84947382712728, 19.112881178341148], [72.84954013580926, 19.112864319092477]]}, "properties": {"OBJECTID": 10, "ID": 9, "NAME": " ", "TYPE": " ", "SHAPE.LEN": 591.284821417493}}, {"type": "Feature", "id": 11, "geometry": {"type": "LineString", "coordinates": [[72.87566392404707, 19.106647141769788], [72.87589662547649, 19.10683926873993], [72.8759161627549, 19.106884282707103], [72.87591928985532, 19.106933539618353], [72.8759349548654, 19.10725555983162], [72.8759118262306, 19.107307375275724], [72.87586242092486, 19.10735036693383], [72.87582296131494, 19.107398282357906], [72.87579934737147, 19.107569401987632], [72.87580701607052, 19.107718079697214], [72.87583892196183, 19.107818549782213], [72.87602524484275, 19.108242069654423], [72.8761332138504, 19.10844858760238], [72.87614071011923, 19.108454169587958], [72.8764138647167, 19.108558099187686], [72.87644315010878, 19.108592884098965], [72.87651238907634, 19.108659849138206], [72.87662150364555, 19.108790931085878], [72.87670125485926, 19.108919162217333], [72.87676448353622, 19.10906883865708], [72.87684139109297, 19.109417651812297], [72.87688888783369, 19.109593544710233], [72.87692196555224, 19.109836074182468], [72.8769183041479, 19.109867048329036], [72.87690936368264, 19.109921880085384], [72.87685368516732, 19.109977458870308], [72.87679032639761, 19.110010003329553], [72.87636115376226, 19.110051696807567], [72.87634827234517, 19.110051481314255], [72.87633235567807, 19.11006861868006], [72.87628733141628, 19.110372285936478], [72.87624312223225, 19.110682351371853], [72.87622545836352, 19.110729963746074], [72.87616066982234, 19.110798085578423], [72.8761470771435, 19.110826247916943], [72.87614975911161, 19.110884838555254], [72.87620735919081, 19.111006424560703], [72.87623457189751, 19.111051221805482], [72.87626565261273, 19.111088983883345], [72.87626923507615, 19.111232936395883], [72.87623928086859, 19.1114291830773], [72.8762269941459, 19.1114561997916], [72.8762095862842, 19.11147818130282], [72.87619117382937, 19.11148529880331], [72.87615946811405, 19.111504571688993], [72.87614878364981, 19.111516770734426], [72.87605214638074, 19.111554108297216], [72.8760138386404, 19.111591957406738], [72.87598294395359, 19.11166028428466], [72.87597748581345, 19.11171859940013], [72.87596880434474, 19.11188857344272], [72.87597568356594, 19.11201045472965], [72.87598782308044, 19.112104461411718], [72.87603274805008, 19.112229099640178], [72.87613300957321, 19.112437867322075], [72.87620326863076, 19.112588213150683], [72.87625605453681, 19.1126953500555], [72.87632414822181, 19.112759174047845], [72.87648813619099, 19.112891952705244], [72.87655115645849, 19.112965912343714], [72.87661178205721, 19.112993973734966], [72.87669416857437, 19.113021495864558], [72.87675552755134, 19.11306617042865], [72.87709599022769, 19.11316444868213], [72.87711798276153, 19.11318394742691], [72.87728031569961, 19.11369523215012], [72.8773123428717, 19.113719278977392], [72.87759820053819, 19.113824964639026], [72.87775152999441, 19.113926307624897], [72.87779170878476, 19.11396894641059], [72.87782410217673, 19.114046422929068], [72.87786962894617, 19.11449708312085], [72.87787357609369, 19.114534171635228], [72.87788664737829, 19.11455825085082], [72.87791576830946, 19.114602146789853], [72.87807076646186, 19.114795125418585], [72.87817830321953, 19.11502466643014], [72.8781726193582, 19.115064227216443], [72.87816018388958, 19.11508227289519], [72.87798127718506, 19.115141780731072], [72.87795135006411, 19.11516133001638], [72.87793185135541, 19.115185920577737], [72.87789493715535, 19.115391178669032], [72.87787259223175, 19.11542419187482], [72.87776537761708, 19.115482430798377], [72.87774530973392, 19.115508204370865], [72.87772512174834, 19.11554435238372], [72.87772628659319, 19.115696653030383], [72.87773089873721, 19.115837808285757], [72.87770210545455, 19.115956843777447], [72.87758197044269, 19.116148689277804], [72.87753971060239, 19.116319832392136], [72.87753922310335, 19.116357342151815], [72.8776174378532, 19.11676621311036]]}, "properties": {"OBJECTID": 11, "ID": 6, "NAME": " ", "TYPE": " ", "SHAPE.LEN": 1381.85158091134}}, {"type": "Feature", "id": 12, "geometry": {"type": "LineString", "coordinates": [[72.85582156338018, 19.118891901200822], [72.85628613992033, 19.11881892036565], [72.8564393458391, 19.118822495066023], [72.85660393299966, 19.11881473540596], [72.85673015933432, 19.11885342304413], [72.85684494896671, 19.118880487022242], [72.85696742027632, 19.11888436439061], [72.85710137868189, 19.118876654829187], [72.8582664774443, 19.118776558640135], [72.85835092158172, 19.11876113140624], [72.8584237970539, 19.118765030139723], [72.85846589287556, 19.118792114835664], [72.85851172138015, 19.11884626574258], [72.85868271713186, 19.11928702379111], [72.85892599283054, 19.119944038358447], [72.85925035800211, 19.120982418978475], [72.85927893430497, 19.121133178350803], [72.85927421831364, 19.121220498320454], [72.85925419385929, 19.12129751369188], [72.85907647315608, 19.121399827439877], [72.85864926520891, 19.12149635970957], [72.85862579716846, 19.12172642171121], [72.8586429180136, 19.12186598376067], [72.85874639339124, 19.122541694300274], [72.85857309445504, 19.122572494693923], [72.85829460665425, 19.122625923278374], [72.85781404954632, 19.122720388633233], [72.85775840523222, 19.122749420642236], [72.85773167274459, 19.122801515345564], [72.8577152535653, 19.122857828250453], [72.857727741585, 19.122941397636886], [72.85779401234144, 19.12319230222678], [72.85783955212379, 19.123441173276788], [72.85785816046993, 19.123564594294425], [72.8578478391293, 19.123612664650725], [72.85781685942464, 19.12366904912972], [72.85776108358885, 19.12372955718421], [72.8577300894148, 19.123769223089873], [72.85770734554964, 19.123813103945093], [72.85769904659479, 19.123867496256064], [72.85768864225307, 19.12395538571623], [72.85767413816106, 19.123997221826848], [72.857550623291, 19.12407655764395], [72.85750457001353, 19.124107787783657], [72.85730328841393, 19.12403602840344], [72.8572510136462, 19.124013528019134], [72.85720421863135, 19.124007804428388], [72.85716017381921, 19.124004878642545], [72.85710783268105, 19.12401869469123], [72.85701683282973, 19.12407432364378], [72.8569423557339, 19.12412163279258], [72.85688515692758, 19.124180365315606], [72.85684048268836, 19.124249440635843], [72.85682241160812, 19.124330637852466], [72.85681309491346, 19.12444497008303], [72.85681274942901, 19.124535257391532], [72.85682142529912, 19.12459245695938], [72.85684203586095, 19.124631621184456], [72.85692181523092, 19.12471602083197], [72.85708446724412, 19.124878721166706], [72.85714956914883, 19.1249479601593], [72.85721468614122, 19.125023180674845], [72.85725319378945, 19.125062285130586], [72.85727386309732, 19.12511039043895], [72.85729450861547, 19.125170509686672], [72.85729441240035, 19.125209580742855], [72.85727044688772, 19.125284715315498], [72.85724652933989, 19.125338813592656], [72.85723746055606, 19.125395916591557], [72.85726392909945, 19.125510082313397], [72.85730222002503, 19.12566024055931], [72.85732580997401, 19.12574730393893], [72.85734646722817, 19.125819339988304], [72.857364120024, 19.125906375738264], [72.85738174483694, 19.12600840341643], [72.85738625499289, 19.126031395073813]]}, "properties": {"OBJECTID": 12, "ID": 11, "NAME": " ", "TYPE": " ", "SHAPE.LEN": 1333.71174037433}}, {"type": "Feature", "id": 13, "geometry": {"type": "LineString", "coordinates": [[72.84985604975039, 19.142600149051912], [72.84995624360396, 19.142583903982835], [72.85000592597943, 19.142576785057532], [72.85003897460994, 19.142553213874397], [72.8501096538319, 19.14246842335866], [72.85015911796904, 19.14240719613905], [72.85020389986244, 19.142360097891473], [72.85025585392857, 19.14233182240169], [72.8503149717159, 19.14232001478798], [72.85038349403462, 19.142294093657764], [72.85043296104473, 19.142239971364848], [72.85054541039742, 19.141981293712455], [72.8505994061654, 19.141891996593056], [72.8506228583447, 19.141849713268904], [72.85067234884025, 19.14181687991824], [72.85082332093897, 19.141767908151767], [72.85087271619753, 19.14173288324049], [72.85090778858537, 19.141674395029955], [72.8509468575487, 19.14150350855947], [72.85097143617321, 19.141299993338684], [72.85098872973649, 19.141051786694327], [72.85099285062348, 19.140934406642515], [72.85099952859575, 19.140852221916926], [72.85100641799248, 19.14080993813165], [72.85102509386525, 19.140755858400652], [72.85105784485722, 19.140696948266896], [72.85120299888425, 19.140503235888463], [72.85125229213399, 19.140455863981746], [72.85130412407717, 19.14043666890111], [72.85172794434433, 19.140302164164297], [72.85188849118171, 19.14025118968118], [72.85190385506995, 19.140244149563035], [72.85200853223469, 19.14019617828886], [72.8520767735842, 19.140162725427917], [72.85217563299335, 19.14011962684822], [72.8524368531201, 19.140002340931442], [72.85248150739467, 19.13997139700564], [72.8525119769551, 19.139933484014303], [72.85258401190083, 19.13970909861852], [72.85259048998846, 19.139577055446846], [72.8525709786071, 19.13943341702927], [72.85256346842708, 19.13933447090731], [72.85256546264644, 19.13924958929679], [72.85256508084908, 19.13916000919988], [72.8525719225824, 19.13910337024932], [72.85260951988953, 19.139060603323063], [72.85268024037057, 19.139034043876077], [72.85275101641315, 19.1390216299982], [72.85280287794006, 19.139002305618487], [72.85283772634027, 19.13897117294472], [72.85284287803769, 19.138966569633254], [72.85284633361978, 19.138957238748933], [72.85286391957824, 19.13890976596386], [72.85287070768779, 19.138827136147526], [72.85288233815159, 19.13877748739554], [72.8529034504064, 19.138737184276284], [72.85294114079788, 19.138708517238705], [72.85299537742992, 19.138682047803087], [72.85323367977851, 19.138592416858984], [72.85346505236689, 19.13853581161159], [72.85366579404385, 19.138505447372754], [72.85376969876046, 19.138497330138495], [72.85386647831854, 19.138486944672735], [72.85393959767099, 19.138474461022525], [72.854019708579, 19.138454876300106], [72.85409969233407, 19.13842365794959], [72.85431735805516, 19.13833455323471], [72.85438522629143, 19.138299433962928], [72.85444842305989, 19.138276105407314], [72.85452803221014, 19.138267023052983], [72.85462877163467, 19.138281660184482], [72.85503974320753, 19.138332335896248], [72.85522933080938, 19.138355822741637], [72.8552586163043, 19.13834931600929], [72.85528099834649, 19.13834434463701], [72.85529285006349, 19.138339380450983], [72.85534206197077, 19.138318767059022], [72.85561924674953, 19.138155332693756], [72.85571791108696, 19.13808516731841], [72.85577897914153, 19.138031272589114], [72.85582123328196, 19.137977242354864], [72.85583245944649, 19.137954703426104], [72.85584467992071, 19.13793016093401], [72.85586099258734, 19.13784285834235], [72.85586786606308, 19.13775548266588], [72.85586351026369, 19.137667118801883], [72.85579119010042, 19.137407811412437], [72.855764732825, 19.13731087705657], [72.85576678516406, 19.137258961125983], [72.8557782172614, 19.137200015290986], [72.85582048244497, 19.13716718817254], [72.85592413081191, 19.137139410911182], [72.85594486298113, 19.13713553119952], [72.85604668114604, 19.137116492284648], [72.85610083767997, 19.137097918065564], [72.85613843457557, 19.137069798375954], [72.8561759626839, 19.137027500381063], [72.85620159670684, 19.13696622264925], [72.85621063055683, 19.136890663225838], [72.85621479036378, 19.136791443086555], [72.85622392972184, 19.136739507725753], [72.85624017683932, 19.136697146669224], [72.85624021024326, 19.13669706215281], [72.85628492238098, 19.13666894863142], [72.8563652058237, 19.13666705414786], [72.85636643681403, 19.13666732864177], [72.85645186700407, 19.13668645057193], [72.85647391168956, 19.136691395550816], [72.85647751874457, 19.136692837661624], [72.85654009021943, 19.136717877566344], [72.85660398986545, 19.136772769273417], [72.85671048191864, 19.13688718898097], [72.85677914330498, 19.136972910077233], [72.85680058396319, 19.137036947083242], [72.85682426298935, 19.137121140140177], [72.85684590798832, 19.13719813672636], [72.85686729408003, 19.137255066277156], [72.85690511977361, 19.137295579350447], [72.8569475971082, 19.137314850597328], [72.8569993216381, 19.137302827971006], [72.85700648616307, 19.137301162801503], [72.8571147909109, 19.137252432131138], [72.85724668604284, 19.137201550262642], [72.85731501421402, 19.13718086377946], [72.8573857290765, 19.13716729655246], [72.85746592322894, 19.137165640831984], [72.85752493621136, 19.13717798884918], [72.8576124047346, 19.137240248241294], [72.85768101487139, 19.137311797270247], [72.85773546966205, 19.137390307079166], [72.8577710471206, 19.137478099110076], [72.85780423762024, 19.13756586331643], [72.85784681487053, 19.13763007071146], [72.85790350102103, 19.13766131471677], [72.85795639487444, 19.13766621169489], [72.85796015672307, 19.137666560837065], [72.8581277650147, 19.13765865236328], [72.85831424118733, 19.137603666387683], [72.85833923759664, 19.137592724757944], [72.85844641145911, 19.13754582184767], [72.85853079460124, 19.137491743423755], [72.85858087823267, 19.13745964622838], [72.85864924283548, 19.13740120716562], [72.85869878261167, 19.13737568291682], [72.85873658292394, 19.13737841123878], [72.85906745879726, 19.137454852209387], [72.85916669668099, 19.13746750657498], [72.85929658754148, 19.137461335441397], [72.85936035740528, 19.137449879669372], [72.85973846611702, 19.137306081067564], [72.85975550760324, 19.137296403294], [72.85980935006025, 19.137265827234412], [72.85984712754826, 19.137227933790914], [72.8598801796364, 19.137192407852698], [72.85991553454099, 19.137118979153325], [72.85992728635341, 19.137073972103124], [72.85993420409315, 19.13696500062611], [72.8599350255734, 19.136951037708403], [72.85993880700406, 19.136886825840232], [72.85995529342017, 19.136844188958282], [72.85999545927689, 19.136820509834237], [72.86005928617497, 19.13680394382897], [72.86018228832967, 19.136818190336356], [72.8602982027349, 19.136837146936433], [72.8604850811742, 19.1368606464116], [72.86062421630206, 19.136847511198457], [72.86071144912819, 19.13681596408271], [72.86080005156697, 19.136766112092637], [72.86086204779188, 19.136743584672395], [72.86094237138448, 19.13673556275921], [72.86103603334189, 19.136786052788093], [72.86131437946926, 19.136958546835878], [72.8617110248352, 19.136923582680183], [72.86179966014231, 19.13692141897136], [72.86186525771966, 19.136926459884286], [72.86193265591143, 19.13694392706355], [72.86200188863872, 19.136984472120762], [72.8620552117521, 19.137037515648707], [72.86224237586185, 19.137382910763538], [72.86229064318113, 19.137512273128703], [72.86231208271882, 19.137565425402705], [72.86232821974268, 19.137623919294136], [72.8623320177624, 19.137709075665637], [72.86234103130231, 19.138058048555248], [72.86235154997391, 19.138135121250397], [72.8623867737684, 19.138289337696722], [72.86250353175758, 19.138492378684532], [72.86258227163255, 19.138611122619242], [72.86268467020736, 19.138721331279452], [72.86306701944525, 19.139442920958768], [72.86312390584992, 19.139529251918745], [72.86319456738019, 19.139673685238026], [72.86334853986482, 19.139921106548563], [72.86341924371051, 19.140056223189074], [72.8634492949641, 19.140112363211262], [72.86350422817891, 19.140178945117636], [72.86354692864107, 19.140185804976696], [72.86358969109861, 19.140176844975684], [72.86364134801025, 19.140169606998267], [72.86370624533531, 19.140155392594032], [72.86381296186536, 19.140140818813222], [72.86395759613326, 19.140061191308344], [72.86436335236091, 19.13983271257729], [72.86461030345497, 19.13972584066686], [72.86477461634557, 19.13967772727966], [72.86483779242292, 19.139677464965953], [72.86489842556297, 19.13969469089415], [72.86500452986249, 19.139746685791874], [72.86510813328657, 19.13978371438579], [72.8652016493869, 19.139805805074655], [72.8653356311814, 19.13982274295123], [72.86545902994791, 19.13981923899723], [72.86554043726254, 19.139816928237586], [72.86586134601804, 19.13982024494191], [72.86588941316403, 19.139820535638098], [72.86602091800367, 19.139827520145193], [72.86608915830554, 19.139827299046292], [72.86617993771355, 19.139817207752785], [72.86622108361682, 19.139815991865365], [72.86629124194536, 19.13981287723755], [72.86635377291033, 19.13981615582355], [72.8664193436079, 19.13982532189765], [72.8665297813342, 19.139855285179067], [72.86665099299752, 19.139895512554265]]}, "properties": {"OBJECTID": 13, "ID": 15, "NAME": " ", "TYPE": " ", "SHAPE.LEN": 2592.0575395384403}}, {"type": "Feature", "id": 14, "geometry": {"type": "LineString", "coordinates": [[72.87950562148608, 19.04264453978559], [72.87961631079598, 19.04264507071713], [72.87977322994317, 19.042637313061693], [72.87990195687524, 19.042633055912244], [72.88005483066597, 19.04262716468353], [72.88018966108194, 19.04261724164094], [72.8802796495857, 19.042615219335822]]}, "properties": {"OBJECTID": 14, "ID": 29, "NAME": " ", "TYPE": "River", "SHAPE.LEN": 81.58470688753519}}, {"type": "Feature", "id": 15, "geometry": {"type": "LineString", "coordinates": [[72.873392937046, 19.02426938332546], [72.87344848787644, 19.024271051656452], [72.8734937125599, 19.02427157227245], [72.87357277997982, 19.024278456697974], [72.87364800241063, 19.024291272884454], [72.87369682882562, 19.024304979336915], [72.87375328345261, 19.024311603399678], [72.87381367521976, 19.02430512923738], [72.87388429809425, 19.02428443244894], [72.87397393202282, 19.024250810906246], [72.87405719407647, 19.024224284360695], [72.87414548042752, 19.024197816498543], [72.87424248499195, 19.024177424068824], [72.87432686649622, 19.02416166555039], [72.87442869778785, 19.02415686215007], [72.87450402666086, 19.02416131399942], [72.87457310528549, 19.024163303843544], [72.87464357605565, 19.02415455530683], [72.8747230538275, 19.02412917993826], [72.87479110406012, 19.024113234214152], [72.87486396588756, 19.024114072441094], [72.87493309009903, 19.02411247758108], [72.87499724981198, 19.0241060454631], [72.87506663136472, 19.024084139794486], [72.87513103416549, 19.02405859083328], [72.87521702132175, 19.024015366458148], [72.87529550089387, 19.023969666530075], [72.8753410142021, 19.02394748531915], [72.87540652131239, 19.023933899265504], [72.87547435781303, 19.023934679447883], [72.87553335545579, 19.023938943048545], [72.8756109235355, 19.02396492894722], [72.87567717052121, 19.023991979658035], [72.8757235755644, 19.023998488451358], [72.87576651543621, 19.02398105766353], [72.875819885571, 19.02393387282411], [72.87586184247797, 19.02389492195022], [72.87590876389909, 19.023860807371157], [72.87595539673512, 19.023849394154603], [72.87601324531099, 19.02384528007095], [72.87612515643889, 19.023838201545008], [72.87625725977884, 19.023824185803473], [72.8763855637784, 19.023812516352628], [72.87646608493209, 19.02380388263442], [72.87662575698646, 19.023783756735913], [72.87681091799952, 19.023758852670287], [72.87698839676247, 19.0237334084891], [72.8771040426464, 19.02371657626827]]}, "properties": {"OBJECTID": 15, "ID": 33, "NAME": " ", "TYPE": "Nallah", "SHAPE.LEN": 406.539745886364}}, {"type": "Feature", "id": 16, "geometry": {"type": "LineString", "coordinates": [[72.86754237345404, 19.02962859858175], [72.86768411946683, 19.029917502056836], [72.8677277305183, 19.030006668726198], [72.8678036110776, 19.03020401228719], [72.86795461878893, 19.030690054574084], [72.86804319048075, 19.030980356457352], [72.86808721673005, 19.031218069664817], [72.86812952249879, 19.031446150409344], [72.86812119466174, 19.03156306563045], [72.86811856882373, 19.031578966283693], [72.86803600398032, 19.03207888512772], [72.86802388582694, 19.03222500985738], [72.86807702560007, 19.032345885585293], [72.86821205743412, 19.032655108976567], [72.86826896971935, 19.03268842370995], [72.86833793931049, 19.032718854372984], [72.8684099240393, 19.032749320720956], [72.86846383026803, 19.032778621796233], [72.86851777311263, 19.032805055398452], [72.86856383486507, 19.032818969928087], [72.86861999549919, 19.032829178375152], [72.86867934109944, 19.03282603891469], [72.86874493743689, 19.032805765191984], [72.86881055815829, 19.032783579503572], [72.86887606909575, 19.0327699961693], [72.86896473192354, 19.03275381211546], [72.86906044285014, 19.03273675369308], [72.86915011132564, 19.032720581152144], [72.86926397394724, 19.032698951072817], [72.86941210514672, 19.03267007013514], [72.8695158566579, 19.032653103337395], [72.86965489366368, 19.032627940815985], [72.86979190900287, 19.032603710524192], [72.86992892336319, 19.032579480115757], [72.87010927697256, 19.032546189277003], [72.87023620555989, 19.03252471018427], [72.87035205303313, 19.032505015428224], [72.87047901813676, 19.032480668699474], [72.87057472788386, 19.03246360944985], [72.87066135665683, 19.0324493124161], [72.8707218174871, 19.03243758239158], [72.8707712478761, 19.032423812935065], [72.87081168069561, 19.032406115270835], [72.87085413607358, 19.03238748615999], [72.87091891010837, 19.03235286181494], [72.87097969986698, 19.032315324526476], [72.8710394483251, 19.032280643095618], [72.87108602097469, 19.032254412495558], [72.87112853720859, 19.032231003906656], [72.87117804061059, 19.032211499403243], [72.87121632893387, 19.032204292801158], [72.87126258573939, 19.032202913821447], [72.87134602866956, 19.03220196439455], [72.87144156863054, 19.032198285581387], [72.87152805010028, 19.032195458871346], [72.87161149304966, 19.032194508420748], [72.87166879247252, 19.032194213178702], [72.87172514807719, 19.032189126929314], [72.87178873351873, 19.032168827989285], [72.8718514116491, 19.03214087147424], [72.87193730340859, 19.032105534454644], [72.87201607397549, 19.032076807667913], [72.87213517971055, 19.03203802974459], [72.87223791380315, 19.032022006196748], [72.87237489098916, 19.03200064135604], [72.87251782628165, 19.031985080828427], [72.87261847593629, 19.03197476882332], [72.87273524335896, 19.03196177454681], [72.87285806535385, 19.031946937711083], [72.87298590066555, 19.03193311510161], [72.87309660130744, 19.03192291860038], [72.87318110977036, 19.03191719958349], [72.8732847744978, 19.03190692193273], [72.87336126761112, 19.031899199197795], [72.8734085169165, 19.031898787665686], [72.87344854777153, 19.031912632440314], [72.87347632440527, 19.031941631198784], [72.87350293717641, 19.031983043769433], [72.87352342236308, 19.032032033780656], [72.87353868732625, 19.03209625968807], [72.87354690516642, 19.03216136010647], [72.87355800427748, 19.03223700869465], [72.87356709298417, 19.03231263503523], [72.87357999562452, 19.032404556063412], [72.87359684511124, 19.032502258318384], [72.87364712402221, 19.032670997659473]]}, "properties": {"OBJECTID": 16, "ID": 31, "NAME": " ", "TYPE": "Nallah", "SHAPE.LEN": 1008.6835358379601}}, {"type": "Feature", "id": 17, "geometry": {"type": "LineString", "coordinates": [[72.85847828533434, 19.255878417107535], [72.85850559918634, 19.25520504625046], [72.85856286536665, 19.25462020462899], [72.85859968176005, 19.25419803568528], [72.85862812051693, 19.25393845954795], [72.85864338547208, 19.253889037427793], [72.85868559744533, 19.253855803607962], [72.85873598473601, 19.253836552923183], [72.85878825417858, 19.25383319701429], [72.85884049787572, 19.253831824318283]]}, "properties": {"OBJECTID": 17, "ID": 41, "NAME": " ", "TYPE": "Nallah", "SHAPE.LEN": 243.626491753059}}, {"type": "Feature", "id": 18, "geometry": {"type": "LineString", "coordinates": [[72.84048511755654, 19.2531847985793], [72.84063317602615, 19.253144314278128], [72.84098505870854, 19.253242806051016], [72.84144985090718, 19.253146967768785], [72.84290032415142, 19.252836866007218], [72.84302135647172, 19.252810989630085]]}, "properties": {"OBJECTID": 18, "ID": 42, "NAME": " ", "TYPE": "Nallah", "SHAPE.LEN": 274.182155078051}}, {"type": "Feature", "id": 19, "geometry": {"type": "LineString", "coordinates": [[72.87397491999, 19.259968417967524], [72.87391007526469, 19.259905078348805], [72.87387912695958, 19.25984856318408], [72.87386545915112, 19.259762166145286], [72.87386013329204, 19.259683887912548], [72.87386500190499, 19.25963380586087], [72.8738848071593, 19.259571864381062], [72.87392420887078, 19.259464023466535], [72.87396757513233, 19.25937628357141], [72.87407253558031, 19.25926118229812], [72.87410680908552, 19.25922347620657], [72.87423566732409, 19.259056507899007], [72.87432391671406, 19.25892717377344], [72.87436687173543, 19.258809847420675], [72.87439789009953, 19.25873800830804], [72.87442464217223, 19.258628516244446], [72.87443771867073, 19.258597080600612], [72.87445231937016, 19.258570175329865], [72.87455002183749, 19.258485574385123], [72.87461087579719, 19.258433636608117], [72.87468482553942, 19.258348758543228], [72.87476539918586, 19.258241395971385], [72.87487179502364, 19.25809672924693], [72.87491538449515, 19.258032557525212], [72.87500934423547, 19.257869695524963]]}, "properties": {"OBJECTID": 19, "ID": 43, "NAME": " ", "TYPE": "Nallah", "SHAPE.LEN": 273.39931023131606}}, {"type": "Feature", "id": 20, "geometry": {"type": "LineString", "coordinates": [[72.87527648411027, 19.244206959084185], [72.87485505147139, 19.244549070969388], [72.87456114125946, 19.24478764739785], [72.87421431336882, 19.245029033494202], [72.8738895558773, 19.24523643117717], [72.87380007611281, 19.245278767260942], [72.8736274043979, 19.245341823435137], [72.87339031016698, 19.24546120443295], [72.87314602086803, 19.245579359725337], [72.87298586049411, 19.245697352085354], [72.87284867732839, 19.245804196152665]]}, "properties": {"OBJECTID": 20, "ID": 45, "NAME": " ", "TYPE": "Nallah", "SHAPE.LEN": 312.312899847531}}, {"type": "Feature", "id": 21, "geometry": {"type": "LineString", "coordinates": [[72.87103716996418, 19.24763291274343], [72.87095254548673, 19.247665046424647], [72.87088738157087, 19.247691292469842], [72.87085617702668, 19.247729815174633], [72.87085281548501, 19.247814029647333], [72.87086109027554, 19.24787785586319], [72.87085592901384, 19.247925324035823], [72.8708179576076, 19.247959447702534], [72.87074868494415, 19.248039654039925], [72.87073794890007, 19.2480784149883], [72.87073569664503, 19.2481648029439]]}, "properties": {"OBJECTID": 21, "ID": 46, "NAME": " ", "TYPE": "Nallah", "SHAPE.LEN": 75.1315020902682}}, {"type": "Feature", "id": 22, "geometry": {"type": "LineString", "coordinates": [[72.86703712576104, 19.23873503243052], [72.86693790751113, 19.23881387324215], [72.86672837119951, 19.238965067285097], [72.86660548651624, 19.239086543645037], [72.86658845368207, 19.239152921009538], [72.86660821313049, 19.239501394553656], [72.86667074949908, 19.239989285096943], [72.8667020869101, 19.2403730969374], [72.86668468995103, 19.24046763703985], [72.86663494659892, 19.240561799991667], [72.86654134731148, 19.240711784629998], [72.86645639726122, 19.24081833967529], [72.86645454407663, 19.240961711905832], [72.86646734135317, 19.241223043444716], [72.86647504521872, 19.24146127003477], [72.86647664875986, 19.24154578878424], [72.86646523842384, 19.24159430754451], [72.86643768741251, 19.241640077365194], [72.86632897349136, 19.241707946228708], [72.86610352375455, 19.241838468743225]]}, "properties": {"OBJECTID": 22, "ID": 44, "NAME": " ", "TYPE": "Nallah", "SHAPE.LEN": 392.94485774253803}}, {"type": "Feature", "id": 23, "geometry": {"type": "LineString", "coordinates": [[72.8506637030554, 19.085748511384256], [72.8506627045126, 19.085825869113094], [72.85067524408197, 19.08586315282494], [72.85071072669176, 19.08588832507713], [72.8508540940822, 19.08587761854946], [72.85109807750698, 19.08588974932923], [72.85112403540361, 19.085896241241503], [72.85113316086645, 19.08594586424606], [72.85117569253357, 19.086181564016496], [72.85119152667043, 19.08621579067164], [72.85123038371609, 19.086231718519723], [72.85128257914053, 19.08622304275676], [72.85163211181013, 19.0861280862537], [72.85174638674397, 19.086101566058186], [72.85180248286038, 19.086095931734473], [72.85180115794202, 19.086145531314212], [72.85183254702315, 19.08623564591267], [72.85184171262692, 19.086282174808254], [72.85189021443821, 19.086307498672], [72.85218341906078, 19.08628925370753], [72.85246973217365, 19.086266115373892], [72.85249102904905, 19.08629264754198], [72.85251022568427, 19.08633204110034], [72.85267306074165, 19.086345861369217], [72.85271777219053, 19.08635149137228], [72.85289069430038, 19.086416520009358], [72.85298686452113, 19.0864602177609], [72.85311748170122, 19.08647195860568], [72.85338101265977, 19.08645629608894], [72.85342201023421, 19.086472101208344], [72.85343196662372, 19.08653352768272], [72.853426662577, 19.08680595629113], [72.8534443322747, 19.086824895764856], [72.8534753309422, 19.086875213479058]]}, "properties": {"OBJECTID": 23, "ID": 39, "NAME": " ", "TYPE": "Nallah", "SHAPE.LEN": 406.119043959393}}, {"type": "Feature", "id": 24, "geometry": {"type": "LineString", "coordinates": [[72.84851441736511, 19.086473906503265], [72.84906761939067, 19.08637462786485], [72.84919747393684, 19.086339006642724], [72.84956259772802, 19.08623417847085], [72.84967524568458, 19.08620764060542], [72.84969444387688, 19.086233396148405], [72.84971515527327, 19.08633112366758], [72.84975897382756, 19.086340919713663], [72.84991794073693, 19.08631956418562], [72.85011846654275, 19.086294051695], [72.8502429887561, 19.086293183509458], [72.8503138390221, 19.08628936846363], [72.85032769267944, 19.086161870136394], [72.85032944592564, 19.085764892973597], [72.8506637030554, 19.085748511384256]]}, "properties": {"OBJECTID": 24, "ID": 38, "NAME": " ", "TYPE": "Nallah", "SHAPE.LEN": 297.27036258960203}}, {"type": "Feature", "id": 25, "geometry": {"type": "LineString", "coordinates": [[72.84368224208355, 19.055092502508007], [72.84398398900044, 19.054070851424516], [72.84399471048012, 19.054003456495845], [72.84400083746684, 19.05393759308543], [72.84401155913497, 19.053862538540436], [72.84402840790446, 19.053819651013566], [72.84406363732852, 19.053759913966566], [72.84409274010635, 19.05369251886088], [72.84415400821496, 19.053511776912238], [72.84417545280884, 19.053462762988094], [72.84421374536888, 19.053392303907074], [72.84428420350656, 19.05322228435033], [72.8443561937801, 19.053072175980592], [72.84440367679956, 19.052997122776755]]}, "properties": {"OBJECTID": 25, "ID": 62, "NAME": " ", "TYPE": "Nallah", "SHAPE.LEN": 245.346823326327}}, {"type": "Feature", "id": 26, "geometry": {"type": "LineString", "coordinates": [[72.82763802558956, 19.047656450800158], [72.82781752414554, 19.04777292333862], [72.82836005292664, 19.048074944305796], [72.82867770497762, 19.048279653640627], [72.8287664463179, 19.048297805394167], [72.82888947373884, 19.04836536904791], [72.82949956711285, 19.048705206161443], [72.83017117355938, 19.04906319484697], [72.83063303032309, 19.049305215646864], [72.83108581010262, 19.04954925314929], [72.83162430545336, 19.04979530772317], [72.83179674571592, 19.049874972181502], [72.83214263349775, 19.050048420370892], [72.83254801771801, 19.05027430693722], [72.83268818819886, 19.050334812056803], [72.83282029082544, 19.050377165414247]]}, "properties": {"OBJECTID": 26, "ID": 63, "NAME": " ", "TYPE": "Nallah", "SHAPE.LEN": 624.4223927463381}}, {"type": "Feature", "id": 27, "geometry": {"type": "LineString", "coordinates": [[72.88076564980133, 19.16969037368076], [72.87961016759563, 19.169760252383274], [72.87950535011076, 19.169775226098213], [72.87942299396717, 19.1698101648564], [72.87935561182242, 19.169959903396116], [72.87929072516687, 19.170099659867656], [72.87924330806598, 19.170201980998442], [72.87922334282305, 19.170324267100995]]}, "properties": {"OBJECTID": 27, "ID": 49, "NAME": " ", "TYPE": "Nallah", "SHAPE.LEN": 203.47446409769302}}, {"type": "Feature", "id": 28, "geometry": {"type": "LineString", "coordinates": [[72.79964689245124, 19.141177499272597], [72.79969684988146, 19.141285164305287], [72.79969684985632, 19.141331050103428], [72.79967920223379, 19.141394583223754], [72.79961213882335, 19.141461646070535], [72.79956625324088, 19.141412231084384], [72.79953095702088, 19.141253397579337], [72.79951683871566, 19.141172216185154], [72.79947448323234, 19.141013382144497], [72.79943212741071, 19.140875726084033], [72.79939330055116, 19.140794544161587], [72.79934035676453, 19.140805132766754], [72.7992627044618, 19.1407698368301], [72.7991885815577, 19.140695713617813], [72.79913916704254, 19.140611002397495], [72.79909681095133, 19.140526290798576], [72.79904739624598, 19.140416872661113]]}, "properties": {"OBJECTID": 28, "ID": 50, "NAME": " ", "TYPE": "Nallah", "SHAPE.LEN": 174.274006579436}}, {"type": "Feature", "id": 29, "geometry": {"type": "LineString", "coordinates": [[72.79678317334277, 19.169817244300297], [72.79651846730403, 19.169904426818935], [72.79641465516798, 19.16994707080069], [72.79637064117384, 19.16998785039507], [72.79633735653624, 19.1700390853666], [72.79630682239411, 19.170087771941162], [72.79627278155242, 19.170195797066775], [72.79626319025782, 19.17030411485881], [72.79623987872202, 19.170422595363892], [72.79623915782275, 19.17047680363706], [72.79621612086484, 19.170574633405803], [72.79618070284045, 19.17070114450282]]}, "properties": {"OBJECTID": 29, "ID": 51, "NAME": " ", "TYPE": "Nallah", "SHAPE.LEN": 130.24956556798202}}, {"type": "Feature", "id": 30, "geometry": {"type": "LineString", "coordinates": [[72.80052149242186, 19.221378074303185], [72.80045319397078, 19.221453731537963], [72.80035822178675, 19.221464600876583], [72.80026372823691, 19.221439444592633], [72.80021428063328, 19.22135477599775], [72.80020323813193, 19.221234537435077], [72.80014170802191, 19.221107687742126], [72.80004145419065, 19.22104042442059], [72.79983342651397, 19.220995888279276], [72.79975901578905, 19.220886898482934], [72.79961523639903, 19.22076506501249], [72.79941385011479, 19.220696587061635]]}, "properties": {"OBJECTID": 30, "ID": 52, "NAME": " ", "TYPE": "Nallah", "SHAPE.LEN": 163.45272529915303}}, {"type": "Feature", "id": 31, "geometry": {"type": "LineString", "coordinates": [[72.80014957195189, 19.220011369442005], [72.80006104471332, 19.220043780280765], [72.7999339096166, 19.220096300834154], [72.79982045480553, 19.220070916593908], [72.79966307460101, 19.220020983338152], [72.79955586191225, 19.22000167946206], [72.79937191943068, 19.22004751149568], [72.79921934111609, 19.220111735916774]]}, "properties": {"OBJECTID": 31, "ID": 53, "NAME": " ", "TYPE": "Nallah", "SHAPE.LEN": 103.30497042097801}}, {"type": "Feature", "id": 32, "geometry": {"type": "LineString", "coordinates": [[72.79814588176527, 19.221195083955255], [72.79821961804804, 19.22112662397531], [72.79828370671918, 19.221061336590576], [72.79829098780345, 19.220989360658876], [72.79825402251868, 19.220916851834733]]}, "properties": {"OBJECTID": 32, "ID": 54, "NAME": " ", "TYPE": "Nallah", "SHAPE.LEN": 37.6552884803912}}, {"type": "Feature", "id": 33, "geometry": {"type": "LineString", "coordinates": [[72.80019693623909, 19.219625023453762], [72.8002788621973, 19.21959442999973], [72.80034142228442, 19.219510867478284], [72.80036483830335, 19.21946142455797], [72.80040628603295, 19.219425170284826], [72.80047907281151, 19.219428205914035], [72.80052893175706, 19.219443938222653], [72.80059512193726, 19.219429599683576], [72.80064120677254, 19.219386915004858], [72.80064875176494, 19.219332957709405], [72.80070220986818, 19.21924928572726], [72.80080293451489, 19.219205094855806], [72.80092647181039, 19.21915685503563], [72.80109730447252, 19.21914593421774]]}, "properties": {"OBJECTID": 33, "ID": 55, "NAME": " ", "TYPE": "Nallah", "SHAPE.LEN": 120.23272859703701}}, {"type": "Feature", "id": 34, "geometry": {"type": "LineString", "coordinates": [[72.80263466126095, 19.22087512993527], [72.80258633621706, 19.22075872797458], [72.80250388408399, 19.220672212383793], [72.80239362373813, 19.220581291320137], [72.80236456427143, 19.220509671079487], [72.80236149613538, 19.22041799959397], [72.80232394568841, 19.220340168955847], [72.80223338103765, 19.220218938092945], [72.80216495803617, 19.220205899020097], [72.80202775907007, 19.220206289117794]]}, "properties": {"OBJECTID": 34, "ID": 56, "NAME": " ", "TYPE": "Nallah", "SHAPE.LEN": 108.497288296931}}, {"type": "Feature", "id": 35, "geometry": {"type": "LineString", "coordinates": [[72.85868952868475, 19.189418930869017], [72.85870326144685, 19.189357617701226], [72.85873853147703, 19.18929860549288], [72.85884985770113, 19.189195400911416], [72.8589761731828, 19.189100568265392], [72.85902462017305, 19.189023267227387], [72.85912937073056, 19.188928182686286], [72.85925035483797, 19.188745175317216], [72.85933511529866, 19.188694936792935], [72.85944535460264, 19.188675732401045]]}, "properties": {"OBJECTID": 35, "ID": 57, "NAME": " ", "TYPE": "Nallah", "SHAPE.LEN": 119.180677375338}}, {"type": "Feature", "id": 36, "geometry": {"type": "LineString", "coordinates": [[72.79766829671331, 19.210339853949066], [72.79758259525934, 19.210388694173645], [72.79747687147788, 19.210420766499098], [72.79738104145454, 19.21042870802424], [72.79724688787128, 19.21043921993318], [72.79713813526361, 19.210459130796163], [72.79698391127182, 19.21053911991378]]}, "properties": {"OBJECTID": 36, "ID": 58, "NAME": " ", "TYPE": "Nallah", "SHAPE.LEN": 76.5959677567615}}, {"type": "Feature", "id": 37, "geometry": {"type": "LineString", "coordinates": [[72.79355353159923, 19.205751043735965], [72.7935160041646, 19.20584402995188], [72.79344171524187, 19.20588465189496], [72.79336773877303, 19.205901924820502], [72.79323057051099, 19.205946980258034], [72.79303570705757, 19.206017288402876], [72.79283762767119, 19.20612388507602], [72.79272444886722, 19.206213340491143], [72.79253936534312, 19.206369395574264], [72.79245626042234, 19.20645661814162], [72.79241453476442, 19.206513201614165], [72.79242448923722, 19.206585976498715], [72.79243752012685, 19.206632840764307], [72.792417988168, 19.206663743028574], [72.79235759629226, 19.206686369065693], [72.79230235479389, 19.20673240986715], [72.792220323263, 19.206739206341044], [72.79215491952107, 19.206728039394918], [72.79205892197214, 19.206758020243896], [72.7919822486132, 19.206772665115267], [72.79196814400947, 19.206806227671247], [72.79197592051645, 19.20683745985577], [72.79196682768314, 19.20690481532406], [72.7919283168112, 19.206925109931017], [72.79187397580017, 19.206903696399863], [72.79182222728942, 19.206892692985104]]}, "properties": {"OBJECTID": 37, "ID": 59, "NAME": " ", "TYPE": "Nallah", "SHAPE.LEN": 249.41233823743002}}, {"type": "Feature", "id": 38, "geometry": {"type": "LineString", "coordinates": [[72.83406195411887, 19.198498466383825], [72.83420021089334, 19.19855354377426], [72.8344578221062, 19.198591168796096], [72.83476166969292, 19.19863562708263], [72.83495013015755, 19.19864728477141], [72.83519528934924, 19.19862503043152], [72.83530446915223, 19.19862631980507], [72.83540033380976, 19.198633739333783], [72.83550616452864, 19.198638132315274], [72.83560901620746, 19.198617341137858]]}, "properties": {"OBJECTID": 38, "ID": 60, "NAME": " ", "TYPE": "Nallah", "SHAPE.LEN": 165.10668412529802}}, {"type": "Feature", "id": 39, "geometry": {"type": "LineString", "coordinates": [[72.82070787231832, 19.180502865594878], [72.82006878272549, 19.180636004452694], [72.81945241051717, 19.18074808836956], [72.81892595896794, 19.180848445862377], [72.81784556514694, 19.181091474390218], [72.81726071657566, 19.181195396401648]]}, "properties": {"OBJECTID": 39, "ID": 61, "NAME": " ", "TYPE": "Nallah", "SHAPE.LEN": 370.74082402594405}}, {"type": "Feature", "id": 40, "geometry": {"type": "LineString", "coordinates": [[72.87228235379717, 19.16909778993792], [72.87286196879384, 19.169675668470916], [72.87289866232933, 19.16969687955045], [72.87353588192612, 19.169818243098344], [72.87363028108012, 19.1698330762668], [72.87372552012448, 19.16984179410788], [72.87382116326486, 19.16984435544059], [72.87391676861002, 19.169840749725065], [72.87405146124078, 19.169829455625003], [72.87418575622375, 19.169814479643826], [72.87431954029803, 19.16979583221234], [72.8744527039119, 19.169773531030675], [72.87449995746461, 19.16976014094408], [72.87454342566079, 19.169738018541498], [72.874581343148, 19.16970806380513], [72.87461216772239, 19.16967149183087], [72.87463827999704, 19.16964146631456], [72.874670969251, 19.169617964429797], [72.87470847685583, 19.16960225205321], [72.87474878627941, 19.16959517386639], [72.87484994484461, 19.169586815762845], [72.87495066458797, 19.169574575724848], [72.87505078080004, 19.16955847352385], [72.87515012964094, 19.16953853526458]]}, "properties": {"OBJECTID": 40, "ID": 48, "NAME": " ", "TYPE": "Nallah", "SHAPE.LEN": 339.18064072643904}}, {"type": "Feature", "id": 41, "geometry": {"type": "LineString", "coordinates": [[72.85445830591765, 19.21299110798446], [72.85457930074722, 19.212995329637693], [72.85469745388865, 19.2129911041766], [72.85485197686577, 19.21291437988593], [72.85495274558143, 19.212884707603997], [72.85505012487562, 19.212888653318476], [72.85511550623289, 19.212855761104912], [72.85517491020953, 19.21282840895732], [72.85528551840147, 19.212807266346037], [72.8554123086336, 19.212819969047597], [72.85545354924807, 19.21282010228289], [72.85544281090485, 19.212744597776986], [72.85542043226924, 19.212648974435265], [72.85545126094355, 19.212548363894022], [72.85552236382728, 19.21252956323458], [72.85566704757969, 19.212528451367575], [72.85572820287658, 19.212593677215853], [72.85588509592576, 19.212561855824084], [72.8560629425491, 19.212507841912675], [72.85615244813822, 19.212435965590107], [72.85621316091844, 19.212307656910262], [72.85626173813645, 19.212204450193155], [72.85628684536191, 19.212089747758395], [72.85632995518912, 19.21195281926789], [72.85629040785754, 19.211814922660302], [72.85622677441674, 19.211713207455407], [72.85617768092175, 19.21162848990907], [72.85614050470336, 19.21153549714502], [72.85612115027166, 19.211434299168452], [72.85614002560241, 19.211344767818204]]}, "properties": {"OBJECTID": 41, "ID": 64, "NAME": " ", "TYPE": "Nallah", "SHAPE.LEN": 350.607892287889}}, {"type": "Feature", "id": 42, "geometry": {"type": "LineString", "coordinates": [[72.92045562938563, 19.053507082714297], [72.9195132997569, 19.054115599739745], [72.91950016202019, 19.054127801381274], [72.91949320819408, 19.05416476784269], [72.91971181922757, 19.054510933664478], [72.91970280441019, 19.054539646103024], [72.91967433771737, 19.054566079686204], [72.91819065685311, 19.055520760619036], [72.91771503746966, 19.055824105629625]]}, "properties": {"OBJECTID": 42, "ID": 65, "NAME": " ", "TYPE": "Nallah", "SHAPE.LEN": 427.114037788454}}, {"type": "Feature", "id": 43, "geometry": {"type": "LineString", "coordinates": [[72.9378357105615, 19.050484211016126], [72.93783689308698, 19.05051965255977], [72.93784146571114, 19.050542810076575], [72.93786389444196, 19.050563085996703], [72.9379121801013, 19.05058827216792], [72.93873179691128, 19.05085467741893], [72.93911252011328, 19.050982162093714], [72.94032527221789, 19.051420854152497], [72.94136070074164, 19.051789781994252], [72.94224614954666, 19.05210465918997], [72.94308323997932, 19.052400508101563], [72.94376830793296, 19.052676174042308], [72.9442308854446, 19.052866177105884], [72.94461402630687, 19.05303407284778]]}, "properties": {"OBJECTID": 43, "ID": 66, "NAME": " ", "TYPE": "Nallah", "SHAPE.LEN": 771.6037644708}}, {"type": "Feature", "id": 44, "geometry": {"type": "LineString", "coordinates": [[72.90035261418211, 19.090003016968815], [72.90051409202208, 19.0899915685898], [72.90055930517717, 19.089994474023], [72.90057970552753, 19.090002898393305], [72.90059299680149, 19.09001397776631], [72.90060261454035, 19.09004874171594], [72.90062169747863, 19.090130215556577], [72.90064247514344, 19.09017705709573], [72.90069205276663, 19.09023259035362], [72.90100946746841, 19.09067834528299], [72.90116663568904, 19.09087372095223], [72.90122392045518, 19.09091619739153], [72.90136144086674, 19.09097512357833], [72.90143132335533, 19.091015353423614], [72.90152133108744, 19.091094289564005], [72.90158785953649, 19.09120116127726], [72.90161698488679, 19.09129764456175], [72.9016215793401, 19.091328729997205], [72.90161619133475, 19.0913379841383], [72.90160964475817, 19.091345080692463]]}, "properties": {"OBJECTID": 44, "ID": 67, "NAME": " ", "TYPE": "Nallah", "SHAPE.LEN": 215.324726296507}}, {"type": "Feature", "id": 45, "geometry": {"type": "LineString", "coordinates": [[72.84802825467595, 19.030554123519266], [72.84808725235737, 19.03054237401081], [72.84816074031791, 19.03054789385291], [72.84819147343325, 19.030573125944006], [72.84827231201712, 19.030670626404163], [72.84833183480252, 19.03078739703556], [72.84880069334355, 19.032741295441685], [72.84897635476179, 19.03376868888462], [72.8491557998138, 19.034953660382822], [72.84911041621548, 19.036128949202123], [72.84911890664463, 19.03637225730218], [72.84914058608217, 19.036494114007628], [72.84917724088943, 19.036656680789683], [72.8492227355667, 19.036734594915654], [72.84955942973212, 19.03736864958962], [72.84992546071268, 19.038132020284454], [72.85032641115995, 19.038892111816043], [72.85039372970856, 19.039080829955058], [72.85046916640782, 19.039255017913273]]}, "properties": {"OBJECTID": 45, "ID": 40, "NAME": " ", "TYPE": "Nallah", "SHAPE.LEN": 1023.9267477794601}}]}