{"type": "FeatureCollection", "name": "police_stations", "features": [{"type": "Feature", "id": 1, "geometry": {"type": "Point", "coordinates": [72.8477479995382, 19.08089100024909]}, "properties": {"OBJECTID": 1, "NAME": "Vakola Police Station", "TYPE": 1, "SUBTYPE": "Station", "LOCATION": "Anand Nagar, Western Highway, Santacruz (E), Mumbai-55. ", "ELEVATOR_CONTACT_LIST": null, "ELEVATOR_INTERCOM": null, "WORKING_HRS": null, "EMPLOYEE_QTY": null, "EMPLOYEE_MALE": null, "EMPLOYEE_FEMALE": null, "EMPLOYEE_DIF_ABLE": null, "WORKING_HRS_STR": null, "WORKING_HRS_STP": null}}, {"type": "Feature", "id": 2, "geometry": {"type": "Point", "coordinates": [72.86030318570037, 19.064604193778077]}, "properties": {"OBJECTID": 2, "NAME": "B K C Police Station", "TYPE": 1, "SUBTYPE": "Station", "LOCATION": "Bandra-Kurla Complex Road, Opp. I.C.I.C.I. Bank, Bandra (E), Mumbai - 400051. ", "ELEVATOR_CONTACT_LIST": null, "ELEVATOR_INTERCOM": null, "WORKING_HRS": null, "EMPLOYEE_QTY": null, "EMPLOYEE_MALE": null, "EMPLOYEE_FEMALE": null, "EMPLOYEE_DIF_ABLE": null, "WORKING_HRS_STR": null, "WORKING_HRS_STP": null}}, {"type": "Feature", "id": 3, "geometry": {"type": "Point", "coordinates": [72.85630587535016, 19.07589211255745]}, "properties": {"OBJECTID": 3, "NAME": "Deputy Commissioner Of Police (QRT)", "TYPE": 1, "SUBTYPE": "Office  ", "LOCATION": "Bala Marg, Yashwant Nagar, Vakola, Santacruz (East) \nMumbai 400055. ", "ELEVATOR_CONTACT_LIST": null, "ELEVATOR_INTERCOM": null, "WORKING_HRS": null, "EMPLOYEE_QTY": null, "EMPLOYEE_MALE": null, "EMPLOYEE_FEMALE": null, "EMPLOYEE_DIF_ABLE": null, "WORKING_HRS_STR": null, "WORKING_HRS_STP": null}}, {"type": "Feature", "id": 4, "geometry": {"type": "Point", "coordinates": [72.85010500542477, 19.06588327156153]}, "properties": {"OBJECTID": 4, "NAME": "Kherwadi Police Station", "TYPE": 1, "SUBTYPE": "Station", "LOCATION": "Government Colony, Bldg No. 5, Gr floor, Ambedkar Nagar, Bandra (E), Mumbai - 400051. ", "ELEVATOR_CONTACT_LIST": null, "ELEVATOR_INTERCOM": null, "WORKING_HRS": null, "EMPLOYEE_QTY": null, "EMPLOYEE_MALE": null, "EMPLOYEE_FEMALE": null, "EMPLOYEE_DIF_ABLE": null, "WORKING_HRS_STR": null, "WORKING_HRS_STP": null}}, {"type": "Feature", "id": 6, "geometry": {"type": "Point", "coordinates": [72.8658889998769, 19.094079999984867]}, "properties": {"OBJECTID": 6, "NAME": "Airport Police Station", "TYPE": 1, "SUBTYPE": "Station", "LOCATION": "Airport Terminal Building, Near Gate no 01, Domestic Airport, CSIA, Mumbai 400099. ", "ELEVATOR_CONTACT_LIST": null, "ELEVATOR_INTERCOM": null, "WORKING_HRS": null, "EMPLOYEE_QTY": null, "EMPLOYEE_MALE": null, "EMPLOYEE_FEMALE": null, "EMPLOYEE_DIF_ABLE": null, "WORKING_HRS_STR": null, "WORKING_HRS_STP": null}}, {"type": "Feature", "id": 7, "geometry": {"type": "Point", "coordinates": [72.83481600038168, 19.084147999565307]}, "properties": {"OBJECTID": 7, "NAME": "Santacruz Police Station", "TYPE": 1, "SUBTYPE": "Station", "LOCATION": "Juhu Tara Road, Linking Road, Opp. Juhu Garden,Santacruz (W), Mumbai-400054. ", "ELEVATOR_CONTACT_LIST": null, "ELEVATOR_INTERCOM": null, "WORKING_HRS": null, "EMPLOYEE_QTY": null, "EMPLOYEE_MALE": null, "EMPLOYEE_FEMALE": null, "EMPLOYEE_DIF_ABLE": null, "WORKING_HRS_STR": null, "WORKING_HRS_STP": null}}, {"type": "Feature", "id": 8, "geometry": {"type": "Point", "coordinates": [72.83788587168705, 19.072695910796384]}, "properties": {"OBJECTID": 8, "NAME": "Khar Police Station", "TYPE": 1, "SUBTYPE": "Station", "LOCATION": "Khar Police Station, Swami Vivekanand Rd., Ram Krishna Nagar, Khar West, Mumbai 400052. ", "ELEVATOR_CONTACT_LIST": null, "ELEVATOR_INTERCOM": null, "WORKING_HRS": null, "EMPLOYEE_QTY": null, "EMPLOYEE_MALE": null, "EMPLOYEE_FEMALE": null, "EMPLOYEE_DIF_ABLE": null, "WORKING_HRS_STR": null, "WORKING_HRS_STP": null}}, {"type": "Feature", "id": 9, "geometry": {"type": "Point", "coordinates": [72.8357572359092, 19.055869776843092]}, "properties": {"OBJECTID": 9, "NAME": "Bandra Police Station", "TYPE": 1, "SUBTYPE": "Station", "LOCATION": "Hill Road, ,Near Petit High Schoo Bandra (W), Mumbai - 400050.", "ELEVATOR_CONTACT_LIST": null, "ELEVATOR_INTERCOM": null, "WORKING_HRS": "Yes", "EMPLOYEE_QTY": null, "EMPLOYEE_MALE": null, "EMPLOYEE_FEMALE": null, "EMPLOYEE_DIF_ABLE": null, "WORKING_HRS_STR": null, "WORKING_HRS_STP": null}}, {"type": "Feature", "id": 11, "geometry": {"type": "Point", "coordinates": [72.8544366181581, 19.137740612368194]}, "properties": {"OBJECTID": 11, "NAME": "Jogeshwari Police Station", "TYPE": 1, "SUBTYPE": "Station", "LOCATION": "Swami compound, Caves Road, Jogeshwari (East), Mumbai - 400060.  ", "ELEVATOR_CONTACT_LIST": null, "ELEVATOR_INTERCOM": null, "WORKING_HRS": null, "EMPLOYEE_QTY": null, "EMPLOYEE_MALE": null, "EMPLOYEE_FEMALE": null, "EMPLOYEE_DIF_ABLE": null, "WORKING_HRS_STR": null, "WORKING_HRS_STP": null}}, {"type": "Feature", "id": 12, "geometry": {"type": "Point", "coordinates": [72.87019499213511, 19.09992676682092]}, "properties": {"OBJECTID": 12, "NAME": "Sahar Police Station", "TYPE": 1, "SUBTYPE": "Station", "LOCATION": "Sahar Indian Olil Road, Opp. Hotel Hayyat Regency, Sahar Airport Road, Andheri (E), Mumbai - 400099. ", "ELEVATOR_CONTACT_LIST": null, "ELEVATOR_INTERCOM": null, "WORKING_HRS": null, "EMPLOYEE_QTY": null, "EMPLOYEE_MALE": null, "EMPLOYEE_FEMALE": null, "EMPLOYEE_DIF_ABLE": null, "WORKING_HRS_STR": null, "WORKING_HRS_STP": null}}, {"type": "Feature", "id": 13, "geometry": {"type": "Point", "coordinates": [72.87503799958627, 19.033082999690205]}, "properties": {"OBJECTID": 13, "NAME": "Wadala T.T. Police Station", "TYPE": 1, "SUBTYPE": "Station", "LOCATION": "Wadala Truck Treminal, MMRDA Compound, Near R.T.O. Office, Wadala (E), Mumbai- 400037. ", "ELEVATOR_CONTACT_LIST": null, "ELEVATOR_INTERCOM": null, "WORKING_HRS": null, "EMPLOYEE_QTY": null, "EMPLOYEE_MALE": null, "EMPLOYEE_FEMALE": null, "EMPLOYEE_DIF_ABLE": null, "WORKING_HRS_STR": null, "WORKING_HRS_STP": null}}, {"type": "Feature", "id": 14, "geometry": {"type": "Point", "coordinates": [72.85374500015821, 19.01654199978699]}, "properties": {"OBJECTID": 14, "NAME": "(Duplicate) Wadala T T Police Station", "TYPE": 1, "SUBTYPE": "Station", "LOCATION": "Wadala T T Police Station", "ELEVATOR_CONTACT_LIST": null, "ELEVATOR_INTERCOM": null, "WORKING_HRS": null, "EMPLOYEE_QTY": null, "EMPLOYEE_MALE": null, "EMPLOYEE_FEMALE": null, "EMPLOYEE_DIF_ABLE": null, "WORKING_HRS_STR": null, "WORKING_HRS_STP": null}}, {"type": "Feature", "id": 15, "geometry": {"type": "Point", "coordinates": [72.8553309995903, 19.026952999788673]}, "properties": {"OBJECTID": 15, "NAME": "Police Station-1715260000365", "TYPE": 1, "SUBTYPE": "Station", "LOCATION": null, "ELEVATOR_CONTACT_LIST": null, "ELEVATOR_INTERCOM": null, "WORKING_HRS": null, "EMPLOYEE_QTY": null, "EMPLOYEE_MALE": null, "EMPLOYEE_FEMALE": null, "EMPLOYEE_DIF_ABLE": null, "WORKING_HRS_STR": null, "WORKING_HRS_STP": null}}, {"type": "Feature", "id": 16, "geometry": {"type": "Point", "coordinates": [72.85867780514906, 19.016549901201834]}, "properties": {"OBJECTID": 16, "NAME": "Police Station-1714540000366", "TYPE": 1, "SUBTYPE": "Station", "LOCATION": "Raffi Ahemad Kidwai marg, Wadala.", "ELEVATOR_CONTACT_LIST": null, "ELEVATOR_INTERCOM": null, "WORKING_HRS": null, "EMPLOYEE_QTY": null, "EMPLOYEE_MALE": null, "EMPLOYEE_FEMALE": null, "EMPLOYEE_DIF_ABLE": null, "WORKING_HRS_STR": null, "WORKING_HRS_STP": null}}, {"type": "Feature", "id": 17, "geometry": {"type": "Point", "coordinates": [72.84637500029203, 19.010982999672184]}, "properties": {"OBJECTID": 17, "NAME": "Deputy Commissioner Office ", "TYPE": 1, "SUBTYPE": "Office", "LOCATION": "Deputy Commisioner Office Police Headquarter, Apana Bazar, Borivada, Naigaon, Dadar", "ELEVATOR_CONTACT_LIST": null, "ELEVATOR_INTERCOM": null, "WORKING_HRS": null, "EMPLOYEE_QTY": null, "EMPLOYEE_MALE": null, "EMPLOYEE_FEMALE": null, "EMPLOYEE_DIF_ABLE": null, "WORKING_HRS_STR": null, "WORKING_HRS_STP": null}}, {"type": "Feature", "id": 19, "geometry": {"type": "Point", "coordinates": [72.84691599974913, 19.007331999654607]}, "properties": {"OBJECTID": 19, "NAME": "G D Marg Police Station", "TYPE": 1, "SUBTYPE": "Station", "LOCATION": "G D Ambekar Marg, Naigaon, Dadar East, Mumbai, ", "ELEVATOR_CONTACT_LIST": null, "ELEVATOR_INTERCOM": null, "WORKING_HRS": null, "EMPLOYEE_QTY": null, "EMPLOYEE_MALE": null, "EMPLOYEE_FEMALE": null, "EMPLOYEE_DIF_ABLE": null, "WORKING_HRS_STR": null, "WORKING_HRS_STP": null}}, {"type": "Feature", "id": 21, "geometry": {"type": "Point", "coordinates": [72.8439134205999, 19.00669139292677]}, "properties": {"OBJECTID": 21, "NAME": "Bhoiwada Police Station", "TYPE": 1, "SUBTYPE": "Station", "LOCATION": "Bhoiwada, Opp. Sadakant Dhavan Khashaba Jadhav Marg, Parel, Mumbai-14. ", "ELEVATOR_CONTACT_LIST": null, "ELEVATOR_INTERCOM": null, "WORKING_HRS": null, "EMPLOYEE_QTY": null, "EMPLOYEE_MALE": null, "EMPLOYEE_FEMALE": null, "EMPLOYEE_DIF_ABLE": null, "WORKING_HRS_STR": null, "WORKING_HRS_STP": null}}, {"type": "Feature", "id": 22, "geometry": {"type": "Point", "coordinates": [72.86041300026038, 19.011597000352804]}, "properties": {"OBJECTID": 22, "NAME": "Wadala Police Station1", "TYPE": 1, "SUBTYPE": "Station", "LOCATION": "Wadala Police Station", "ELEVATOR_CONTACT_LIST": null, "ELEVATOR_INTERCOM": null, "WORKING_HRS": null, "EMPLOYEE_QTY": null, "EMPLOYEE_MALE": null, "EMPLOYEE_FEMALE": null, "EMPLOYEE_DIF_ABLE": null, "WORKING_HRS_STR": null, "WORKING_HRS_STP": null}}, {"type": "Feature", "id": 23, "geometry": {"type": "Point", "coordinates": [72.85434428311518, 19.004750874909103]}, "properties": {"OBJECTID": 23, "NAME": "Rafi Ahmed Kidwai Marg Police Station", "TYPE": 1, "SUBTYPE": "Station", "LOCATION": "Kidwai Nagar, Wadala, Mumbai - 400031. ", "ELEVATOR_CONTACT_LIST": null, "ELEVATOR_INTERCOM": null, "WORKING_HRS": null, "EMPLOYEE_QTY": null, "EMPLOYEE_MALE": null, "EMPLOYEE_FEMALE": null, "EMPLOYEE_DIF_ABLE": null, "WORKING_HRS_STR": null, "WORKING_HRS_STP": null}}, {"type": "Feature", "id": 24, "geometry": {"type": "Point", "coordinates": [72.85356129564359, 18.997350137702806]}, "properties": {"OBJECTID": 24, "NAME": "(Chowky) Sewree Poice Station", "TYPE": 1, "SUBTYPE": "Station", "LOCATION": "Sewree Poice Station", "ELEVATOR_CONTACT_LIST": null, "ELEVATOR_INTERCOM": null, "WORKING_HRS": null, "EMPLOYEE_QTY": null, "EMPLOYEE_MALE": null, "EMPLOYEE_FEMALE": null, "EMPLOYEE_DIF_ABLE": null, "WORKING_HRS_STR": null, "WORKING_HRS_STP": null}}, {"type": "Feature", "id": 26, "geometry": {"type": "Point", "coordinates": [72.84090392548995, 19.02327232592348]}, "properties": {"OBJECTID": 26, "NAME": "Shivaji Park Police Station", "TYPE": 1, "SUBTYPE": "Station", "LOCATION": "Ram Niwas, Ram Maruti Road, Dadar (W),  Mumbai-400028.", "ELEVATOR_CONTACT_LIST": null, "ELEVATOR_INTERCOM": null, "WORKING_HRS": null, "EMPLOYEE_QTY": null, "EMPLOYEE_MALE": null, "EMPLOYEE_FEMALE": null, "EMPLOYEE_DIF_ABLE": null, "WORKING_HRS_STR": null, "WORKING_HRS_STP": null}}, {"type": "Feature", "id": 27, "geometry": {"type": "Point", "coordinates": [72.83885588941469, 19.042447385541266]}, "properties": {"OBJECTID": 27, "NAME": "Mahim Police Station", "TYPE": 1, "SUBTYPE": "Station", "LOCATION": "1 HMA Faqir St., The Mahim Makarand CHS, Mahim (W) Mumbai-400016.", "ELEVATOR_CONTACT_LIST": null, "ELEVATOR_INTERCOM": null, "WORKING_HRS": null, "EMPLOYEE_QTY": null, "EMPLOYEE_MALE": null, "EMPLOYEE_FEMALE": null, "EMPLOYEE_DIF_ABLE": null, "WORKING_HRS_STR": null, "WORKING_HRS_STP": null}}, {"type": "Feature", "id": 28, "geometry": {"type": "Point", "coordinates": [72.85741844063841, 19.04313774534983]}, "properties": {"OBJECTID": 28, "NAME": "Dharavi Police Station", "TYPE": 1, "SUBTYPE": "Station", "LOCATION": "Rajiv Gandhi Nagar, Transit Camp, 90 Feet Road, Dharavi,Mumbai-400017.", "ELEVATOR_CONTACT_LIST": null, "ELEVATOR_INTERCOM": null, "WORKING_HRS": null, "EMPLOYEE_QTY": null, "EMPLOYEE_MALE": null, "EMPLOYEE_FEMALE": null, "EMPLOYEE_DIF_ABLE": null, "WORKING_HRS_STR": null, "WORKING_HRS_STP": null}}, {"type": "Feature", "id": 29, "geometry": {"type": "Point", "coordinates": [72.85514299982768, 19.09626199981573]}, "properties": {"OBJECTID": 29, "NAME": "Vileparle Police Station", "TYPE": 1, "SUBTYPE": "Station", "LOCATION": "Nehru Road, Near Centuar Hotel, Navpada, Vileparle (E), Mumbai - 400099.  ", "ELEVATOR_CONTACT_LIST": null, "ELEVATOR_INTERCOM": null, "WORKING_HRS": null, "EMPLOYEE_QTY": null, "EMPLOYEE_MALE": null, "EMPLOYEE_FEMALE": null, "EMPLOYEE_DIF_ABLE": null, "WORKING_HRS_STR": null, "WORKING_HRS_STP": null}}, {"type": "Feature", "id": 30, "geometry": {"type": "Point", "coordinates": [72.86815500028537, 19.117652999560352]}, "properties": {"OBJECTID": 30, "NAME": "MIDC Police Station", "TYPE": 1, "SUBTYPE": "Station", "LOCATION": "MIDC Central Road, Opp E.S.I.S Hospital, Andheri (E), Mumbai - 400093. ", "ELEVATOR_CONTACT_LIST": null, "ELEVATOR_INTERCOM": null, "WORKING_HRS": null, "EMPLOYEE_QTY": null, "EMPLOYEE_MALE": null, "EMPLOYEE_FEMALE": null, "EMPLOYEE_DIF_ABLE": null, "WORKING_HRS_STR": null, "WORKING_HRS_STP": null}}, {"type": "Feature", "id": 31, "geometry": {"type": "Point", "coordinates": [72.85794800038695, 19.11194400038072]}, "properties": {"OBJECTID": 31, "NAME": "G H Road Police Station", "TYPE": 1, "SUBTYPE": "Station", "LOCATION": "Guru Hargovindji Road, Andheri East, Mumbai 400053", "ELEVATOR_CONTACT_LIST": null, "ELEVATOR_INTERCOM": null, "WORKING_HRS": null, "EMPLOYEE_QTY": null, "EMPLOYEE_MALE": null, "EMPLOYEE_FEMALE": null, "EMPLOYEE_DIF_ABLE": null, "WORKING_HRS_STR": null, "WORKING_HRS_STP": null}}, {"type": "Feature", "id": 32, "geometry": {"type": "Point", "coordinates": [72.86878999986443, 19.11180699988798]}, "properties": {"OBJECTID": 32, "NAME": "(Duplicate) Andheri Kurla Road Police Station", "TYPE": 1, "SUBTYPE": "Station", "LOCATION": "Andheri Kurla Road, Andheri East, Mumbai - 400069", "ELEVATOR_CONTACT_LIST": null, "ELEVATOR_INTERCOM": null, "WORKING_HRS": null, "EMPLOYEE_QTY": null, "EMPLOYEE_MALE": null, "EMPLOYEE_FEMALE": null, "EMPLOYEE_DIF_ABLE": null, "WORKING_HRS_STR": null, "WORKING_HRS_STP": null}}, {"type": "Feature", "id": 33, "geometry": {"type": "Point", "coordinates": [72.84905100039246, 18.9782440001557]}, "properties": {"OBJECTID": 33, "NAME": "Sewree Police Station", "TYPE": 1, "SUBTYPE": "Station", "LOCATION": "Ray Road, Darukhana, Sewree, Mumbai-400010.", "ELEVATOR_CONTACT_LIST": null, "ELEVATOR_INTERCOM": null, "WORKING_HRS": null, "EMPLOYEE_QTY": null, "EMPLOYEE_MALE": null, "EMPLOYEE_FEMALE": null, "EMPLOYEE_DIF_ABLE": null, "WORKING_HRS_STR": null, "WORKING_HRS_STP": null}}, {"type": "Feature", "id": 34, "geometry": {"type": "Point", "coordinates": [72.8423905502441, 18.987912052313032]}, "properties": {"OBJECTID": 34, "NAME": "Kalachowki Police Station", "TYPE": 1, "SUBTYPE": "Station", "LOCATION": "Veer Shrikant Hadkar Marg, Chatai Chawl, Abhyudaya Nagar, Kalachowki, Parel Mumbai - 400033. ", "ELEVATOR_CONTACT_LIST": null, "ELEVATOR_INTERCOM": null, "WORKING_HRS": null, "EMPLOYEE_QTY": null, "EMPLOYEE_MALE": null, "EMPLOYEE_FEMALE": null, "EMPLOYEE_DIF_ABLE": null, "WORKING_HRS_STR": null, "WORKING_HRS_STP": null}}, {"type": "Feature", "id": 37, "geometry": {"type": "Point", "coordinates": [72.82614900040653, 18.9807030003362]}, "properties": {"OBJECTID": 37, "NAME": "Police Station-1410050000289", "TYPE": 1, "SUBTYPE": "Station", "LOCATION": null, "ELEVATOR_CONTACT_LIST": null, "ELEVATOR_INTERCOM": null, "WORKING_HRS": null, "EMPLOYEE_QTY": null, "EMPLOYEE_MALE": null, "EMPLOYEE_FEMALE": null, "EMPLOYEE_DIF_ABLE": null, "WORKING_HRS_STR": null, "WORKING_HRS_STP": null}}, {"type": "Feature", "id": 39, "geometry": {"type": "Point", "coordinates": [72.85765599963356, 19.0308690001509]}, "properties": {"OBJECTID": 39, "NAME": "Sion Police Station", "TYPE": 1, "SUBTYPE": "Station", "LOCATION": "Matunga Police Station compound,King's Circle Flyover, Mutunga,  Mumbai-400019.", "ELEVATOR_CONTACT_LIST": null, "ELEVATOR_INTERCOM": null, "WORKING_HRS": null, "EMPLOYEE_QTY": null, "EMPLOYEE_MALE": null, "EMPLOYEE_FEMALE": null, "EMPLOYEE_DIF_ABLE": null, "WORKING_HRS_STR": null, "WORKING_HRS_STP": null}}, {"type": "Feature", "id": 40, "geometry": {"type": "Point", "coordinates": [72.85783899964994, 19.031156000132427]}, "properties": {"OBJECTID": 40, "NAME": "Matunga Police Station", "TYPE": 1, "SUBTYPE": "Station", "LOCATION": "Dr. Babasaheb Ambedkar Road, King's Circle Flyover, Mutunga,  Mumbai-400019. ", "ELEVATOR_CONTACT_LIST": null, "ELEVATOR_INTERCOM": null, "WORKING_HRS": null, "EMPLOYEE_QTY": null, "EMPLOYEE_MALE": null, "EMPLOYEE_FEMALE": null, "EMPLOYEE_DIF_ABLE": null, "WORKING_HRS_STR": null, "WORKING_HRS_STP": null}}, {"type": "Feature", "id": 41, "geometry": {"type": "Point", "coordinates": [72.86467048963527, 19.030516689579283]}, "properties": {"OBJECTID": 41, "NAME": "Antop Hill Police Station", "TYPE": 1, "SUBTYPE": "Station", "LOCATION": "Bldg. No.229, Ground Flr, Sector - VI, Antop Hill, Mumbai-37. M.Khollam, 9870549544\nantophillpolicestation@mtnl.net.in", "ELEVATOR_CONTACT_LIST": null, "ELEVATOR_INTERCOM": null, "WORKING_HRS": null, "EMPLOYEE_QTY": null, "EMPLOYEE_MALE": null, "EMPLOYEE_FEMALE": null, "EMPLOYEE_DIF_ABLE": null, "WORKING_HRS_STR": null, "WORKING_HRS_STP": null}}, {"type": "Feature", "id": 42, "geometry": {"type": "Point", "coordinates": [72.86366300029819, 19.015490000130445]}, "properties": {"OBJECTID": 42, "NAME": "Wadala Police station", "TYPE": 1, "SUBTYPE": "Station", "LOCATION": "Antop Hill Road, Near Korba Mithagar, Nadkarni Park, Wadala (E), Mumbai-400037. ", "ELEVATOR_CONTACT_LIST": null, "ELEVATOR_INTERCOM": null, "WORKING_HRS": null, "EMPLOYEE_QTY": null, "EMPLOYEE_MALE": null, "EMPLOYEE_FEMALE": null, "EMPLOYEE_DIF_ABLE": null, "WORKING_HRS_STR": null, "WORKING_HRS_STP": null}}, {"type": "Feature", "id": 45, "geometry": {"type": "Point", "coordinates": [72.81431599999792, 18.986382000418406]}, "properties": {"OBJECTID": 45, "NAME": "Mahalakshmi Police Station", "TYPE": 1, "SUBTYPE": "Station", "LOCATION": "Mahalakshmi Police Station, Mumbai, Maharashtra", "ELEVATOR_CONTACT_LIST": null, "ELEVATOR_INTERCOM": null, "WORKING_HRS": null, "EMPLOYEE_QTY": null, "EMPLOYEE_MALE": null, "EMPLOYEE_FEMALE": null, "EMPLOYEE_DIF_ABLE": null, "WORKING_HRS_STR": null, "WORKING_HRS_STP": null}}, {"type": "Feature", "id": 46, "geometry": {"type": "Point", "coordinates": [72.83088619907998, 18.991421487126953]}, "properties": {"OBJECTID": 46, "NAME": "N M Joshi Marg Police Station", "TYPE": 1, "SUBTYPE": "Station", "LOCATION": "Sakhubai Mohite Marg, N.M.Joshi Marg, Opp. B.D.D. Chawl 1 & 2, Lower Parel, Mumbai-400013.", "ELEVATOR_CONTACT_LIST": null, "ELEVATOR_INTERCOM": null, "WORKING_HRS": null, "EMPLOYEE_QTY": null, "EMPLOYEE_MALE": null, "EMPLOYEE_FEMALE": null, "EMPLOYEE_DIF_ABLE": null, "WORKING_HRS_STR": null, "WORKING_HRS_STP": null}}, {"type": "Feature", "id": 49, "geometry": {"type": "Point", "coordinates": [72.84490200026828, 19.065433999551818]}, "properties": {"OBJECTID": 49, "NAME": "Nirmal Nagar Police Station", "TYPE": 1, "SUBTYPE": "Station", "LOCATION": "Jay Prakash Road, Nirmal Nagar, Bandra (East), Mumbai - 400051. ", "ELEVATOR_CONTACT_LIST": null, "ELEVATOR_INTERCOM": null, "WORKING_HRS": null, "EMPLOYEE_QTY": null, "EMPLOYEE_MALE": null, "EMPLOYEE_FEMALE": null, "EMPLOYEE_DIF_ABLE": null, "WORKING_HRS_STR": null, "WORKING_HRS_STP": null}}, {"type": "Feature", "id": 50, "geometry": {"type": "Point", "coordinates": [72.84806633871895, 19.120498353560315]}, "properties": {"OBJECTID": 50, "NAME": "Andheri Police Station", "TYPE": 1, "SUBTYPE": "Station", "LOCATION": "Sahar Road, Opp. Andheri Railway Station, Vertex Junction, Andheri Kurla Road, Andheri East, Mumbai - 400069.  ", "ELEVATOR_CONTACT_LIST": null, "ELEVATOR_INTERCOM": null, "WORKING_HRS": null, "EMPLOYEE_QTY": null, "EMPLOYEE_MALE": null, "EMPLOYEE_FEMALE": null, "EMPLOYEE_DIF_ABLE": null, "WORKING_HRS_STR": null, "WORKING_HRS_STP": null}}, {"type": "Feature", "id": 52, "geometry": {"type": "Point", "coordinates": [72.8414789998215, 19.089976039385153]}, "properties": {"OBJECTID": 52, "NAME": "Santacruz Railway Police Station", "TYPE": 99, "SUBTYPE": "Station", "LOCATION": "Santacruz Railway Station office, Mumbai", "ELEVATOR_CONTACT_LIST": null, "ELEVATOR_INTERCOM": null, "WORKING_HRS": null, "EMPLOYEE_QTY": null, "EMPLOYEE_MALE": null, "EMPLOYEE_FEMALE": null, "EMPLOYEE_DIF_ABLE": null, "WORKING_HRS_STR": null, "WORKING_HRS_STP": null}}, {"type": "Feature", "id": 53, "geometry": {"type": "Point", "coordinates": [72.8303846167819, 19.124492880151255]}, "properties": {"OBJECTID": 53, "NAME": "Versova Police Station", "TYPE": 1, "SUBTYPE": "Station", "LOCATION": "Link Road, Near C.D.Barfiwalla School, D.N.Nagar, Andheri (West), Mumbai-400053. ", "ELEVATOR_CONTACT_LIST": null, "ELEVATOR_INTERCOM": null, "WORKING_HRS": null, "EMPLOYEE_QTY": null, "EMPLOYEE_MALE": null, "EMPLOYEE_FEMALE": null, "EMPLOYEE_DIF_ABLE": null, "WORKING_HRS_STR": null, "WORKING_HRS_STP": null}}, {"type": "Feature", "id": 54, "geometry": {"type": "Point", "coordinates": [72.8315996181189, 19.14757349944831]}, "properties": {"OBJECTID": 54, "NAME": "Oshiwara Police Station", "TYPE": 1, "SUBTYPE": "Station", "LOCATION": "New Link Road, Opp. Mhada, Oshiwara, Jogeshwari (West), Mumbai.  400047 ", "ELEVATOR_CONTACT_LIST": null, "ELEVATOR_INTERCOM": null, "WORKING_HRS": null, "EMPLOYEE_QTY": null, "EMPLOYEE_MALE": null, "EMPLOYEE_FEMALE": null, "EMPLOYEE_DIF_ABLE": null, "WORKING_HRS_STR": null, "WORKING_HRS_STP": null}}, {"type": "Feature", "id": 56, "geometry": {"type": "Point", "coordinates": [72.84854078218187, 19.142536846918834]}, "properties": {"OBJECTID": 56, "NAME": "Amboli Police Station", "TYPE": 1, "SUBTYPE": "Station", "LOCATION": "Patel Estate Road, Opp. Pushtik Society, Jogeshwari (W), Mumbai-400058.  ", "ELEVATOR_CONTACT_LIST": null, "ELEVATOR_INTERCOM": null, "WORKING_HRS": null, "EMPLOYEE_QTY": null, "EMPLOYEE_MALE": null, "EMPLOYEE_FEMALE": null, "EMPLOYEE_DIF_ABLE": null, "WORKING_HRS_STR": null, "WORKING_HRS_STP": null}}, {"type": "Feature", "id": 57, "geometry": {"type": "Point", "coordinates": [72.84269000019712, 19.142096000145347]}, "properties": {"OBJECTID": 57, "NAME": "Police Station-1628030000824", "TYPE": 1, "SUBTYPE": "Station", "LOCATION": "Police JogeshwariSubway Bridge, Gumpha Road, Jogeshwari East, Mumbai 400060", "ELEVATOR_CONTACT_LIST": null, "ELEVATOR_INTERCOM": null, "WORKING_HRS": null, "EMPLOYEE_QTY": null, "EMPLOYEE_MALE": null, "EMPLOYEE_FEMALE": null, "EMPLOYEE_DIF_ABLE": null, "WORKING_HRS_STR": null, "WORKING_HRS_STP": null}}, {"type": "Feature", "id": 58, "geometry": {"type": "Point", "coordinates": [72.87625100040898, 19.064807999603364]}, "properties": {"OBJECTID": 58, "NAME": "Kurla Railway Police Station", "TYPE": 1, "SUBTYPE": "Office", "LOCATION": null, "ELEVATOR_CONTACT_LIST": null, "ELEVATOR_INTERCOM": null, "WORKING_HRS": null, "EMPLOYEE_QTY": null, "EMPLOYEE_MALE": null, "EMPLOYEE_FEMALE": null, "EMPLOYEE_DIF_ABLE": null, "WORKING_HRS_STR": null, "WORKING_HRS_STP": null}}, {"type": "Feature", "id": 59, "geometry": null, "properties": {"OBJECTID": 59, "NAME": "(Duplicate) Tilak Nagar Police Station2", "TYPE": 1, "SUBTYPE": "Station", "LOCATION": "Building No. 117, Tilaknagar Colony, Santa JogMarg, Chembur, Mumbai - 400089. Bhagwat Shrawan Sonawane 9967457990tilaknagarpolicestation@gmail.com", "SHAPE": null, "ELEVATOR_CONTACT_LIST": null, "ELEVATOR_INTERCOM": null, "WORKING_HRS": null, "EMPLOYEE_QTY": null, "EMPLOYEE_MALE": null, "EMPLOYEE_FEMALE": null, "EMPLOYEE_DIF_ABLE": null, "WORKING_HRS_STR": null, "WORKING_HRS_STP": null}}, {"type": "Feature", "id": 60, "geometry": {"type": "Point", "coordinates": [72.92261987900416, 19.10601694619583]}, "properties": {"OBJECTID": 60, "NAME": "Police Station-2424430001072", "TYPE": 1, "SUBTYPE": "Station", "LOCATION": null, "ELEVATOR_CONTACT_LIST": null, "ELEVATOR_INTERCOM": null, "WORKING_HRS": null, "EMPLOYEE_QTY": null, "EMPLOYEE_MALE": null, "EMPLOYEE_FEMALE": null, "EMPLOYEE_DIF_ABLE": null, "WORKING_HRS_STR": null, "WORKING_HRS_STP": null}}, {"type": "Feature", "id": 61, "geometry": {"type": "Point", "coordinates": [72.9159320000694, 19.103022000181237]}, "properties": {"OBJECTID": 61, "NAME": "Police Station-2323790001073", "TYPE": 1, "SUBTYPE": "Station", "LOCATION": null, "ELEVATOR_CONTACT_LIST": null, "ELEVATOR_INTERCOM": null, "WORKING_HRS": null, "EMPLOYEE_QTY": null, "EMPLOYEE_MALE": null, "EMPLOYEE_FEMALE": null, "EMPLOYEE_DIF_ABLE": null, "WORKING_HRS_STR": null, "WORKING_HRS_STP": null}}, {"type": "Feature", "id": 63, "geometry": {"type": "Point", "coordinates": [72.89999551902498, 19.08741708124698]}, "properties": {"OBJECTID": 63, "NAME": "Ghatkopar Police Station", "TYPE": 1, "SUBTYPE": "Station", "LOCATION": "Chirag Nagar, L.B.S.Road, Ghatkopar (W),Mumbai-400086.  V. B. Patil 9702888891ghatkoparpstn@gmail.com", "ELEVATOR_CONTACT_LIST": null, "ELEVATOR_INTERCOM": null, "WORKING_HRS": null, "EMPLOYEE_QTY": null, "EMPLOYEE_MALE": null, "EMPLOYEE_FEMALE": null, "EMPLOYEE_DIF_ABLE": null, "WORKING_HRS_STR": null, "WORKING_HRS_STP": null}}, {"type": "Feature", "id": 64, "geometry": {"type": "Point", "coordinates": [72.93740890384363, 19.118761897649836]}, "properties": {"OBJECTID": 64, "NAME": "Vikhroli Police Station", "TYPE": 1, "SUBTYPE": "Station", "LOCATION": "Kannamwar Nagar 2, Near Vikas College, Vikhroli (E), Mumbai-83. Dinesh Manikrao Desai 9594059444  vikhrolipstn@gmail.com", "ELEVATOR_CONTACT_LIST": null, "ELEVATOR_INTERCOM": null, "WORKING_HRS": null, "EMPLOYEE_QTY": null, "EMPLOYEE_MALE": null, "EMPLOYEE_FEMALE": null, "EMPLOYEE_DIF_ABLE": null, "WORKING_HRS_STR": null, "WORKING_HRS_STP": null}}, {"type": "Feature", "id": 65, "geometry": {"type": "Point", "coordinates": [72.8434862083768, 19.183469283106696]}, "properties": {"OBJECTID": 65, "NAME": "Malad Police Station", "TYPE": 1, "SUBTYPE": "Station", "LOCATION": "Malad Police Station, Somvar Bazar, Underai Road, Malad (west), Near S V Road, Mumbai - 400064.  Shashank Sandbhor   9870157955\nmaladpolicestation@mtnl.net.in", "ELEVATOR_CONTACT_LIST": null, "ELEVATOR_INTERCOM": null, "WORKING_HRS": null, "EMPLOYEE_QTY": null, "EMPLOYEE_MALE": null, "EMPLOYEE_FEMALE": null, "EMPLOYEE_DIF_ABLE": null, "WORKING_HRS_STR": null, "WORKING_HRS_STP": null}}, {"type": "Feature", "id": 66, "geometry": {"type": "Point", "coordinates": [72.85933699986644, 19.185534999573953]}, "properties": {"OBJECTID": 66, "NAME": "Kurar Police Station", "TYPE": 1, "SUBTYPE": "Station", "LOCATION": "Shantaram Talao, Western Express Highway, Konkanipada, Malad (E), Mumbai-400097. Raghvendra Madanlal Thakur 9870236236 kurarpolicestation@mtnl.net.in", "ELEVATOR_CONTACT_LIST": null, "ELEVATOR_INTERCOM": null, "WORKING_HRS": null, "EMPLOYEE_QTY": null, "EMPLOYEE_MALE": null, "EMPLOYEE_FEMALE": null, "EMPLOYEE_DIF_ABLE": null, "WORKING_HRS_STR": null, "WORKING_HRS_STP": null}}, {"type": "Feature", "id": 67, "geometry": {"type": "Point", "coordinates": [72.8574023501641, 19.178704031819613]}, "properties": {"OBJECTID": 67, "NAME": "Dindoshi Police Station_Test", "TYPE": 1, "SUBTYPE": "Station", "LOCATION": "Vrindavan Society., Behind Saibaba Temple, NearWestern Exp. Highway, Malad (E), Mumbai- 400097. A.B.Sawant 9987333040dindoshipolicestation@mtnl.net.in", "ELEVATOR_CONTACT_LIST": null, "ELEVATOR_INTERCOM": null, "WORKING_HRS": null, "EMPLOYEE_QTY": null, "EMPLOYEE_MALE": null, "EMPLOYEE_FEMALE": null, "EMPLOYEE_DIF_ABLE": null, "WORKING_HRS_STR": null, "WORKING_HRS_STP": null}}, {"type": "Feature", "id": 69, "geometry": {"type": "Point", "coordinates": [72.82219699967419, 19.191672999919888]}, "properties": {"OBJECTID": 69, "NAME": "Malwani Police Station", "TYPE": 1, "SUBTYPE": "Station  ", "LOCATION": "Gate No.5, Shahid Abdul Hamid Marg, Malwani, Malad (W), Mumbai- 400095.  Milind Khetle 9821592487 malvanipolicestation@mtnl.net.in", "ELEVATOR_CONTACT_LIST": null, "ELEVATOR_INTERCOM": null, "WORKING_HRS": null, "EMPLOYEE_QTY": null, "EMPLOYEE_MALE": null, "EMPLOYEE_FEMALE": null, "EMPLOYEE_DIF_ABLE": null, "WORKING_HRS_STR": null, "WORKING_HRS_STP": null}}, {"type": "Feature", "id": 70, "geometry": {"type": "Point", "coordinates": [72.84481452446106, 19.183797714442232]}, "properties": {"OBJECTID": 70, "NAME": "Bangur Nagar Police Station", "TYPE": 1, "SUBTYPE": "Station", "LOCATION": "Malad Police Station Compound, Underai Road, Malad (W), Mumbai - 400064.  Santosh Dyaneshwar Bhandare 9870474901\nbangurnagarpolicestn@mtnl.net.in", "ELEVATOR_CONTACT_LIST": null, "ELEVATOR_INTERCOM": null, "WORKING_HRS": null, "EMPLOYEE_QTY": null, "EMPLOYEE_MALE": null, "EMPLOYEE_FEMALE": null, "EMPLOYEE_DIF_ABLE": null, "WORKING_HRS_STR": null, "WORKING_HRS_STP": null}}, {"type": "Feature", "id": 71, "geometry": {"type": "Point", "coordinates": [72.8457569995355, 19.15729000008011]}, "properties": {"OBJECTID": 71, "NAME": "Goregaon Police Station", "TYPE": 1, "SUBTYPE": "Station", "LOCATION": "S.V.Road, Near Cinemax Theatre, Goregaon\n(West), Mumbai - 400062.  Sunil Dattatray Wadke 9892097890 goregaonpolicestation@mtnl.net.in\ngoregaonpolice@gmail.com", "ELEVATOR_CONTACT_LIST": null, "ELEVATOR_INTERCOM": null, "WORKING_HRS": null, "EMPLOYEE_QTY": null, "EMPLOYEE_MALE": null, "EMPLOYEE_FEMALE": null, "EMPLOYEE_DIF_ABLE": null, "WORKING_HRS_STR": null, "WORKING_HRS_STP": null}}, {"type": "Feature", "id": 77, "geometry": {"type": "Point", "coordinates": [72.82067100044881, 19.21464299996129]}, "properties": {"OBJECTID": 77, "NAME": "Charkop Police Station", "TYPE": 1, "SUBTYPE": "Station", "LOCATION": "C.T.S. No. 03 A,Plot No.150, 152,153,155, R.D.P. 1, Netaji Subhashchandra Bose Marg, Charkop, Kandivali (w), Mumbai - 400067.  Ramchandra T. Gaikwad  9870241424 charkoppolicestation@mtnl.net.in", "ELEVATOR_CONTACT_LIST": null, "ELEVATOR_INTERCOM": null, "WORKING_HRS": null, "EMPLOYEE_QTY": null, "EMPLOYEE_MALE": null, "EMPLOYEE_FEMALE": null, "EMPLOYEE_DIF_ABLE": null, "WORKING_HRS_STR": null, "WORKING_HRS_STP": null}}, {"type": "Feature", "id": 79, "geometry": {"type": "Point", "coordinates": [72.85054800015844, 19.20966899958308]}, "properties": {"OBJECTID": 79, "NAME": "Kandivali Police Station", "TYPE": 1, "SUBTYPE": "Station", "LOCATION": "S.V.Road, Near M.T.N.L. Office, Parekh Nagar,\nKandivali (W), Mumbai-400067. Mukund Pawar 9870157825 kandivali police station@gmail.com\nkandivalipolicestation@mtnl.net.in", "ELEVATOR_CONTACT_LIST": null, "ELEVATOR_INTERCOM": null, "WORKING_HRS": null, "EMPLOYEE_QTY": null, "EMPLOYEE_MALE": null, "EMPLOYEE_FEMALE": null, "EMPLOYEE_DIF_ABLE": null, "WORKING_HRS_STR": null, "WORKING_HRS_STP": null}}, {"type": "Feature", "id": 80, "geometry": {"type": "Point", "coordinates": [72.86152599994354, 19.199926000224696]}, "properties": {"OBJECTID": 80, "NAME": "Samata Nagar Police Station", "TYPE": 1, "SUBTYPE": "Office  ", "LOCATION": "P T College Junction, Kandivali(W), \nMumbai-400101.  L.C.Bhalerao 9870464754   acpsamatanagar@mtnl.net.in  D.S.Yadav  9821458322  samtanagarpolicestation@mtnl.net.in", "ELEVATOR_CONTACT_LIST": null, "ELEVATOR_INTERCOM": null, "WORKING_HRS": null, "EMPLOYEE_QTY": null, "EMPLOYEE_MALE": null, "EMPLOYEE_FEMALE": null, "EMPLOYEE_DIF_ABLE": null, "WORKING_HRS_STR": null, "WORKING_HRS_STP": null}}, {"type": "Feature", "id": 81, "geometry": {"type": "Point", "coordinates": [72.9365402659147, 19.15128519759274]}, "properties": {"OBJECTID": 81, "NAME": "Bhandup Police Station", "TYPE": 1, "SUBTYPE": "Station", "LOCATION": "Near Krishna Theatre, L. B. S. Marg, Bhandup (W), Mumbai - 400078. Shripat Kale   9870333434\nbhanduppstn@gmail.com", "ELEVATOR_CONTACT_LIST": null, "ELEVATOR_INTERCOM": null, "WORKING_HRS": null, "EMPLOYEE_QTY": null, "EMPLOYEE_MALE": null, "EMPLOYEE_FEMALE": null, "EMPLOYEE_DIF_ABLE": null, "WORKING_HRS_STR": null, "WORKING_HRS_STP": null}}, {"type": "Feature", "id": 86, "geometry": {"type": "Point", "coordinates": [72.94822699968027, 19.16478900011177]}, "properties": {"OBJECTID": 86, "NAME": "Ashok Nagar Police Outpost", "TYPE": 1, "SUBTYPE": "Station", "LOCATION": "Ashoknagar Police Outpost\nMulund West", "ELEVATOR_CONTACT_LIST": null, "ELEVATOR_INTERCOM": null, "WORKING_HRS": null, "EMPLOYEE_QTY": null, "EMPLOYEE_MALE": null, "EMPLOYEE_FEMALE": null, "EMPLOYEE_DIF_ABLE": null, "WORKING_HRS_STR": null, "WORKING_HRS_STP": null}}, {"type": "Feature", "id": 88, "geometry": {"type": "Point", "coordinates": [72.96843043087846, 19.169092255080567]}, "properties": {"OBJECTID": 88, "NAME": "Mulund (E) Navghar Police station", "TYPE": 1, "SUBTYPE": "Station", "LOCATION": "Navghar Police Station, Mhada Colony, Mulund (E) Mumbai.  400080", "ELEVATOR_CONTACT_LIST": null, "ELEVATOR_INTERCOM": null, "WORKING_HRS": "Yes", "EMPLOYEE_QTY": null, "EMPLOYEE_MALE": null, "EMPLOYEE_FEMALE": null, "EMPLOYEE_DIF_ABLE": null, "WORKING_HRS_STR": null, "WORKING_HRS_STP": null}}, {"type": "Feature", "id": 89, "geometry": {"type": "Point", "coordinates": [72.83523400045995, 18.945922999812375]}, "properties": {"OBJECTID": 89, "NAME": "M R A Police Satation", "TYPE": 1, "SUBTYPE": "Station", "LOCATION": "Mata Ramabai Ambedkar Marg, Near Haj House, Mumbai - 400001.", "ELEVATOR_CONTACT_LIST": null, "ELEVATOR_INTERCOM": null, "WORKING_HRS": null, "EMPLOYEE_QTY": null, "EMPLOYEE_MALE": null, "EMPLOYEE_FEMALE": null, "EMPLOYEE_DIF_ABLE": null, "WORKING_HRS_STR": null, "WORKING_HRS_STP": null}}, {"type": "Feature", "id": 90, "geometry": {"type": "Point", "coordinates": [72.83320658464991, 18.941483884525873]}, "properties": {"OBJECTID": 90, "NAME": "Azad Maidan Police Station", "TYPE": 1, "SUBTYPE": "Station", "LOCATION": "Esplaned Bldg., Gr. Floor, Mahapalika Marg, Near BMC Head Office, Mumbai - 400001. ", "ELEVATOR_CONTACT_LIST": null, "ELEVATOR_INTERCOM": null, "WORKING_HRS": null, "EMPLOYEE_QTY": null, "EMPLOYEE_MALE": null, "EMPLOYEE_FEMALE": null, "EMPLOYEE_DIF_ABLE": null, "WORKING_HRS_STR": null, "WORKING_HRS_STP": null}}, {"type": "Feature", "id": 91, "geometry": {"type": "Point", "coordinates": [72.82465399996639, 18.930164000419456]}, "properties": {"OBJECTID": 91, "NAME": "Marine Drive Police Station", "TYPE": 1, "SUBTYPE": "Station", "LOCATION": "Dinshaw Vaccha Road, Behind Yashodhan Bldg. In front of C.C.I. Club, Mumbai-400020.  ", "ELEVATOR_CONTACT_LIST": null, "ELEVATOR_INTERCOM": null, "WORKING_HRS": null, "EMPLOYEE_QTY": null, "EMPLOYEE_MALE": null, "EMPLOYEE_FEMALE": null, "EMPLOYEE_DIF_ABLE": null, "WORKING_HRS_STR": null, "WORKING_HRS_STP": null}}, {"type": "Feature", "id": 92, "geometry": {"type": "Point", "coordinates": [72.83107799958664, 18.92238799964299]}, "properties": {"OBJECTID": 92, "NAME": "Colaba Police Station", "TYPE": 1, "SUBTYPE": "Station", "LOCATION": "Near Electric House, Shahid Bhagat Singh Road,Colaba, Mumbai-400005. ", "ELEVATOR_CONTACT_LIST": null, "ELEVATOR_INTERCOM": null, "WORKING_HRS": null, "EMPLOYEE_QTY": null, "EMPLOYEE_MALE": null, "EMPLOYEE_FEMALE": null, "EMPLOYEE_DIF_ABLE": null, "WORKING_HRS_STR": null, "WORKING_HRS_STP": null}}, {"type": "Feature", "id": 93, "geometry": {"type": "Point", "coordinates": [72.81893637149466, 18.91195215981563]}, "properties": {"OBJECTID": 93, "NAME": "Cuffe Parade Police Station", "TYPE": 1, "SUBTYPE": "Station", "LOCATION": "Sadhu T. L. Waswani Marg, Near World Trade Center, Babasaheb Ambedkar Nagar, Cuffe Parade, Mumbai - 400005. ", "ELEVATOR_CONTACT_LIST": null, "ELEVATOR_INTERCOM": null, "WORKING_HRS": null, "EMPLOYEE_QTY": null, "EMPLOYEE_MALE": null, "EMPLOYEE_FEMALE": null, "EMPLOYEE_DIF_ABLE": null, "WORKING_HRS_STR": null, "WORKING_HRS_STP": null}}, {"type": "Feature", "id": 94, "geometry": {"type": "Point", "coordinates": [72.83342000014643, 18.925151999693114]}, "properties": {"OBJECTID": 94, "NAME": "Maharashtra State Police Headquarters", "TYPE": 2, "SUBTYPE": "Office", "LOCATION": "Maharashtra Police Mukhyalaya, Chhatrapati Shivaji Maharaj Marg, Colaba, Mumbai - 400001.", "ELEVATOR_CONTACT_LIST": null, "ELEVATOR_INTERCOM": null, "WORKING_HRS": null, "EMPLOYEE_QTY": null, "EMPLOYEE_MALE": null, "EMPLOYEE_FEMALE": null, "EMPLOYEE_DIF_ABLE": null, "WORKING_HRS_STR": null, "WORKING_HRS_STP": null}}, {"type": "Feature", "id": 96, "geometry": {"type": "Point", "coordinates": [72.83831517211225, 18.937116923186007]}, "properties": {"OBJECTID": 96, "NAME": "Additional Commissioner of Police (P & S)", "TYPE": 1, "SUBTYPE": "Station", "LOCATION": "Moghal Building, 25, Vaju Kotak Marg, Ballard Estate, Fort. Mumbai 400001", "ELEVATOR_CONTACT_LIST": null, "ELEVATOR_INTERCOM": null, "WORKING_HRS": null, "EMPLOYEE_QTY": null, "EMPLOYEE_MALE": null, "EMPLOYEE_FEMALE": null, "EMPLOYEE_DIF_ABLE": null, "WORKING_HRS_STR": null, "WORKING_HRS_STP": null}}, {"type": "Feature", "id": 97, "geometry": {"type": "Point", "coordinates": [72.83592200016179, 18.938305000082188]}, "properties": {"OBJECTID": 97, "NAME": "Deputy Commissioner of Police DCP Z-I", "TYPE": 1, "SUBTYPE": "Office", "LOCATION": "109, Valchand Hirachand Marg, 1st Floor, Opp. G.P.O., Fort, Mumbai 400001.  Dr. Ravindra A.Shisave 9423121011 dcpzone1-mum@mahapolice.gov.in\n", "ELEVATOR_CONTACT_LIST": null, "ELEVATOR_INTERCOM": null, "WORKING_HRS": null, "EMPLOYEE_QTY": null, "EMPLOYEE_MALE": null, "EMPLOYEE_FEMALE": null, "EMPLOYEE_DIF_ABLE": null, "WORKING_HRS_STR": null, "WORKING_HRS_STP": null}}, {"type": "Feature", "id": 99, "geometry": {"type": "Point", "coordinates": [72.83903801915983, 18.9621805827704]}, "properties": {"OBJECTID": 99, "NAME": "Dongri Police Station", "TYPE": 1, "SUBTYPE": "Station", "LOCATION": "Dr. Maheshwari Road, Near Sandhurst\n Road Railway Station, Dongri, Mumbai - 400009. ", "ELEVATOR_CONTACT_LIST": null, "ELEVATOR_INTERCOM": null, "WORKING_HRS": null, "EMPLOYEE_QTY": null, "EMPLOYEE_MALE": null, "EMPLOYEE_FEMALE": null, "EMPLOYEE_DIF_ABLE": null, "WORKING_HRS_STR": null, "WORKING_HRS_STP": null}}, {"type": "Feature", "id": 100, "geometry": {"type": "Point", "coordinates": [72.83232400037703, 18.9629509999647]}, "properties": {"OBJECTID": 100, "NAME": "J J Marg Police Station", "TYPE": 1, "SUBTYPE": "Station", "LOCATION": "Sir J.J. Hospital Compound, Sir J. J. Road, Byculla, Mumbai - 400008. ", "ELEVATOR_CONTACT_LIST": null, "ELEVATOR_INTERCOM": null, "WORKING_HRS": null, "EMPLOYEE_QTY": null, "EMPLOYEE_MALE": null, "EMPLOYEE_FEMALE": null, "EMPLOYEE_DIF_ABLE": null, "WORKING_HRS_STR": null, "WORKING_HRS_STP": null}}, {"type": "Feature", "id": 101, "geometry": {"type": "Point", "coordinates": [72.83194299963588, 18.954067000010333]}, "properties": {"OBJECTID": 101, "NAME": "Pydhonie Police Station", "TYPE": 1, "SUBTYPE": "Station", "LOCATION": "Ibrahim Rahmatullah Road, Opp Hamidiya Masjid, Mumbadevi Area, Mumbai - 400003. ", "ELEVATOR_CONTACT_LIST": null, "ELEVATOR_INTERCOM": null, "WORKING_HRS": null, "EMPLOYEE_QTY": null, "EMPLOYEE_MALE": null, "EMPLOYEE_FEMALE": null, "EMPLOYEE_DIF_ABLE": null, "WORKING_HRS_STR": null, "WORKING_HRS_STP": null}}, {"type": "Feature", "id": 102, "geometry": {"type": "Point", "coordinates": [72.84102886286696, 18.948233857989564]}, "properties": {"OBJECTID": 102, "NAME": "Yellow Gate Police Station", "TYPE": 1, "SUBTYPE": "Station", "LOCATION": "P. D. Mello Road, Near Karnak Bunder, Mumbai-400009.", "ELEVATOR_CONTACT_LIST": null, "ELEVATOR_INTERCOM": null, "WORKING_HRS": "Yes", "EMPLOYEE_QTY": null, "EMPLOYEE_MALE": null, "EMPLOYEE_FEMALE": null, "EMPLOYEE_DIF_ABLE": null, "WORKING_HRS_STR": null, "WORKING_HRS_STP": null}}, {"type": "Feature", "id": 103, "geometry": {"type": "Point", "coordinates": [72.84225500026295, 18.95719100037704]}, "properties": {"OBJECTID": 103, "NAME": "Mandvi Police Station", "TYPE": 1, "SUBTYPE": "Station", "LOCATION": "Frere Road, Dana Bandar, Mandvi, Mumbai - 400009.", "ELEVATOR_CONTACT_LIST": null, "ELEVATOR_INTERCOM": null, "WORKING_HRS": null, "EMPLOYEE_QTY": null, "EMPLOYEE_MALE": null, "EMPLOYEE_FEMALE": null, "EMPLOYEE_DIF_ABLE": null, "WORKING_HRS_STR": null, "WORKING_HRS_STP": null}}, {"type": "Feature", "id": 104, "geometry": {"type": "Point", "coordinates": [72.83050522153162, 18.94534422920033]}, "properties": {"OBJECTID": 104, "NAME": "L T Marg Police Station", "TYPE": 1, "SUBTYPE": "Station", "LOCATION": "27, R Champsi Road, Takwadi, Lohar Chawl, Nr Small Causes Court, Mumbai - 400002.", "ELEVATOR_CONTACT_LIST": null, "ELEVATOR_INTERCOM": null, "WORKING_HRS": null, "EMPLOYEE_QTY": null, "EMPLOYEE_MALE": null, "EMPLOYEE_FEMALE": null, "EMPLOYEE_DIF_ABLE": null, "WORKING_HRS_STR": null, "WORKING_HRS_STP": null}}, {"type": "Feature", "id": 106, "geometry": {"type": "Point", "coordinates": [72.89376671861949, 19.051546725181705]}, "properties": {"OBJECTID": 106, "NAME": "Chembur Police Station", "TYPE": 1, "SUBTYPE": "Station", "LOCATION": "Opp.Basant Park Society, R.C. Marg, Chembur, Mumbai-400071. S.G.Dal 9821891680chemburpolicestation@gmail.com", "ELEVATOR_CONTACT_LIST": null, "ELEVATOR_INTERCOM": null, "WORKING_HRS": null, "EMPLOYEE_QTY": null, "EMPLOYEE_MALE": null, "EMPLOYEE_FEMALE": null, "EMPLOYEE_DIF_ABLE": null, "WORKING_HRS_STR": null, "WORKING_HRS_STP": null}}, {"type": "Feature", "id": 107, "geometry": {"type": "Point", "coordinates": [72.87177999990415, 19.162740999965994]}, "properties": {"OBJECTID": 107, "NAME": "Aarey Police Station", "TYPE": 1, "SUBTYPE": "Station", "LOCATION": "Near O.P.Garden, Dinkarrao Desai Marg, Aaery Colony, Near Chotta Kashmir Boating Club,Goregaon (E), Mumbai - 400065.Vilas Shrikant Chavan aareysubpolicestation@mtnl.net.in\naareypolicestation@gmail.com", "ELEVATOR_CONTACT_LIST": null, "ELEVATOR_INTERCOM": null, "WORKING_HRS": null, "EMPLOYEE_QTY": null, "EMPLOYEE_MALE": null, "EMPLOYEE_FEMALE": null, "EMPLOYEE_DIF_ABLE": null, "WORKING_HRS_STR": null, "WORKING_HRS_STP": null}}, {"type": "Feature", "id": 108, "geometry": {"type": "Point", "coordinates": [72.83544517918028, 19.014955602675492]}, "properties": {"OBJECTID": 108, "NAME": "Dadar Police Station", "TYPE": 1, "SUBTYPE": "Station", "LOCATION": "5, Bhavani Shankar Road, Matkar Marg, Dadar (W), Mumbai-28.", "ELEVATOR_CONTACT_LIST": null, "ELEVATOR_INTERCOM": null, "WORKING_HRS": null, "EMPLOYEE_QTY": null, "EMPLOYEE_MALE": null, "EMPLOYEE_FEMALE": null, "EMPLOYEE_DIF_ABLE": null, "WORKING_HRS_STR": null, "WORKING_HRS_STP": null}}, {"type": "Feature", "id": 110, "geometry": {"type": "Point", "coordinates": [72.81241600014454, 18.960472000017276]}, "properties": {"OBJECTID": 110, "NAME": "Gaondevi Police Station", "TYPE": 1, "SUBTYPE": "Station", "LOCATION": "7, Pandita Ramabai Marg, Papanas Wadi, Gaondevi,  Mumbai -400007. ", "ELEVATOR_CONTACT_LIST": null, "ELEVATOR_INTERCOM": null, "WORKING_HRS": null, "EMPLOYEE_QTY": null, "EMPLOYEE_MALE": null, "EMPLOYEE_FEMALE": null, "EMPLOYEE_DIF_ABLE": null, "WORKING_HRS_STR": null, "WORKING_HRS_STP": null}}, {"type": "Feature", "id": 112, "geometry": {"type": "Point", "coordinates": [72.79925883117615, 18.949414643874885]}, "properties": {"OBJECTID": 112, "NAME": "Malbar Hill Police Station", "TYPE": 1, "SUBTYPE": "Station", "LOCATION": "Malbar Hill Police Station, Abhay Bunglow, B.G. Khair Marg, Malbar Hill, Mumbai-400006.", "ELEVATOR_CONTACT_LIST": null, "ELEVATOR_INTERCOM": null, "WORKING_HRS": null, "EMPLOYEE_QTY": null, "EMPLOYEE_MALE": null, "EMPLOYEE_FEMALE": null, "EMPLOYEE_DIF_ABLE": null, "WORKING_HRS_STR": null, "WORKING_HRS_STP": null}}, {"type": "Feature", "id": 113, "geometry": {"type": "Point", "coordinates": [72.82921004672497, 18.967052713765735]}, "properties": {"OBJECTID": 113, "NAME": "Nagpada Police Station", "TYPE": 1, "SUBTYPE": "Station", "LOCATION": "Sofia Zuber Road, Chhota Sonapur, Kamathipura, Mumbai - 400008.", "ELEVATOR_CONTACT_LIST": null, "ELEVATOR_INTERCOM": null, "WORKING_HRS": null, "EMPLOYEE_QTY": null, "EMPLOYEE_MALE": null, "EMPLOYEE_FEMALE": null, "EMPLOYEE_DIF_ABLE": null, "WORKING_HRS_STR": null, "WORKING_HRS_STP": null}}, {"type": "Feature", "id": 115, "geometry": {"type": "Point", "coordinates": [72.82375067285778, 18.95582836983555]}, "properties": {"OBJECTID": 115, "NAME": "V P Road Police Station", "TYPE": 1, "SUBTYPE": "Station", "LOCATION": "Vitthalbhai Patel Road, Near Church, Ambewadi, Girgaon, Mumbai-400004.", "ELEVATOR_CONTACT_LIST": null, "ELEVATOR_INTERCOM": null, "WORKING_HRS": null, "EMPLOYEE_QTY": null, "EMPLOYEE_MALE": null, "EMPLOYEE_FEMALE": null, "EMPLOYEE_DIF_ABLE": null, "WORKING_HRS_STR": null, "WORKING_HRS_STP": null}}, {"type": "Feature", "id": 119, "geometry": {"type": "Point", "coordinates": [72.83406207334959, 18.973542861164606]}, "properties": {"OBJECTID": 119, "NAME": "Byculla Police Station", "TYPE": 1, "SUBTYPE": "Station", "LOCATION": "16, Hansraj Lane, Near Moti Shah Jain Temple, Byculla (E), Mumbai-400027. ", "ELEVATOR_CONTACT_LIST": null, "ELEVATOR_INTERCOM": null, "WORKING_HRS": null, "EMPLOYEE_QTY": null, "EMPLOYEE_MALE": null, "EMPLOYEE_FEMALE": null, "EMPLOYEE_DIF_ABLE": null, "WORKING_HRS_STR": null, "WORKING_HRS_STP": null}}, {"type": "Feature", "id": 120, "geometry": {"type": "Point", "coordinates": [72.8241729997166, 18.976616000381345]}, "properties": {"OBJECTID": 120, "NAME": "Agripada Police Station", "TYPE": 1, "SUBTYPE": "Station", "LOCATION": "Agripada Police Station, Dr. Nair \nRoad, Agripada, Mumbai-400011.   ", "ELEVATOR_CONTACT_LIST": null, "ELEVATOR_INTERCOM": null, "WORKING_HRS": null, "EMPLOYEE_QTY": null, "EMPLOYEE_MALE": null, "EMPLOYEE_FEMALE": null, "EMPLOYEE_DIF_ABLE": null, "WORKING_HRS_STR": null, "WORKING_HRS_STP": null}}, {"type": "Feature", "id": 121, "geometry": null, "properties": {"OBJECTID": 121, "NAME": "Govandi Police Station", "TYPE": 1, "SUBTYPE": "Station", "LOCATION": "CTS No. 373/5, HP Petrol Pump Lane, Near Raheja Acropolis-II, Off V.N Purav Marg, Deonar, Mumbai - 400088.  Uttam Kolekar 9821629922  srpigovandi@gmail.com", "SHAPE": null, "ELEVATOR_CONTACT_LIST": null, "ELEVATOR_INTERCOM": null, "WORKING_HRS": null, "EMPLOYEE_QTY": null, "EMPLOYEE_MALE": null, "EMPLOYEE_FEMALE": null, "EMPLOYEE_DIF_ABLE": null, "WORKING_HRS_STR": null, "WORKING_HRS_STP": null}}, {"type": "Feature", "id": 122, "geometry": {"type": "Point", "coordinates": [72.92413555875659, 19.11763109733543]}, "properties": {"OBJECTID": 122, "NAME": "Parksite Police Station", "TYPE": 1, "SUBTYPE": "Station", "LOCATION": "Ahilayabai Holkar Marg, Surya Nagar, Vikhroli (W), Mumbai - 400083. Rajendra L. Kulkarni 9773061400  parksitepstn@gmail.com", "ELEVATOR_CONTACT_LIST": null, "ELEVATOR_INTERCOM": null, "WORKING_HRS": null, "EMPLOYEE_QTY": null, "EMPLOYEE_MALE": null, "EMPLOYEE_FEMALE": null, "EMPLOYEE_DIF_ABLE": null, "WORKING_HRS_STR": null, "WORKING_HRS_STP": null}}, {"type": "Feature", "id": 123, "geometry": {"type": "Point", "coordinates": [72.85592441758962, 19.229114191659388]}, "properties": {"OBJECTID": 123, "NAME": "Borivali Police Station", "TYPE": 1, "SUBTYPE": "Station", "LOCATION": "Opp.Borivali Railway Station, S. V. Road, Borivali (W), Mumbai - 400066. Gunaji Sawant  9821334681\nborivalipolicestation@mtnl.net.in", "ELEVATOR_CONTACT_LIST": null, "ELEVATOR_INTERCOM": null, "WORKING_HRS": null, "EMPLOYEE_QTY": null, "EMPLOYEE_MALE": null, "EMPLOYEE_FEMALE": null, "EMPLOYEE_DIF_ABLE": null, "WORKING_HRS_STR": null, "WORKING_HRS_STP": null}}, {"type": "Feature", "id": 124, "geometry": {"type": "Point", "coordinates": [72.8727348279646, 19.05640105449994]}, "properties": {"OBJECTID": 124, "NAME": "Chunabhatti Police Station", "TYPE": 1, "SUBTYPE": "Station", "LOCATION": "D/1, Building, Devratna Nagar, Swadeshi Mill Road, Sion, Chunnabhatti, Mumbai-400022.  Dattatray Tukaram Naikodi   9870232128chunabhattipsI@gmail.com", "ELEVATOR_CONTACT_LIST": null, "ELEVATOR_INTERCOM": null, "WORKING_HRS": null, "EMPLOYEE_QTY": null, "EMPLOYEE_MALE": null, "EMPLOYEE_FEMALE": null, "EMPLOYEE_DIF_ABLE": null, "WORKING_HRS_STR": null, "WORKING_HRS_STP": null}}, {"type": "Feature", "id": 126, "geometry": {"type": "Point", "coordinates": [72.83280460514608, 19.10317196322113]}, "properties": {"OBJECTID": 126, "NAME": "Juhu Police Station", "TYPE": 1, "SUBTYPE": "Station", "LOCATION": "V.M.Road, Near Kalaniketan, Yamuna Nagar, Juhu, Vile Parle (W), Mumbai-400056.  ", "ELEVATOR_CONTACT_LIST": null, "ELEVATOR_INTERCOM": null, "WORKING_HRS": null, "EMPLOYEE_QTY": null, "EMPLOYEE_MALE": null, "EMPLOYEE_FEMALE": null, "EMPLOYEE_DIF_ABLE": null, "WORKING_HRS_STR": null, "WORKING_HRS_STP": null}}, {"type": "Feature", "id": 127, "geometry": {"type": "Point", "coordinates": [72.93735733760106, 19.13012210072284]}, "properties": {"OBJECTID": 127, "NAME": "Kanjur Marg Police Station", "TYPE": 1, "SUBTYPE": "Station", "LOCATION": "Nehru Nagar, Near Pariwar Co-Opp. Housing Socity,kanjur marg East, \nMumbai - 400042. A.L Satpute   9821898799\nkanjurmargpstn@gmail.com", "ELEVATOR_CONTACT_LIST": null, "ELEVATOR_INTERCOM": null, "WORKING_HRS": null, "EMPLOYEE_QTY": null, "EMPLOYEE_MALE": null, "EMPLOYEE_FEMALE": null, "EMPLOYEE_DIF_ABLE": null, "WORKING_HRS_STR": null, "WORKING_HRS_STP": null}}, {"type": "Feature", "id": 128, "geometry": {"type": "Point", "coordinates": [72.86107878633341, 19.131490760910754]}, "properties": {"OBJECTID": 128, "NAME": "Meghwadi Police Station", "TYPE": 1, "SUBTYPE": "Station", "LOCATION": "Income Tax Colony, R R Thakur Road, Jogeshwari East, Mumbai- 400060. A.Vastrad 9867251988 acpmeghwadi@mtnl.net.in  Vinod V. Shinde 9821239102 meghwadipolicestation@mtnl.net.in", "ELEVATOR_CONTACT_LIST": null, "ELEVATOR_INTERCOM": null, "WORKING_HRS": null, "EMPLOYEE_QTY": null, "EMPLOYEE_MALE": null, "EMPLOYEE_FEMALE": null, "EMPLOYEE_DIF_ABLE": null, "WORKING_HRS_STR": null, "WORKING_HRS_STP": null}}, {"type": "Feature", "id": 129, "geometry": {"type": "Point", "coordinates": [72.88064662145982, 19.058737226542178]}, "properties": {"OBJECTID": 129, "NAME": "Nehru Nagar Police Station", "TYPE": 1, "SUBTYPE": "Station", "LOCATION": "Nehru Nagar Colony, Kurla (E), Mumbai - 400024.  Pramod Khoparde   9821624266neharunagar1985@gmail.com", "ELEVATOR_CONTACT_LIST": null, "ELEVATOR_INTERCOM": null, "WORKING_HRS": null, "EMPLOYEE_QTY": null, "EMPLOYEE_MALE": null, "EMPLOYEE_FEMALE": null, "EMPLOYEE_DIF_ABLE": null, "WORKING_HRS_STR": null, "WORKING_HRS_STP": null}}, {"type": "Feature", "id": 130, "geometry": {"type": "Point", "coordinates": [72.91633999545293, 19.087191025281456]}, "properties": {"OBJECTID": 130, "NAME": "Pant Nagar Police Station", "TYPE": 1, "SUBTYPE": "Station", "LOCATION": "B.N.72, Gr. Floor, Swamy Samarth Ramdas Road. Pant Nagar, Ghatkopar (E), Mumbai-400075.  Shankar Anandrao Dhanavade   9870148622pantnagarpstn@gmail.com", "ELEVATOR_CONTACT_LIST": null, "ELEVATOR_INTERCOM": null, "WORKING_HRS": null, "EMPLOYEE_QTY": null, "EMPLOYEE_MALE": null, "EMPLOYEE_FEMALE": null, "EMPLOYEE_DIF_ABLE": null, "WORKING_HRS_STR": null, "WORKING_HRS_STP": null}}, {"type": "Feature", "id": 132, "geometry": null, "properties": {"OBJECTID": 132, "NAME": "Shivaji Nagar Police Station", "TYPE": 1, "SUBTYPE": "Station", "LOCATION": "Near Dnyansampada High School, Behind Post Office, Govandi, Mumbai - 400043. Balasaheb Jadhav  9821525255 shivajinagarpolicestation@mtnl.net.in", "SHAPE": null, "ELEVATOR_CONTACT_LIST": null, "ELEVATOR_INTERCOM": null, "WORKING_HRS": null, "EMPLOYEE_QTY": null, "EMPLOYEE_MALE": null, "EMPLOYEE_FEMALE": null, "EMPLOYEE_DIF_ABLE": null, "WORKING_HRS_STR": null, "WORKING_HRS_STP": null}}, {"type": "Feature", "id": 134, "geometry": {"type": "Point", "coordinates": [72.8762344184699, 19.064944925103497]}, "properties": {"OBJECTID": 134, "NAME": "Kurla Police Station", "TYPE": 1, "SUBTYPE": "Station", "LOCATION": "CST Road, Satejeevan Society, Kurla West", "ELEVATOR_CONTACT_LIST": null, "ELEVATOR_INTERCOM": null, "WORKING_HRS": null, "EMPLOYEE_QTY": null, "EMPLOYEE_MALE": null, "EMPLOYEE_FEMALE": null, "EMPLOYEE_DIF_ABLE": null, "WORKING_HRS_STR": null, "WORKING_HRS_STP": null}}, {"type": "Feature", "id": 136, "geometry": {"type": "Point", "coordinates": [72.8840989968467, 19.053862494950305]}, "properties": {"OBJECTID": 136, "NAME": "Chembur Traffice Division", "TYPE": 1, "SUBTYPE": "Traffic Chowki", "LOCATION": "Near Vijay Sales, Sumannagar, Chembur, Mumbai -74", "ELEVATOR_CONTACT_LIST": null, "ELEVATOR_INTERCOM": null, "WORKING_HRS": null, "EMPLOYEE_QTY": null, "EMPLOYEE_MALE": null, "EMPLOYEE_FEMALE": null, "EMPLOYEE_DIF_ABLE": null, "WORKING_HRS_STR": null, "WORKING_HRS_STP": null}}, {"type": "Feature", "id": 138, "geometry": {"type": "Point", "coordinates": [72.8297873040385, 19.122193682687413]}, "properties": {"OBJECTID": 138, "NAME": "D N Nagar Police Station", "TYPE": 1, "SUBTYPE": "Station", "LOCATION": "New Link Road, Shiv Nagar, D N Nagar, Andheri (W) Mumbai 400058.", "ELEVATOR_CONTACT_LIST": null, "ELEVATOR_INTERCOM": null, "WORKING_HRS": null, "EMPLOYEE_QTY": null, "EMPLOYEE_MALE": null, "EMPLOYEE_FEMALE": null, "EMPLOYEE_DIF_ABLE": null, "WORKING_HRS_STR": null, "WORKING_HRS_STP": null}}, {"type": "Feature", "id": 141, "geometry": {"type": "Point", "coordinates": [72.89947518253868, 19.11970438700916]}, "properties": {"OBJECTID": 141, "NAME": "Powai Police Station", "TYPE": 1, "SUBTYPE": "Station  ", "LOCATION": "Rambaug Junction, A.D. Marg, Powai, Mumbai - 400072.  B.K.Mahadeshwar  9594376376\npowaipolicestation@mtnl.net.in", "ELEVATOR_CONTACT_LIST": null, "ELEVATOR_INTERCOM": null, "WORKING_HRS": null, "EMPLOYEE_QTY": null, "EMPLOYEE_MALE": null, "EMPLOYEE_FEMALE": null, "EMPLOYEE_DIF_ABLE": null, "WORKING_HRS_STR": null, "WORKING_HRS_STP": null}}, {"type": "Feature", "id": 142, "geometry": null, "properties": {"OBJECTID": 142, "NAME": "Deonar Police Station", "TYPE": 1, "SUBTYPE": "Station", "LOCATION": "Behind Deonar Slaughter House, Govandi, Mumbai-400043. Dhanraj.S.Gaikwad 9769908904deonarpolicestation@mtnl.net.in", "SHAPE": null, "ELEVATOR_CONTACT_LIST": null, "ELEVATOR_INTERCOM": null, "WORKING_HRS": null, "EMPLOYEE_QTY": null, "EMPLOYEE_MALE": null, "EMPLOYEE_FEMALE": null, "EMPLOYEE_DIF_ABLE": null, "WORKING_HRS_STR": null, "WORKING_HRS_STP": null}}, {"type": "Feature", "id": 143, "geometry": null, "properties": {"OBJECTID": 143, "NAME": "Trombay Police Station", "TYPE": 1, "SUBTYPE": "Station", "LOCATION": "Cheeta Camp, Sion-Trombay Road,Mumbai -400088. Nitin Vinayak Yadav trombaypolicestation@gmail.com", "SHAPE": null, "ELEVATOR_CONTACT_LIST": null, "ELEVATOR_INTERCOM": null, "WORKING_HRS": null, "EMPLOYEE_QTY": null, "EMPLOYEE_MALE": null, "EMPLOYEE_FEMALE": null, "EMPLOYEE_DIF_ABLE": null, "WORKING_HRS_STR": null, "WORKING_HRS_STP": null}}, {"type": "Feature", "id": 144, "geometry": null, "properties": {"OBJECTID": 144, "NAME": "Mankhurd Police Station", "TYPE": 1, "SUBTYPE": "Station", "LOCATION": "Bld.No.7/A, Lallubhai Compound, Mankhurd, Mumbai - 400043.  Nasor A.H.Shaikh 9320091966mankhurdpolicestation@mtnl.net.in", "SHAPE": null, "ELEVATOR_CONTACT_LIST": null, "ELEVATOR_INTERCOM": null, "WORKING_HRS": null, "EMPLOYEE_QTY": null, "EMPLOYEE_MALE": null, "EMPLOYEE_FEMALE": null, "EMPLOYEE_DIF_ABLE": null, "WORKING_HRS_STR": null, "WORKING_HRS_STP": null}}, {"type": "Feature", "id": 145, "geometry": {"type": "Point", "coordinates": [72.90696699966071, 19.045598999836976]}, "properties": {"OBJECTID": 145, "NAME": "C G Road Police Station", "TYPE": 1, "SUBTYPE": "Station", "LOCATION": "Police Station, Dr Choitram Gidwani Road, Chembur, Mumbai,", "ELEVATOR_CONTACT_LIST": null, "ELEVATOR_INTERCOM": null, "WORKING_HRS": null, "EMPLOYEE_QTY": null, "EMPLOYEE_MALE": null, "EMPLOYEE_FEMALE": null, "EMPLOYEE_DIF_ABLE": null, "WORKING_HRS_STR": null, "WORKING_HRS_STP": null}}, {"type": "Feature", "id": 146, "geometry": {"type": "Point", "coordinates": [72.90867600022901, 19.01922799986318]}, "properties": {"OBJECTID": 146, "NAME": "Gowanpada Police Station", "TYPE": 1, "SUBTYPE": "Station", "LOCATION": "Prayag Nagar, Mahul, Trombay, Mumbai, Maharashtra 400071", "ELEVATOR_CONTACT_LIST": null, "ELEVATOR_INTERCOM": null, "WORKING_HRS": null, "EMPLOYEE_QTY": null, "EMPLOYEE_MALE": null, "EMPLOYEE_FEMALE": null, "EMPLOYEE_DIF_ABLE": null, "WORKING_HRS_STR": null, "WORKING_HRS_STP": null}}, {"type": "Feature", "id": 147, "geometry": null, "properties": {"OBJECTID": 147, "NAME": "R C F Police Station", "TYPE": 1, "SUBTYPE": "Station", "LOCATION": "Survey No 12 B, 13 B, CTS No 213,215, 216, Rc Marg,  Hemu Kalani Marg, Sindhi Society, Chembur, Mumbai 400074.  Dilip Vishnu Raut 9870204020 rcfpolicestation@mtnl.net.in", "SHAPE": null, "ELEVATOR_CONTACT_LIST": null, "ELEVATOR_INTERCOM": null, "WORKING_HRS": null, "EMPLOYEE_QTY": null, "EMPLOYEE_MALE": null, "EMPLOYEE_FEMALE": null, "EMPLOYEE_DIF_ABLE": null, "WORKING_HRS_STR": null, "WORKING_HRS_STP": null}}, {"type": "Feature", "id": 148, "geometry": {"type": "Point", "coordinates": [72.81773876578343, 19.009772275214175]}, "properties": {"OBJECTID": 148, "NAME": "Traffic Police Head Office", "TYPE": 1, "SUBTYPE": "Control Room", "LOCATION": "Worli Police Camp, Sir Pochkhanwala Road, Near Hill Top Hotel, Worli, Mumbai - 400018, ", "ELEVATOR_CONTACT_LIST": null, "ELEVATOR_INTERCOM": null, "WORKING_HRS": null, "EMPLOYEE_QTY": null, "EMPLOYEE_MALE": null, "EMPLOYEE_FEMALE": null, "EMPLOYEE_DIF_ABLE": null, "WORKING_HRS_STR": null, "WORKING_HRS_STP": null}}, {"type": "Feature", "id": 149, "geometry": null, "properties": {"OBJECTID": 149, "NAME": "Vinoba Bhave Nagar Police Station", "TYPE": 1, "SUBTYPE": "Station", "LOCATION": "H.I.G Colony, BLD NO. 7 Kohonoor Co.op Hs . Society. V.B Nagar, Kurla (W), Mumbai - 400070. Pravin More  9821517320 vbnagarpolicestation@mtnl.net.in", "SHAPE": null, "ELEVATOR_CONTACT_LIST": null, "ELEVATOR_INTERCOM": null, "WORKING_HRS": null, "EMPLOYEE_QTY": null, "EMPLOYEE_MALE": null, "EMPLOYEE_FEMALE": null, "EMPLOYEE_DIF_ABLE": null, "WORKING_HRS_STR": null, "WORKING_HRS_STP": null}}, {"type": "Feature", "id": 150, "geometry": {"type": "Point", "coordinates": [72.84229528527774, 19.048259146086853]}, "properties": {"OBJECTID": 150, "NAME": "Mumbai Sagari Police Station", "TYPE": 1, "SUBTYPE": "Station", "LOCATION": "New Mahim Police Line, Ground Floor, Building No 09, S.L.Raheja Road, Mahim, Mumbai - 400016.  Vijay M. Kadam 9821671217 mumbaisagaripolicestation@mtnl.net.in", "ELEVATOR_CONTACT_LIST": null, "ELEVATOR_INTERCOM": null, "WORKING_HRS": null, "EMPLOYEE_QTY": null, "EMPLOYEE_MALE": null, "EMPLOYEE_FEMALE": null, "EMPLOYEE_DIF_ABLE": null, "WORKING_HRS_STR": null, "WORKING_HRS_STP": null}}, {"type": "Feature", "id": 151, "geometry": {"type": "Point", "coordinates": [72.8603250000692, 19.064436000050602]}, "properties": {"OBJECTID": 151, "NAME": "Cyber Police Station", "TYPE": 1, "SUBTYPE": "Station", "LOCATION": "Bandra Kurla Complex, Opp. ICICI Bank, BKC Road, Bandra (East), Mumbai 400051,", "ELEVATOR_CONTACT_LIST": null, "ELEVATOR_INTERCOM": null, "WORKING_HRS": null, "EMPLOYEE_QTY": null, "EMPLOYEE_MALE": null, "EMPLOYEE_FEMALE": null, "EMPLOYEE_DIF_ABLE": null, "WORKING_HRS_STR": null, "WORKING_HRS_STP": null}}, {"type": "Feature", "id": 152, "geometry": {"type": "Point", "coordinates": [72.90124879214434, 19.063793235021194]}, "properties": {"OBJECTID": 152, "NAME": "Tilak Nagar Police Station", "TYPE": 1, "SUBTYPE": "Station", "LOCATION": "Police Sation Tilak Nagar, Chembur West, Mumbai - 400089", "ELEVATOR_CONTACT_LIST": null, "ELEVATOR_INTERCOM": null, "WORKING_HRS": null, "EMPLOYEE_QTY": null, "EMPLOYEE_MALE": null, "EMPLOYEE_FEMALE": null, "EMPLOYEE_DIF_ABLE": null, "WORKING_HRS_STR": null, "WORKING_HRS_STP": null}}, {"type": "Feature", "id": 153, "geometry": {"type": "Point", "coordinates": [72.8174082125836, 19.00521899039035]}, "properties": {"OBJECTID": 153, "NAME": "Worli Police Station", "TYPE": 1, "SUBTYPE": "Station", "LOCATION": "Dr Annie Basent Road, Worli, Wroli Shivaji Nagar, Mumbai-400030.", "ELEVATOR_CONTACT_LIST": null, "ELEVATOR_INTERCOM": null, "WORKING_HRS": null, "EMPLOYEE_QTY": null, "EMPLOYEE_MALE": null, "EMPLOYEE_FEMALE": null, "EMPLOYEE_DIF_ABLE": null, "WORKING_HRS_STR": null, "WORKING_HRS_STP": null}}, {"type": "Feature", "id": 156, "geometry": {"type": "Point", "coordinates": [72.8878690595639, 19.07982467886869]}, "properties": {"OBJECTID": 156, "NAME": "Kurla Police Station", "TYPE": 1, "SUBTYPE": "Station", "LOCATION": "Sarveshwar Mandir Marg, Takiya Ward, Kurla (W) Mumbai 400070", "ELEVATOR_CONTACT_LIST": null, "ELEVATOR_INTERCOM": null, "WORKING_HRS": null, "EMPLOYEE_QTY": null, "EMPLOYEE_MALE": null, "EMPLOYEE_FEMALE": null, "EMPLOYEE_DIF_ABLE": null, "WORKING_HRS_STR": null, "WORKING_HRS_STP": null}}, {"type": "Feature", "id": 160, "geometry": {"type": "Point", "coordinates": [72.85773499961414, 19.15574300016493]}, "properties": {"OBJECTID": 160, "NAME": "Vanrai Police Station", "TYPE": 1, "SUBTYPE": "Station", "LOCATION": "Bldg, Nos. 2/Mhada vanrai Colony, Goregaon (E), Mumbai - 400063. Chandrakant N Gurav\n9821624681 goregaoneastpolicestation07@yahoo.in", "ELEVATOR_CONTACT_LIST": null, "ELEVATOR_INTERCOM": null, "WORKING_HRS": null, "EMPLOYEE_QTY": null, "EMPLOYEE_MALE": null, "EMPLOYEE_FEMALE": null, "EMPLOYEE_DIF_ABLE": null, "WORKING_HRS_STR": null, "WORKING_HRS_STP": null}}, {"type": "Feature", "id": 162, "geometry": {"type": "Point", "coordinates": [72.85793299960076, 19.22830800016472]}, "properties": {"OBJECTID": 162, "NAME": "Kasturba Marg Police Station", "TYPE": 1, "SUBTYPE": "Station", "LOCATION": "at the Junction of Main Kasturba Road & Cross Road No.1, Borivali (E), Mumbai-400066. Suhas Raikar  9594344111 kasturbapolicestation@mtnl.net.in", "ELEVATOR_CONTACT_LIST": null, "ELEVATOR_INTERCOM": null, "WORKING_HRS": null, "EMPLOYEE_QTY": null, "EMPLOYEE_MALE": null, "EMPLOYEE_FEMALE": null, "EMPLOYEE_DIF_ABLE": null, "WORKING_HRS_STR": null, "WORKING_HRS_STP": null}}, {"type": "Feature", "id": 163, "geometry": {"type": "Point", "coordinates": [72.8671339998488, 19.235951999859648]}, "properties": {"OBJECTID": 163, "NAME": "Duplicate) Police Station-1838770001271", "TYPE": 1, "SUBTYPE": "Station", "LOCATION": null, "ELEVATOR_CONTACT_LIST": null, "ELEVATOR_INTERCOM": null, "WORKING_HRS": null, "EMPLOYEE_QTY": null, "EMPLOYEE_MALE": null, "EMPLOYEE_FEMALE": null, "EMPLOYEE_DIF_ABLE": null, "WORKING_HRS_STR": null, "WORKING_HRS_STP": null}}, {"type": "Feature", "id": 167, "geometry": {"type": "Point", "coordinates": [72.84040799979874, 19.23222000028938]}, "properties": {"OBJECTID": 167, "NAME": "M H B Police Station", "TYPE": 1, "SUBTYPE": "Station", "LOCATION": "Old. M.H.B Colony, Near Borivali Main Post Office, New Link Road, Borivali (W), Mumbai - 400091.  Subhas Krishna Chavan 9870298510\nmhbpolicestation@mtnl.net.in", "ELEVATOR_CONTACT_LIST": null, "ELEVATOR_INTERCOM": null, "WORKING_HRS": null, "EMPLOYEE_QTY": null, "EMPLOYEE_MALE": null, "EMPLOYEE_FEMALE": null, "EMPLOYEE_DIF_ABLE": null, "WORKING_HRS_STR": null, "WORKING_HRS_STP": null}}, {"type": "Feature", "id": 321, "geometry": {"type": "Point", "coordinates": [72.8663143504273, 19.033725159773244]}, "properties": {"OBJECTID": 321, "NAME": "Centre Investgestion Branch ", "TYPE": 1, "SUBTYPE": "Office", "LOCATION": "Madhukarrao Ambedkar Road, Opposite Of Antop Hill Hospita, Antop Hill, Mumbai, 400037", "ELEVATOR_CONTACT_LIST": null, "ELEVATOR_INTERCOM": null, "WORKING_HRS": null, "EMPLOYEE_QTY": null, "EMPLOYEE_MALE": null, "EMPLOYEE_FEMALE": null, "EMPLOYEE_DIF_ABLE": null, "WORKING_HRS_STR": null, "WORKING_HRS_STP": null}}, {"type": "Feature", "id": 322, "geometry": {"type": "Point", "coordinates": [72.84596140978017, 19.018083480311173]}, "properties": {"OBJECTID": 322, "NAME": "State Inteligence Department Mumbai", "TYPE": 1, "SUBTYPE": "Office", "LOCATION": "Lokmaya Tilak Coloney Road, In Front of Laxumi Krupa CHS Near Light Pol No LNR 61-5 Near Dadar Station, Dadar East, Mumbai, 400014", "ELEVATOR_CONTACT_LIST": null, "ELEVATOR_INTERCOM": null, "WORKING_HRS": null, "EMPLOYEE_QTY": null, "EMPLOYEE_MALE": null, "EMPLOYEE_FEMALE": null, "EMPLOYEE_DIF_ABLE": null, "WORKING_HRS_STR": null, "WORKING_HRS_STP": null}}, {"type": "Feature", "id": 324, "geometry": {"type": "Point", "coordinates": [72.81625299998939, 19.006541999690015]}, "properties": {"OBJECTID": 324, "NAME": "Anti-Corruption Bureau", "TYPE": 1, "SUBTYPE": "Office", "LOCATION": "6th Floor, Sir Pochkhanawala Rd, B Wing, Worli Police Camp, Worli, Mumbai, Maharashtra 400030", "ELEVATOR_CONTACT_LIST": null, "ELEVATOR_INTERCOM": null, "WORKING_HRS": null, "EMPLOYEE_QTY": null, "EMPLOYEE_MALE": null, "EMPLOYEE_FEMALE": null, "EMPLOYEE_DIF_ABLE": null, "WORKING_HRS_STR": null, "WORKING_HRS_STP": null}}, {"type": "Feature", "id": 325, "geometry": {"type": "Point", "coordinates": [72.83231928985829, 18.967595344300385]}, "properties": {"OBJECTID": 325, "NAME": "Mumbai Police South Region", "TYPE": 1, "SUBTYPE": "Office", "LOCATION": "Police Colony, New Nagpada, Madanpura, Mumbai, Maharashtra 400008", "ELEVATOR_CONTACT_LIST": null, "ELEVATOR_INTERCOM": null, "WORKING_HRS": null, "EMPLOYEE_QTY": null, "EMPLOYEE_MALE": null, "EMPLOYEE_FEMALE": null, "EMPLOYEE_DIF_ABLE": null, "WORKING_HRS_STR": null, "WORKING_HRS_STP": null}}, {"type": "Feature", "id": 326, "geometry": {"type": "Point", "coordinates": [72.83575699984773, 18.98370699977878]}, "properties": {"OBJECTID": 326, "NAME": "Addl Comm. Of Police central Region Office", "TYPE": 1, "SUBTYPE": "Office", "LOCATION": "123, Tukaram Bhikaji Kadam Marg, Dhaku Prabhuchi Wadi, Byculla East, Mazgaon, Mumbai, Maharashtra 400027", "ELEVATOR_CONTACT_LIST": null, "ELEVATOR_INTERCOM": null, "WORKING_HRS": null, "EMPLOYEE_QTY": null, "EMPLOYEE_MALE": null, "EMPLOYEE_FEMALE": null, "EMPLOYEE_DIF_ABLE": null, "WORKING_HRS_STR": null, "WORKING_HRS_STP": null}}, {"type": "Feature", "id": 327, "geometry": {"type": "Point", "coordinates": [72.84602700002745, 19.00763400027254]}, "properties": {"OBJECTID": 327, "NAME": "Armed Police Headquarters", "TYPE": 1, "SUBTYPE": "Office", "LOCATION": "67-C/8, Parel Bhoiwada St, Police Colony, Naigaon, Mumbai, Maharashtra 400014", "ELEVATOR_CONTACT_LIST": null, "ELEVATOR_INTERCOM": null, "WORKING_HRS": null, "EMPLOYEE_QTY": null, "EMPLOYEE_MALE": null, "EMPLOYEE_FEMALE": null, "EMPLOYEE_DIF_ABLE": null, "WORKING_HRS_STR": null, "WORKING_HRS_STP": null}}, {"type": "Feature", "id": 328, "geometry": {"type": "Point", "coordinates": [72.83156799969497, 18.967179999687854]}, "properties": {"OBJECTID": 328, "NAME": "Police M.T.Section", "TYPE": 1, "SUBTYPE": "Office", "LOCATION": "Sofia Zubair Road, Police Colony, New Nagpada, Mazgaon, Mumbai, Maharashtra 400008", "ELEVATOR_CONTACT_LIST": null, "ELEVATOR_INTERCOM": null, "WORKING_HRS": null, "EMPLOYEE_QTY": null, "EMPLOYEE_MALE": null, "EMPLOYEE_FEMALE": null, "EMPLOYEE_DIF_ABLE": null, "WORKING_HRS_STR": null, "WORKING_HRS_STP": null}}, {"type": "Feature", "id": 329, "geometry": {"type": "Point", "coordinates": [72.84819900012467, 19.120559999872683]}, "properties": {"OBJECTID": 329, "NAME": "ACP Office", "TYPE": 1, "SUBTYPE": "Office", "LOCATION": "Sahar Road, Opp. Andheri Railway Station, Vertex Junction, Railway Colony, Andheri East, Railway Colony, Andheri East, Mumbai, Maharashtra, 400053", "ELEVATOR_CONTACT_LIST": null, "ELEVATOR_INTERCOM": null, "WORKING_HRS": null, "EMPLOYEE_QTY": null, "EMPLOYEE_MALE": null, "EMPLOYEE_FEMALE": null, "EMPLOYEE_DIF_ABLE": null, "WORKING_HRS_STR": null, "WORKING_HRS_STP": null}}, {"type": "Feature", "id": 641, "geometry": {"type": "Point", "coordinates": [72.84826999960767, 19.119459999927955]}, "properties": {"OBJECTID": 641, "NAME": "New Police Line", "TYPE": 0, "SUBTYPE": "Station", "LOCATION": "New Police Line,S Radha Krishnan Road,Near Andheri Station,Andheri East,Mumbai, 400069", "ELEVATOR_CONTACT_LIST": null, "ELEVATOR_INTERCOM": null, "WORKING_HRS": null, "EMPLOYEE_QTY": null, "EMPLOYEE_MALE": null, "EMPLOYEE_FEMALE": null, "EMPLOYEE_DIF_ABLE": null, "WORKING_HRS_STR": null, "WORKING_HRS_STP": null}}, {"type": "Feature", "id": 961, "geometry": {"type": "Point", "coordinates": [72.82268299433198, 19.0628172930207]}, "properties": {"OBJECTID": 961, "NAME": "Office of the ACP - Bandra Division", "TYPE": 1, "SUBTYPE": "Station", "LOCATION": "Sangeet Samrat Naushad Ali Marg\r\nNear Ashirwad Bungalow, Bandra West", "ELEVATOR_CONTACT_LIST": null, "ELEVATOR_INTERCOM": null, "WORKING_HRS": null, "EMPLOYEE_QTY": null, "EMPLOYEE_MALE": null, "EMPLOYEE_FEMALE": null, "EMPLOYEE_DIF_ABLE": null, "WORKING_HRS_STR": null, "WORKING_HRS_STP": null}}, {"type": "Feature", "id": 1281, "geometry": {"type": "Point", "coordinates": [72.86159199168588, 19.24594007683628]}, "properties": {"OBJECTID": 1281, "NAME": "Deputy Commissioner of Police", "TYPE": 1, "SUBTYPE": "Station", "LOCATION": "Shiv Shakti Complex, Shailendra Vidyalay Marg,, Dahisar East, Mumbai, Maharashtra 400068", "ELEVATOR_CONTACT_LIST": null, "ELEVATOR_INTERCOM": null, "WORKING_HRS": null, "EMPLOYEE_QTY": null, "EMPLOYEE_MALE": null, "EMPLOYEE_FEMALE": null, "EMPLOYEE_DIF_ABLE": null, "WORKING_HRS_STR": null, "WORKING_HRS_STP": null}}, {"type": "Feature", "id": 2242, "geometry": {"type": "Point", "coordinates": [72.81847153337856, 18.971697616009717]}, "properties": {"OBJECTID": 2242, "NAME": "Tardeo Police Station", "TYPE": 1, "SUBTYPE": "Station", "LOCATION": "Tardeo Officer Quarter B No.1 Gr. Fl., M.P.Mill, Compound, Tardeo, Mumbai-400034. Nagesh Sambhaji Jadhav 9967837888 tardeopolicestation@mtnl.net.in", "ELEVATOR_CONTACT_LIST": null, "ELEVATOR_INTERCOM": null, "WORKING_HRS": null, "EMPLOYEE_QTY": null, "EMPLOYEE_MALE": null, "EMPLOYEE_FEMALE": null, "EMPLOYEE_DIF_ABLE": null, "WORKING_HRS_STR": null, "WORKING_HRS_STP": null}}, {"type": "Feature", "id": 3202, "geometry": {"type": "Point", "coordinates": [72.87827300408802, 19.076686990699322]}, "properties": {"OBJECTID": 3202, "NAME": "288-TRIAL-Kurla Police Station 21", "TYPE": 1, "SUBTYPE": "Station", "LOCATION": "CST Road, Lal Bahadur Shastri Marg, Kapadia Nagar, Kurla, Mumbai, Maharashtra 400070\r\nCST Road, Lal Bahadur Shastri Marg, Kapadia Nagar, Kurla, Mumbai, Maharashtra 400070\r\n", "ELEVATOR_CONTACT_LIST": null, "ELEVATOR_INTERCOM": null, "WORKING_HRS": null, "EMPLOYEE_QTY": null, "EMPLOYEE_MALE": null, "EMPLOYEE_FEMALE": null, "EMPLOYEE_DIF_ABLE": null, "WORKING_HRS_STR": null, "WORKING_HRS_STP": null}}, {"type": "Feature", "id": 4497, "geometry": {"type": "Point", "coordinates": [72.8806665175604, 19.05874390814072]}, "properties": {"OBJECTID": 4497, "NAME": "Nehru Nagar Police Station (Duplicate)", "TYPE": 1, "SUBTYPE": "Station", "LOCATION": "Nehru Nagar Colony, Kurla (E), Mumbai - 400024.  Pramod Khoparde   9821624266 neharunagar1985@gmail.com", "ELEVATOR_CONTACT_LIST": null, "ELEVATOR_INTERCOM": null, "WORKING_HRS": null, "EMPLOYEE_QTY": null, "EMPLOYEE_MALE": null, "EMPLOYEE_FEMALE": null, "EMPLOYEE_DIF_ABLE": null, "WORKING_HRS_STR": null, "WORKING_HRS_STP": null}}, {"type": "Feature", "id": 4498, "geometry": {"type": "Point", "coordinates": [72.95184043698754, 19.177377543609964]}, "properties": {"OBJECTID": 4498, "NAME": "Mulund (W) Police Station", "TYPE": 1, "SUBTYPE": "Station", "LOCATION": "Purushottam Khemraj Bhavan, Netaji Subhash Road, Mulund (W),  Mumbai - 400080.  Rajaram Vithoba Vhanmane 9869167076 mulundpstn@gmail.com", "ELEVATOR_CONTACT_LIST": null, "ELEVATOR_INTERCOM": null, "WORKING_HRS": null, "EMPLOYEE_QTY": null, "EMPLOYEE_MALE": null, "EMPLOYEE_FEMALE": null, "EMPLOYEE_DIF_ABLE": null, "WORKING_HRS_STR": null, "WORKING_HRS_STP": null}}, {"type": "Feature", "id": 4499, "geometry": {"type": "Point", "coordinates": [72.86437639250623, 19.252760347726294]}, "properties": {"OBJECTID": 4499, "NAME": "Dahisar Police Station", "TYPE": 1, "SUBTYPE": "Station", "LOCATION": "S V Road, Near Union Bank, Dahisar (E), Mumbai - 400068.  Prakash Nana Jadhav 9821131509dahisarpolicestation@mtnl.net.indahisarpolicestation@gmail.com", "ELEVATOR_CONTACT_LIST": null, "ELEVATOR_INTERCOM": null, "WORKING_HRS": null, "EMPLOYEE_QTY": null, "EMPLOYEE_MALE": null, "EMPLOYEE_FEMALE": null, "EMPLOYEE_DIF_ABLE": null, "WORKING_HRS_STR": null, "WORKING_HRS_STP": null}}, {"type": "Feature", "id": 4500, "geometry": {"type": "Point", "coordinates": [72.83304592519931, 18.946604772257206]}, "properties": {"OBJECTID": 4500, "NAME": "Mumbai Police Headquarters", "TYPE": 1, "SUBTYPE": "Station", "LOCATION": "Commissioner of Police Office, Dadabhai Naoroji Road, Opp Crawford Market, Dhobi Talao, Fort, Mumbai 400001", "ELEVATOR_CONTACT_LIST": null, "ELEVATOR_INTERCOM": null, "WORKING_HRS": null, "EMPLOYEE_QTY": null, "EMPLOYEE_MALE": null, "EMPLOYEE_FEMALE": null, "EMPLOYEE_DIF_ABLE": null, "WORKING_HRS_STR": null, "WORKING_HRS_STP": null}}, {"type": "Feature", "id": 4501, "geometry": {"type": "Point", "coordinates": [72.81708667151179, 18.960901145000655]}, "properties": {"OBJECTID": 4501, "NAME": "Dadasaheb Bhadkamkar Road Police station", "TYPE": 1, "SUBTYPE": "Station", "LOCATION": "Lamington Road, Shapur Baug, Near HDFC Bank, Grant Road (East), Mumbai 400007", "ELEVATOR_CONTACT_LIST": null, "ELEVATOR_INTERCOM": null, "WORKING_HRS": null, "EMPLOYEE_QTY": null, "EMPLOYEE_MALE": null, "EMPLOYEE_FEMALE": null, "EMPLOYEE_DIF_ABLE": null, "WORKING_HRS_STR": null, "WORKING_HRS_STP": null}}, {"type": "Feature", "id": 4515, "geometry": null, "properties": {"OBJECTID": 4515, "NAME": "Mulund (W) Police Station (Duplicate)", "TYPE": 1, "SUBTYPE": "Station", "LOCATION": "Purushottam Khemraj Bhavan, Netaji Subhash Road, Mulund (W),  Mumbai - 400080.  Rajaram Vithoba Vhanmane 9869167076 mulundpstn@gmail.com", "SHAPE": null, "ELEVATOR_CONTACT_LIST": null, "ELEVATOR_INTERCOM": null, "WORKING_HRS": null, "EMPLOYEE_QTY": null, "EMPLOYEE_MALE": null, "EMPLOYEE_FEMALE": null, "EMPLOYEE_DIF_ABLE": null, "WORKING_HRS_STR": null, "WORKING_HRS_STP": null}}, {"type": "Feature", "id": 4801, "geometry": {"type": "Point", "coordinates": [72.8491179086798, 19.03773767542662]}, "properties": {"OBJECTID": 4801, "NAME": "Shahu Nagar Police Sttopm", "TYPE": 1, "SUBTYPE": null, "LOCATION": "60 Feet Road, Shahu Nagar, Mahim East, Matunga Labour Camp, Dharavi, Mumbai 400017", "ELEVATOR_CONTACT_LIST": null, "ELEVATOR_INTERCOM": null, "WORKING_HRS": null, "EMPLOYEE_QTY": null, "EMPLOYEE_MALE": null, "EMPLOYEE_FEMALE": null, "EMPLOYEE_DIF_ABLE": null, "WORKING_HRS_STR": null, "WORKING_HRS_STP": null}}, {"type": "Feature", "id": 5121, "geometry": {"type": "Point", "coordinates": [72.8955810956325, 19.109934671049217]}, "properties": {"OBJECTID": 5121, "NAME": "Sakinaka Police station", "TYPE": 1, "SUBTYPE": "Station", "LOCATION": "SAHAYADRI, 29-C, Police Line, MHADA Colony, Chandivali, Powai, Mumbai, Maharashtra 400072", "ELEVATOR_CONTACT_LIST": null, "ELEVATOR_INTERCOM": null, "WORKING_HRS": null, "EMPLOYEE_QTY": null, "EMPLOYEE_MALE": null, "EMPLOYEE_FEMALE": null, "EMPLOYEE_DIF_ABLE": null, "WORKING_HRS_STR": null, "WORKING_HRS_STP": null}}, {"type": "Feature", "id": 5122, "geometry": {"type": "Point", "coordinates": [72.78256462928445, 19.23776835420743]}, "properties": {"OBJECTID": 5122, "NAME": "Gorai Gaon Police Station", "TYPE": 1, "SUBTYPE": "Station", "LOCATION": "Manori - Gorai Rd, Talzen Pakhadi, Koliwada, Gorai, Mumbai, Maharashtra 400092", "ELEVATOR_CONTACT_LIST": null, "ELEVATOR_INTERCOM": null, "WORKING_HRS": null, "EMPLOYEE_QTY": null, "EMPLOYEE_MALE": null, "EMPLOYEE_FEMALE": null, "EMPLOYEE_DIF_ABLE": null, "WORKING_HRS_STR": null, "WORKING_HRS_STP": null}}]}